HIERARCHY
ROOT mixamorig:Hips
{
  OFFSET 0.000000 0.000000 0.000000
  CHANNELS 6 Xposition Yposition Zposition Zrotation Xrotation Yrotation
  JOINT mixamorig:Spine
  {
    OFFSET 0.000000 9.878500 1.258800
    CHANNELS 3 Zrotation Xrotation Yrotation
    JOINT mixamorig:Spine1
    {
      OFFSET 0.000000 11.272100 0.038100
      CHANNELS 3 Zrotation Xrotation Yrotation
      JOINT mixamorig:Spine2
      {
        OFFSET 0.000000 10.749001 -0.597600
        CHANNELS 3 Zrotation Xrotation Yrotation
        JOINT mixamorig:Neck
        {
          OFFSET 0.000000 12.015200 -1.691700
          CHANNELS 3 Zrotation Xrotation Yrotation
          JOINT mixamorig:Head
          {
            OFFSET 0.000000 8.810500 2.213900
            CHANNELS 3 Zrotation Xrotation Yrotation
            End Site
            {
              OFFSET 0.000000 18.232300 3.738000
            }
          }
        }
        JOINT mixamorig:LeftShoulder
        {
          OFFSET 6.002800 8.887900 -2.628900
          CHANNELS 3 Zrotation Xrotation Yrotation
          JOINT mixamorig:LeftArm
          {
            OFFSET 12.046300 0.000000 0.000000
            CHANNELS 3 Zrotation Xrotation Yrotation
            JOINT mixamorig:LeftForeArm
            {
              OFFSET 27.876501 0.000000 0.000000
              CHANNELS 3 Zrotation Xrotation Yrotation
              JOINT mixamorig:LeftHand
              {
                OFFSET 25.438500 0.000000 0.000000
                CHANNELS 3 Zrotation Xrotation Yrotation
                End Site
                {
                  OFFSET 10.0 0.0 0.0
                }
              }
            }
          }
        }
        JOINT mixamorig:RightShoulder
        {
          OFFSET -6.002800 8.887900 -2.628900
          CHANNELS 3 Zrotation Xrotation Yrotation
          JOINT mixamorig:RightArm
          {
            OFFSET -12.046300 0.000000 0.000000
            CHANNELS 3 Zrotation Xrotation Yrotation
            JOINT mixamorig:RightForeArm
            {
              OFFSET -27.876501 0.000000 0.000000
              CHANNELS 3 Zrotation Xrotation Yrotation
              JOINT mixamorig:RightHand
              {
                OFFSET -25.438500 0.000000 0.000000
                CHANNELS 3 Zrotation Xrotation Yrotation
                End Site
                {
                  OFFSET -10.0 0.0 0.0
                }
              }
            }
          }
        }
      }
    }
  }
}
MOTION
Frames: 154
Frame Time: 0.033333
46.5934 -102.5705 -0.0133 0.0000 0.0000 0.0000 -0.0658 -26.2987 0.0154 0.0000 0.0000 0.0000 0.0000 0.0000 0.0000 0.0000 0.0000 0.0000 0.0000 0.0000 0.0000 0.0000 0.0000 0.0000 -82.2266 -10.3138 -11.8074 -79.3094 21.4618 25.7568 0.0000 0.0000 0.0000 0.0000 0.0000 0.0000 84.3277 -1.6833 1.8587 74.4207 22.9750 -29.9668 0.0000 0.0000 0.0000
46.7276 -102.6978 -0.0139 0.0000 0.0000 0.0000 0.0840 -25.8972 -0.0193 0.0000 0.0000 0.0000 0.0000 0.0000 0.0000 0.0000 0.0000 0.0000 0.0000 0.0000 0.0000 0.0000 0.0000 0.0000 -81.9221 -10.7652 -12.3891 -79.1629 21.3741 25.7173 0.0000 0.0000 0.0000 0.0000 0.0000 0.0000 84.3631 -1.1294 1.2464 75.0371 22.6467 -29.2329 0.0000 0.0000 0.0000
46.8614 -102.8186 -0.0139 0.0000 0.0000 0.0000 0.2395 -26.1131 -0.0555 0.0000 0.0000 0.0000 0.0000 0.0000 0.0000 0.0000 0.0000 0.0000 0.0000 0.0000 0.0000 0.0000 0.0000 0.0000 -81.9481 -10.6463 -12.2469 -77.7615 22.2034 27.3541 0.0000 0.0000 0.0000 0.0000 0.0000 0.0000 84.4084 -1.7433 1.9223 75.4619 22.3652 -28.6644 0.0000 0.0000 0.0000
46.8870 -102.8142 -0.0148 0.0000 0.0000 0.0000 0.2693 -25.6369 -0.0613 0.0000 0.0000 0.0000 0.0000 0.0000 0.0000 0.0000 0.0000 0.0000 0.0000 0.0000 0.0000 0.0000 0.0000 0.0000 -82.1554 -10.3580 -11.8728 -79.2018 20.6488 24.8367 0.0000 0.0000 0.0000 0.0000 0.0000 0.0000 84.1960 -4.0923 4.5290 79.6427 18.7528 -22.4038 0.0000 0.0000 0.0000
46.8975 -102.7637 -0.0149 0.0000 0.0000 0.0000 0.2688 -25.9325 -0.0619 0.0000 0.0000 0.0000 0.0000 0.0000 0.0000 0.0000 0.0000 0.0000 0.0000 0.0000 0.0000 0.0000 0.0000 0.0000 -82.5595 -9.1433 -10.4084 -77.5428 21.8559 27.0330 0.0000 0.0000 0.0000 0.0000 0.0000 0.0000 84.2596 -3.6674 4.0542 78.2227 20.2857 -24.8199 0.0000 0.0000 0.0000
46.9207 -102.7988 -0.0145 0.0000 0.0000 0.0000 0.2788 -26.6637 -0.0661 0.0000 0.0000 0.0000 0.0000 0.0000 0.0000 0.0000 0.0000 0.0000 0.0000 0.0000 0.0000 0.0000 0.0000 0.0000 -82.3755 -9.5909 -10.9525 -77.0860 22.1316 27.5856 0.0000 0.0000 0.0000 0.0000 0.0000 0.0000 84.1987 -3.8572 4.2686 78.1191 20.4173 -25.0239 0.0000 0.0000 0.0000
46.9221 -102.8726 -0.0146 0.0000 0.0000 0.0000 0.2820 -26.5575 -0.0666 0.0000 0.0000 0.0000 0.0000 0.0000 0.0000 0.0000 0.0000 0.0000 0.0000 0.0000 0.0000 0.0000 0.0000 0.0000 -82.2087 -9.9028 -11.3412 -76.4590 22.5316 28.3817 0.0000 0.0000 0.0000 0.0000 0.0000 0.0000 84.1568 -4.3122 4.7755 78.1081 20.4750 -25.0986 0.0000 0.0000 0.0000
46.9222 -102.9741 -0.0144 0.0000 0.0000 0.0000 0.2678 -27.1072 -0.0645 0.0000 0.0000 0.0000 0.0000 0.0000 0.0000 0.0000 0.0000 0.0000 0.0000 0.0000 0.0000 0.0000 0.0000 0.0000 -81.7058 -11.0186 -12.7282 -76.2873 22.6314 28.5899 0.0000 0.0000 0.0000 0.0000 0.0000 0.0000 84.0906 -4.5879 5.0867 77.7829 20.7019 -25.5166 0.0000 0.0000 0.0000
46.9266 -103.0370 -0.0148 0.0000 0.0000 0.0000 0.2714 -26.9691 -0.0651 0.0000 0.0000 0.0000 0.0000 0.0000 0.0000 0.0000 0.0000 0.0000 0.0000 0.0000 0.0000 0.0000 0.0000 0.0000 -81.7464 -10.8934 -12.5749 -76.3551 22.6168 28.5383 0.0000 0.0000 0.0000 0.0000 0.0000 0.0000 84.0128 -4.9935 5.5438 76.7422 21.5339 -27.0103 0.0000 0.0000 0.0000
46.9440 -103.0483 -0.0153 0.0000 0.0000 0.0000 0.2845 -26.0349 -0.0658 0.0000 0.0000 0.0000 0.0000 0.0000 0.0000 0.0000 0.0000 0.0000 0.0000 0.0000 0.0000 0.0000 0.0000 0.0000 -82.0199 -10.2823 -11.8141 -76.2009 22.7259 28.7501 0.0000 0.0000 0.0000 0.0000 0.0000 0.0000 84.0995 -4.4155 4.8948 77.5086 20.9109 -25.8936 0.0000 0.0000 0.0000
46.9775 -103.0495 -0.0158 0.0000 0.0000 0.0000 0.3169 -25.5541 -0.0719 0.0000 0.0000 0.0000 0.0000 0.0000 0.0000 0.0000 0.0000 0.0000 0.0000 0.0000 0.0000 0.0000 0.0000 0.0000 -82.6088 -8.9503 -10.1803 -73.9100 24.1619 31.7618 0.0000 0.0000 0.0000 0.0000 0.0000 0.0000 83.7460 -6.1546 6.8643 79.3102 19.2496 -23.1251 0.0000 0.0000 0.0000
46.9473 -103.0572 -0.0150 0.0000 0.0000 0.0000 0.2692 -25.4143 -0.0607 0.0000 0.0000 0.0000 0.0000 0.0000 0.0000 0.0000 0.0000 0.0000 0.0000 0.0000 0.0000 0.0000 0.0000 0.0000 -82.4857 -9.4559 -10.7778 -72.7613 24.7539 33.1729 0.0000 0.0000 0.0000 0.0000 0.0000 0.0000 83.9647 -5.1362 5.7069 76.8090 21.4054 -26.8204 0.0000 0.0000 0.0000
46.9724 -103.0338 -0.0158 0.0000 0.0000 0.0000 0.2996 -25.7175 -0.0684 0.0000 0.0000 0.0000 0.0000 0.0000 0.0000 0.0000 0.0000 0.0000 0.0000 0.0000 0.0000 0.0000 0.0000 0.0000 -82.2320 -9.8275 -11.2505 -72.8294 24.6849 33.0438 0.0000 0.0000 0.0000 0.0000 0.0000 0.0000 83.9439 -5.0860 5.6532 73.7313 23.3834 -30.8549 0.0000 0.0000 0.0000
47.0239 -103.0211 -0.0146 0.0000 0.0000 0.0000 0.3555 -26.4052 -0.0834 0.0000 0.0000 0.0000 0.0000 0.0000 0.0000 0.0000 0.0000 0.0000 0.0000 0.0000 0.0000 0.0000 0.0000 0.0000 -82.0901 -10.2367 -11.7473 -74.6236 23.6216 30.6860 0.0000 0.0000 0.0000 0.0000 0.0000 0.0000 84.3452 -2.5427 2.8068 74.5526 22.9104 -29.8160 0.0000 0.0000 0.0000
46.9609 -103.0030 -0.0147 0.0000 0.0000 0.0000 0.2790 -25.2419 -0.0625 0.0000 0.0000 0.0000 0.0000 0.0000 0.0000 0.0000 0.0000 0.0000 0.0000 0.0000 0.0000 0.0000 0.0000 0.0000 -82.5689 -9.0614 -10.3136 -74.3086 23.7315 30.9939 0.0000 0.0000 0.0000 0.0000 0.0000 0.0000 84.2161 -3.0241 3.3457 74.5451 22.8588 -29.7540 0.0000 0.0000 0.0000
46.9613 -102.9988 -0.0150 0.0000 0.0000 0.0000 0.2652 -25.9187 -0.0610 0.0000 0.0000 0.0000 0.0000 0.0000 0.0000 0.0000 0.0000 0.0000 0.0000 0.0000 0.0000 0.0000 0.0000 0.0000 -81.7835 -10.9675 -12.6521 -74.8023 23.4464 30.3690 0.0000 0.0000 0.0000 0.0000 0.0000 0.0000 84.1830 -3.2860 3.6375 72.0788 24.1628 -32.7855 0.0000 0.0000 0.0000
46.9639 -103.0637 -0.0155 0.0000 0.0000 0.0000 0.2527 -25.9305 -0.0582 0.0000 0.0000 0.0000 0.0000 0.0000 0.0000 0.0000 0.0000 0.0000 0.0000 0.0000 0.0000 0.0000 0.0000 0.0000 -81.8146 -10.7725 -12.4208 -73.3967 24.3769 32.3231 0.0000 0.0000 0.0000 0.0000 0.0000 0.0000 84.1859 -3.1954 3.5371 72.2676 24.0587 -32.5409 0.0000 0.0000 0.0000
46.9746 -103.1122 -0.0162 0.0000 0.0000 0.0000 0.2529 -25.4199 -0.0570 0.0000 0.0000 0.0000 0.0000 0.0000 0.0000 0.0000 0.0000 0.0000 0.0000 0.0000 0.0000 0.0000 0.0000 0.0000 -81.7429 -10.9086 -12.5932 -75.3965 23.1525 29.6895 0.0000 0.0000 0.0000 0.0000 0.0000 0.0000 83.1709 -7.7907 8.7757 78.3978 19.5107 -23.8087 0.0000 0.0000 0.0000
47.0313 -103.0501 -0.0162 0.0000 0.0000 0.0000 0.3140 -25.5894 -0.0713 0.0000 0.0000 0.0000 0.0000 0.0000 0.0000 0.0000 0.0000 0.0000 0.0000 0.0000 0.0000 0.0000 0.0000 0.0000 -81.6962 -10.8807 -12.5713 -76.2930 22.4447 28.3549 0.0000 0.0000 0.0000 0.0000 0.0000 0.0000 83.3006 -7.3026 8.2077 77.0687 20.7619 -25.9076 0.0000 0.0000 0.0000
47.0225 -102.8990 -0.0163 0.0000 0.0000 0.0000 0.2906 -25.0344 -0.0645 0.0000 0.0000 0.0000 0.0000 0.0000 0.0000 0.0000 0.0000 0.0000 0.0000 0.0000 0.0000 0.0000 0.0000 0.0000 -81.4889 -11.3537 -13.1643 -78.6010 20.6040 25.0412 0.0000 0.0000 0.0000 0.0000 0.0000 0.0000 83.3319 -7.0008 7.8643 76.1686 21.4963 -27.2326 0.0000 0.0000 0.0000
47.0202 -102.8911 -0.0162 0.0000 0.0000 0.0000 0.2450 -24.8322 -0.0539 0.0000 0.0000 0.0000 0.0000 0.0000 0.0000 0.0000 0.0000 0.0000 0.0000 0.0000 0.0000 0.0000 0.0000 0.0000 -81.9176 -10.7088 -12.3253 -78.1440 21.0243 25.7485 0.0000 0.0000 0.0000 0.0000 0.0000 0.0000 83.3977 -6.3282 7.1010 76.4969 21.2922 -26.8248 0.0000 0.0000 0.0000
47.0107 -102.8888 -0.0158 0.0000 0.0000 0.0000 0.1868 -24.3217 -0.0403 0.0000 0.0000 0.0000 0.0000 0.0000 0.0000 0.0000 0.0000 0.0000 0.0000 0.0000 0.0000 0.0000 0.0000 0.0000 -82.0892 -10.3098 -11.8312 -75.1115 23.2384 29.9445 0.0000 0.0000 0.0000 0.0000 0.0000 0.0000 82.8063 -7.5414 8.5496 75.5382 21.9817 -28.1435 0.0000 0.0000 0.0000
47.0017 -103.0163 -0.0169 0.0000 0.0000 0.0000 0.1523 -24.5027 -0.0331 0.0000 0.0000 0.0000 0.0000 0.0000 0.0000 0.0000 0.0000 0.0000 0.0000 0.0000 0.0000 0.0000 0.0000 0.0000 -81.8064 -10.8929 -12.5611 -76.0149 22.6875 28.7946 0.0000 0.0000 0.0000 0.0000 0.0000 0.0000 82.6614 -6.9636 7.9151 73.8778 23.1764 -30.5098 0.0000 0.0000 0.0000
47.0932 -103.0920 -0.0172 0.0000 0.0000 0.0000 0.2495 -24.3519 -0.0538 0.0000 0.0000 0.0000 0.0000 0.0000 0.0000 0.0000 0.0000 0.0000 0.0000 0.0000 0.0000 0.0000 0.0000 0.0000 -81.5618 -11.3500 -13.1432 -77.6210 21.5175 26.5838 0.0000 0.0000 0.0000 0.0000 0.0000 0.0000 82.2515 -7.1467 8.1816 74.3332 23.4640 -30.6385 0.0000 0.0000 0.0000
47.0931 -102.8420 -0.0171 0.0000 0.0000 0.0000 0.2286 -25.4983 -0.0517 0.0000 0.0000 0.0000 0.0000 0.0000 0.0000 0.0000 0.0000 0.0000 0.0000 0.0000 0.0000 0.0000 0.0000 0.0000 -82.2164 -9.9352 -11.3768 -76.2983 22.4329 28.3376 0.0000 0.0000 0.0000 0.0000 0.0000 0.0000 82.8183 -2.1984 2.4927 73.0345 24.7599 -33.0246 0.0000 0.0000 0.0000
47.0975 -102.4356 -0.0170 0.0000 0.0000 0.0000 0.2410 -25.6112 -0.0548 0.0000 0.0000 0.0000 0.0000 0.0000 0.0000 0.0000 0.0000 0.0000 0.0000 0.0000 0.0000 0.0000 0.0000 0.0000 -82.1314 -10.0335 -11.5062 -76.7785 22.1553 27.7614 0.0000 0.0000 0.0000 0.0000 0.0000 0.0000 82.5120 -1.1904 1.3571 65.3376 28.8888 -43.7714 0.0000 0.0000 0.0000
47.2414 -102.6078 -0.0130 0.0000 0.0000 0.0000 0.3840 -23.8757 -0.0812 0.0000 0.0000 0.0000 0.0000 0.0000 0.0000 0.0000 0.0000 0.0000 0.0000 0.0000 0.0000 0.0000 0.0000 0.0000 -81.4989 -11.4160 -13.2340 -77.6395 21.5200 26.5784 0.0000 0.0000 0.0000 0.0000 0.0000 0.0000 79.9244 10.5448 -12.5686 31.4045 25.4321 -77.5057 0.0000 0.0000 0.0000
47.7102 -102.7599 -0.0106 0.0000 0.0000 0.0000 0.9320 -22.3635 -0.1842 0.0000 0.0000 0.0000 0.0000 0.0000 0.0000 0.0000 0.0000 0.0000 0.0000 0.0000 0.0000 0.0000 0.0000 0.0000 -80.5495 -13.1105 -15.4468 -77.8443 20.7009 25.4884 0.0000 0.0000 0.0000 0.0000 0.0000 0.0000 72.9520 19.2111 -25.7870 15.6419 15.5806 -89.7722 0.0000 0.0000 0.0000
47.6641 -102.8483 -0.0088 0.0000 0.0000 0.0000 0.9367 -19.6921 -0.1626 0.0000 0.0000 0.0000 0.0000 0.0000 0.0000 0.0000 0.0000 0.0000 0.0000 0.0000 0.0000 0.0000 0.0000 0.0000 -76.1417 -18.4637 -23.4457 -83.9934 12.1981 13.5370 0.0000 0.0000 0.0000 0.0000 0.0000 0.0000 70.5201 20.5189 -28.7202 6.0604 6.5742 -94.6672 0.0000 0.0000 0.0000
47.3649 -102.7463 -0.0078 0.0000 0.0000 0.0000 0.6461 -22.3647 -0.1277 0.0000 0.0000 0.0000 0.0000 0.0000 0.0000 0.0000 0.0000 0.0000 0.0000 0.0000 0.0000 0.0000 0.0000 0.0000 -78.5955 -15.6237 -19.0322 -85.6618 7.3372 7.9131 0.0000 0.0000 0.0000 0.0000 0.0000 0.0000 62.9776 24.1698 -38.5334 -4.3200 -4.7743 -95.7256 0.0000 0.0000 0.0000
47.1129 -102.5719 -0.0111 0.0000 0.0000 0.0000 0.3855 -24.6528 -0.0842 0.0000 0.0000 0.0000 0.0000 0.0000 0.0000 0.0000 0.0000 0.0000 0.0000 0.0000 0.0000 0.0000 0.0000 0.0000 -74.9342 -19.4583 -25.2203 -86.5878 -3.3145 -3.5179 0.0000 0.0000 0.0000 0.0000 0.0000 0.0000 68.2045 21.6535 -31.5439 -12.6045 -13.6990 -94.8075 0.0000 0.0000 0.0000
47.0342 -102.5523 -0.0104 0.0000 0.0000 0.0000 0.3147 -26.2687 -0.0734 0.0000 0.0000 0.0000 0.0000 0.0000 0.0000 0.0000 0.0000 0.0000 0.0000 0.0000 0.0000 0.0000 0.0000 0.0000 -74.1859 -19.9261 -26.1586 -86.5145 4.3450 4.6174 0.0000 0.0000 0.0000 0.0000 0.0000 0.0000 66.1197 22.6655 -34.2279 -17.5509 -18.3710 -92.6590 0.0000 0.0000 0.0000
46.9307 -102.5483 -0.0102 0.0000 0.0000 0.0000 0.1895 -25.1964 -0.0424 0.0000 0.0000 0.0000 0.0000 0.0000 0.0000 0.0000 0.0000 0.0000 0.0000 0.0000 0.0000 0.0000 0.0000 0.0000 -73.3554 -20.5479 -27.3573 -86.9137 -1.6610 -1.7529 0.0000 0.0000 0.0000 0.0000 0.0000 0.0000 67.2982 21.9897 -32.5433 -23.4953 -23.3110 -89.5359 0.0000 0.0000 0.0000
46.9008 -102.6311 -0.0104 0.0000 0.0000 0.0000 0.1447 -22.9663 -0.0294 0.0000 0.0000 0.0000 0.0000 0.0000 0.0000 0.0000 0.0000 0.0000 0.0000 0.0000 0.0000 0.0000 0.0000 0.0000 -75.7618 -18.3066 -23.4034 -87.0411 3.8932 4.0995 0.0000 0.0000 0.0000 0.0000 0.0000 0.0000 66.0441 22.6919 -34.3130 -27.8355 -26.2482 -86.5099 0.0000 0.0000 0.0000
46.8313 -102.6188 -0.0112 0.0000 0.0000 0.0000 0.0242 -21.6612 -0.0046 0.0000 0.0000 0.0000 0.0000 0.0000 0.0000 0.0000 0.0000 0.0000 0.0000 0.0000 0.0000 0.0000 0.0000 0.0000 -75.4479 -18.5989 -23.9039 -87.1675 -2.9666 -3.1169 0.0000 0.0000 0.0000 0.0000 0.0000 0.0000 66.2757 22.5084 -33.9033 -33.1722 -29.3368 -82.6194 0.0000 0.0000 0.0000
46.7739 -102.8459 -0.0117 0.0000 0.0000 0.0000 -0.0538 -20.9480 0.0100 0.0000 0.0000 0.0000 0.0000 0.0000 0.0000 0.0000 0.0000 0.0000 0.0000 0.0000 0.0000 0.0000 0.0000 0.0000 -76.3696 -17.6379 -22.3182 -87.3400 2.0761 2.1748 0.0000 0.0000 0.0000 0.0000 0.0000 0.0000 65.0419 23.0926 -35.5329 -32.4216 -28.7361 -82.7664 0.0000 0.0000 0.0000
46.7666 -102.9907 -0.0125 0.0000 0.0000 0.0000 -0.0996 -20.3534 0.0179 0.0000 0.0000 0.0000 0.0000 0.0000 0.0000 0.0000 0.0000 0.0000 0.0000 0.0000 0.0000 0.0000 0.0000 0.0000 -76.9704 -16.9880 -21.2781 -87.1918 4.2497 4.4630 0.0000 0.0000 0.0000 0.0000 0.0000 0.0000 64.2681 23.3512 -36.4211 -31.2669 -28.0444 -83.4948 0.0000 0.0000 0.0000
46.7623 -103.1277 -0.0124 0.0000 0.0000 0.0000 -0.0928 -19.6557 0.0161 0.0000 0.0000 0.0000 0.0000 0.0000 0.0000 0.0000 0.0000 0.0000 0.0000 0.0000 0.0000 0.0000 0.0000 0.0000 -77.2508 -16.5802 -20.6697 -86.8293 5.8662 6.1995 0.0000 0.0000 0.0000 0.0000 0.0000 0.0000 63.8044 23.5327 -37.0021 -31.0410 -28.0148 -83.8665 0.0000 0.0000 0.0000
46.7185 -103.1333 -0.0120 0.0000 0.0000 0.0000 -0.1364 -19.7202 0.0237 0.0000 0.0000 0.0000 0.0000 0.0000 0.0000 0.0000 0.0000 0.0000 0.0000 0.0000 0.0000 0.0000 0.0000 0.0000 -76.2999 -17.6235 -22.3275 -87.7207 -0.1571 -0.1635 0.0000 0.0000 0.0000 0.0000 0.0000 0.0000 62.2174 24.1491 -39.0381 -30.0838 -27.7161 -85.1042 0.0000 0.0000 0.0000
46.7378 -103.1329 -0.0119 0.0000 0.0000 0.0000 -0.1029 -20.1090 0.0182 0.0000 0.0000 0.0000 0.0000 0.0000 0.0000 0.0000 0.0000 0.0000 0.0000 0.0000 0.0000 0.0000 0.0000 0.0000 -75.6411 -18.3598 -23.5203 -87.6334 2.6487 2.7603 0.0000 0.0000 0.0000 0.0000 0.0000 0.0000 62.4730 24.2274 -38.9767 -28.7057 -26.8406 -85.9992 0.0000 0.0000 0.0000
46.7226 -102.7228 -0.0117 0.0000 0.0000 0.0000 -0.0660 -21.2524 0.0124 0.0000 0.0000 0.0000 0.0000 0.0000 0.0000 0.0000 0.0000 0.0000 0.0000 0.0000 0.0000 0.0000 0.0000 0.0000 -74.9775 -19.0060 -24.6228 -87.6673 1.0369 1.0799 0.0000 0.0000 0.0000 0.0000 0.0000 0.0000 62.4839 24.3921 -39.2213 -28.2108 -26.6212 -86.5488 0.0000 0.0000 0.0000
46.6783 -102.3681 -0.0116 0.0000 0.0000 0.0000 -0.0708 -21.9523 0.0137 0.0000 0.0000 0.0000 0.0000 0.0000 0.0000 0.0000 0.0000 0.0000 0.0000 0.0000 0.0000 0.0000 0.0000 0.0000 -74.9106 -19.0797 -24.7460 -87.7201 -1.3285 -1.3824 0.0000 0.0000 0.0000 0.0000 0.0000 0.0000 64.6202 23.7309 -36.7552 -28.5556 -26.9587 -86.5721 0.0000 0.0000 0.0000
46.6293 -102.2290 -0.0105 0.0000 0.0000 0.0000 -0.1287 -21.4210 0.0243 0.0000 0.0000 0.0000 0.0000 0.0000 0.0000 0.0000 0.0000 0.0000 0.0000 0.0000 0.0000 0.0000 0.0000 0.0000 -74.8191 -19.1605 -24.8894 -87.7654 -0.6362 -0.6615 0.0000 0.0000 0.0000 0.0000 0.0000 0.0000 65.4699 23.4574 -35.7963 -27.7273 -26.4317 -87.1546 0.0000 0.0000 0.0000
46.6168 -102.0500 -0.0106 0.0000 0.0000 0.0000 -0.1771 -22.6144 0.0354 0.0000 0.0000 0.0000 0.0000 0.0000 0.0000 0.0000 0.0000 0.0000 0.0000 0.0000 0.0000 0.0000 0.0000 0.0000 -74.1372 -19.7913 -26.0064 -87.9499 -2.1128 -2.1898 0.0000 0.0000 0.0000 0.0000 0.0000 0.0000 65.6248 23.3961 -35.6071 -25.4126 -24.6915 -88.2974 0.0000 0.0000 0.0000
46.5844 -102.0119 -0.0105 0.0000 0.0000 0.0000 -0.2225 -23.3806 0.0460 0.0000 0.0000 0.0000 0.0000 0.0000 0.0000 0.0000 0.0000 0.0000 0.0000 0.0000 0.0000 0.0000 0.0000 0.0000 -73.9898 -19.8973 -26.2113 -87.7563 -4.6477 -4.8331 0.0000 0.0000 0.0000 0.0000 0.0000 0.0000 64.2745 24.0543 -37.4680 -24.0742 -23.6631 -88.9839 0.0000 0.0000 0.0000
46.5622 -101.9520 -0.0101 0.0000 0.0000 0.0000 -0.2580 -24.2705 0.0555 0.0000 0.0000 0.0000 0.0000 0.0000 0.0000 0.0000 0.0000 0.0000 0.0000 0.0000 0.0000 0.0000 0.0000 0.0000 -72.9037 -20.7698 -27.8675 -87.9816 -3.5366 -3.6633 0.0000 0.0000 0.0000 0.0000 0.0000 0.0000 64.7540 23.9421 -36.9799 -23.4824 -23.1689 -89.2081 0.0000 0.0000 0.0000
46.5886 -101.9542 -0.0102 0.0000 0.0000 0.0000 -0.2286 -24.1232 0.0489 0.0000 0.0000 0.0000 0.0000 0.0000 0.0000 0.0000 0.0000 0.0000 0.0000 0.0000 0.0000 0.0000 0.0000 0.0000 -73.7856 -20.0572 -26.5135 -88.1461 -1.9518 -2.0160 0.0000 0.0000 0.0000 0.0000 0.0000 0.0000 65.5829 23.5951 -35.9257 -24.3008 -23.8029 -88.7785 0.0000 0.0000 0.0000
46.6215 -102.6388 -0.0101 0.0000 0.0000 0.0000 -0.2343 -22.3119 0.0462 0.0000 0.0000 0.0000 0.0000 0.0000 0.0000 0.0000 0.0000 0.0000 0.0000 0.0000 0.0000 0.0000 0.0000 0.0000 -75.9387 -18.1761 -23.1665 -87.9585 4.3057 4.4617 0.0000 0.0000 0.0000 0.0000 0.0000 0.0000 63.9938 24.1687 -37.8298 -27.5509 -25.9403 -86.4223 0.0000 0.0000 0.0000
46.6359 -103.1841 -0.0113 0.0000 0.0000 0.0000 -0.3007 -18.8883 0.0500 0.0000 0.0000 0.0000 0.0000 0.0000 0.0000 0.0000 0.0000 0.0000 0.0000 0.0000 0.0000 0.0000 0.0000 0.0000 -76.8264 -17.2675 -21.6798 -87.6709 5.3392 5.5604 0.0000 0.0000 0.0000 0.0000 0.0000 0.0000 64.1267 23.8885 -37.3199 -29.8590 -27.1489 -84.3264 0.0000 0.0000 0.0000
46.6460 -103.4092 -0.0116 0.0000 0.0000 0.0000 -0.3591 -17.4190 0.0550 0.0000 0.0000 0.0000 0.0000 0.0000 0.0000 0.0000 0.0000 0.0000 0.0000 0.0000 0.0000 0.0000 0.0000 0.0000 -76.3729 -17.7116 -22.4094 -87.9961 2.7833 2.8824 0.0000 0.0000 0.0000 0.0000 0.0000 0.0000 63.7002 23.8480 -37.5477 -34.6211 -29.5576 -80.4936 0.0000 0.0000 0.0000
46.6464 -103.6851 -0.0117 0.0000 0.0000 0.0000 -0.3722 -14.0162 0.0458 0.0000 0.0000 0.0000 0.0000 0.0000 0.0000 0.0000 0.0000 0.0000 0.0000 0.0000 0.0000 0.0000 0.0000 0.0000 -76.9180 -17.1459 -21.4940 -87.7592 2.9351 3.0521 0.0000 0.0000 0.0000 0.0000 0.0000 0.0000 61.1173 24.6161 -40.5620 -38.7132 -31.0675 -76.7035 0.0000 0.0000 0.0000
46.6695 -103.6590 -0.0119 0.0000 0.0000 0.0000 -0.2747 -15.5158 0.0374 0.0000 0.0000 0.0000 0.0000 0.0000 0.0000 0.0000 0.0000 0.0000 0.0000 0.0000 0.0000 0.0000 0.0000 0.0000 -75.9454 -18.0454 -22.9990 -87.7448 0.1178 0.1226 0.0000 0.0000 0.0000 0.0000 0.0000 0.0000 57.6411 25.2905 -44.3669 -41.5603 -32.0588 -74.2597 0.0000 0.0000 0.0000
46.7044 -103.6408 -0.0117 0.0000 0.0000 0.0000 -0.2388 -17.5706 0.0369 0.0000 0.0000 0.0000 0.0000 0.0000 0.0000 0.0000 0.0000 0.0000 0.0000 0.0000 0.0000 0.0000 0.0000 0.0000 -77.0503 -16.8804 -21.1149 -87.7465 0.6452 0.6711 0.0000 0.0000 0.0000 0.0000 0.0000 0.0000 54.1044 25.7100 -48.1568 -40.0531 -31.3102 -75.1096 0.0000 0.0000 0.0000
46.7006 -103.7550 -0.0141 0.0000 0.0000 0.0000 -0.2458 -18.1595 0.0393 0.0000 0.0000 0.0000 0.0000 0.0000 0.0000 0.0000 0.0000 0.0000 0.0000 0.0000 0.0000 0.0000 0.0000 0.0000 -78.8940 -14.4942 -17.5715 -87.2468 5.7408 6.0230 0.0000 0.0000 0.0000 0.0000 0.0000 0.0000 54.2506 25.4345 -47.5499 -41.8390 -31.9180 -73.6017 0.0000 0.0000 0.0000
46.7340 -103.8228 -0.0146 0.0000 0.0000 0.0000 -0.2034 -16.2298 0.0290 0.0000 0.0000 0.0000 0.0000 0.0000 0.0000 0.0000 0.0000 0.0000 0.0000 0.0000 0.0000 0.0000 0.0000 0.0000 -77.9965 -15.6241 -19.2331 -87.9040 0.2111 0.2190 0.0000 0.0000 0.0000 0.0000 0.0000 0.0000 54.3975 24.9829 -46.6408 -44.3650 -32.7145 -71.4958 0.0000 0.0000 0.0000
46.8205 -103.9512 -0.0143 0.0000 0.0000 0.0000 -0.0802 -17.5363 0.0124 0.0000 0.0000 0.0000 0.0000 0.0000 0.0000 0.0000 0.0000 0.0000 0.0000 0.0000 0.0000 0.0000 0.0000 0.0000 -78.5622 -14.7737 -18.0129 -87.6892 3.5615 3.7081 0.0000 0.0000 0.0000 0.0000 0.0000 0.0000 49.8733 25.1316 -51.2256 -42.5086 -32.1297 -73.0289 0.0000 0.0000 0.0000
46.9199 -103.8578 -0.0157 0.0000 0.0000 0.0000 0.0870 -17.2202 -0.0132 0.0000 0.0000 0.0000 0.0000 0.0000 0.0000 0.0000 0.0000 0.0000 0.0000 0.0000 0.0000 0.0000 0.0000 0.0000 -75.7282 -18.0013 -23.0307 -84.0770 -13.0940 -14.5082 0.0000 0.0000 0.0000 0.0000 0.0000 0.0000 46.1230 25.0318 -55.0758 -42.4963 -32.1619 -73.1041 0.0000 0.0000 0.0000
46.9454 -103.6539 -0.0170 0.0000 0.0000 0.0000 0.1244 -14.8995 -0.0163 0.0000 0.0000 0.0000 0.0000 0.0000 0.0000 0.0000 0.0000 0.0000 0.0000 0.0000 0.0000 0.0000 0.0000 0.0000 -74.2391 -19.4520 -25.5212 -85.6596 -9.3516 -10.0846 0.0000 0.0000 0.0000 0.0000 0.0000 0.0000 40.0521 24.2832 -61.1033 -36.9959 -30.0298 -77.4415 0.0000 0.0000 0.0000
46.9747 -103.6399 -0.0151 0.0000 0.0000 0.0000 0.1600 -16.6072 -0.0234 0.0000 0.0000 0.0000 0.0000 0.0000 0.0000 0.0000 0.0000 0.0000 0.0000 0.0000 0.0000 0.0000 0.0000 0.0000 -74.9319 -18.8535 -24.4473 -86.9716 -4.2484 -4.4788 0.0000 0.0000 0.0000 0.0000 0.0000 0.0000 40.6982 24.2602 -60.1851 -39.8257 -31.2259 -75.2952 0.0000 0.0000 0.0000
46.9888 -102.9687 -0.0152 0.0000 0.0000 0.0000 0.1024 -16.9346 -0.0153 0.0000 0.0000 0.0000 0.0000 0.0000 0.0000 0.0000 0.0000 0.0000 0.0000 0.0000 0.0000 0.0000 0.0000 0.0000 -75.7738 -18.1291 -23.1740 -85.3485 -9.9358 -10.7723 0.0000 0.0000 0.0000 0.0000 0.0000 0.0000 41.4822 24.1378 -58.8996 -40.0783 -31.3726 -75.1879 0.0000 0.0000 0.0000
47.0286 -103.1849 -0.0139 0.0000 0.0000 0.0000 0.1475 -19.0075 -0.0247 0.0000 0.0000 0.0000 0.0000 0.0000 0.0000 0.0000 0.0000 0.0000 0.0000 0.0000 0.0000 0.0000 0.0000 0.0000 -79.2058 -13.6194 -16.4258 -87.0314 4.7366 4.9882 0.0000 0.0000 0.0000 0.0000 0.0000 0.0000 41.9446 24.0878 -58.2023 -42.2321 -32.1157 -73.3964 0.0000 0.0000 0.0000
47.0539 -103.1770 -0.0152 0.0000 0.0000 0.0000 0.1702 -16.8817 -0.0252 0.0000 0.0000 0.0000 0.0000 0.0000 0.0000 0.0000 0.0000 0.0000 0.0000 0.0000 0.0000 0.0000 0.0000 0.0000 -76.1585 -17.4956 -22.2220 -86.2119 -7.8583 -8.3940 0.0000 0.0000 0.0000 0.0000 0.0000 0.0000 40.3777 23.8363 -59.7116 -41.7024 -32.0009 -73.9491 0.0000 0.0000 0.0000
47.0650 -103.1923 -0.0149 0.0000 0.0000 0.0000 0.1826 -17.1096 -0.0275 0.0000 0.0000 0.0000 0.0000 0.0000 0.0000 0.0000 0.0000 0.0000 0.0000 0.0000 0.0000 0.0000 0.0000 0.0000 -76.3551 -17.2833 -21.8793 -86.6571 -6.1485 -6.5174 0.0000 0.0000 0.0000 0.0000 0.0000 0.0000 41.1733 23.8991 -58.7980 -41.0922 -31.8072 -74.4845 0.0000 0.0000 0.0000
47.0663 -103.2576 -0.0143 0.0000 0.0000 0.0000 0.2406 -17.4891 -0.0370 0.0000 0.0000 0.0000 0.0000 0.0000 0.0000 0.0000 0.0000 0.0000 0.0000 0.0000 0.0000 0.0000 0.0000 0.0000 -76.9345 -16.4382 -20.6079 -87.0374 -4.5504 -4.7918 0.0000 0.0000 0.0000 0.0000 0.0000 0.0000 42.2180 24.0179 -57.7111 -43.0749 -32.4503 -72.8057 0.0000 0.0000 0.0000
47.0573 -103.2180 -0.0148 0.0000 0.0000 0.0000 0.2295 -17.8523 -0.0361 0.0000 0.0000 0.0000 0.0000 0.0000 0.0000 0.0000 0.0000 0.0000 0.0000 0.0000 0.0000 0.0000 0.0000 0.0000 -76.2187 -17.2742 -21.9202 -85.0241 -11.0165 -12.0104 0.0000 0.0000 0.0000 0.0000 0.0000 0.0000 39.6313 23.6994 -60.4234 -39.6864 -31.1941 -75.4466 0.0000 0.0000 0.0000
47.0887 -103.2429 -0.0146 0.0000 0.0000 0.0000 0.2930 -18.9423 -0.0489 0.0000 0.0000 0.0000 0.0000 0.0000 0.0000 0.0000 0.0000 0.0000 0.0000 0.0000 0.0000 0.0000 0.0000 0.0000 -75.8856 -17.5820 -22.4377 -84.4102 -12.2795 -13.5289 0.0000 0.0000 0.0000 0.0000 0.0000 0.0000 40.6811 23.8652 -59.3709 -40.4445 -31.4076 -74.7055 0.0000 0.0000 0.0000
47.0595 -103.2359 -0.0146 0.0000 0.0000 0.0000 0.2597 -16.3575 -0.0373 0.0000 0.0000 0.0000 0.0000 0.0000 0.0000 0.0000 0.0000 0.0000 0.0000 0.0000 0.0000 0.0000 0.0000 0.0000 -74.9118 -18.6145 -24.1496 -86.2175 -7.7136 -8.2387 0.0000 0.0000 0.0000 0.0000 0.0000 0.0000 40.0176 23.8194 -60.1582 -38.9023 -30.7587 -75.8265 0.0000 0.0000 0.0000
47.0640 -103.2288 -0.0147 0.0000 0.0000 0.0000 0.3044 -20.9151 -0.0562 0.0000 0.0000 0.0000 0.0000 0.0000 0.0000 0.0000 0.0000 0.0000 0.0000 0.0000 0.0000 0.0000 0.0000 0.0000 -73.7007 -19.6830 -26.0650 -83.1323 -14.5489 -16.3825 0.0000 0.0000 0.0000 0.0000 0.0000 0.0000 40.7093 24.0617 -59.7507 -37.9008 -30.1667 -76.2580 0.0000 0.0000 0.0000
47.0322 -103.1553 -0.0160 0.0000 0.0000 0.0000 0.3042 -17.1991 -0.0460 0.0000 0.0000 0.0000 0.0000 0.0000 0.0000 0.0000 0.0000 0.0000 0.0000 0.0000 0.0000 0.0000 0.0000 0.0000 -76.2095 -17.4539 -22.1497 -85.1568 -10.1323 -11.0219 0.0000 0.0000 0.0000 0.0000 0.0000 0.0000 43.2355 24.5084 -57.4529 -40.7292 -31.1276 -73.7653 0.0000 0.0000 0.0000
47.0368 -103.1647 -0.0154 0.0000 0.0000 0.0000 0.3250 -19.6729 -0.0563 0.0000 0.0000 0.0000 0.0000 0.0000 0.0000 0.0000 0.0000 0.0000 0.0000 0.0000 0.0000 0.0000 0.0000 0.0000 -74.1368 -19.3839 -25.4787 -84.5098 -12.0254 -13.2264 0.0000 0.0000 0.0000 0.0000 0.0000 0.0000 44.3736 24.6568 -56.3742 -39.8113 -30.7227 -74.3731 0.0000 0.0000 0.0000
47.0332 -103.1074 -0.0168 0.0000 0.0000 0.0000 0.3242 -19.3281 -0.0552 0.0000 0.0000 0.0000 0.0000 0.0000 0.0000 0.0000 0.0000 0.0000 0.0000 0.0000 0.0000 0.0000 0.0000 0.0000 -74.4191 -19.1628 -25.0675 -85.0642 -10.1287 -11.0357 0.0000 0.0000 0.0000 0.0000 0.0000 0.0000 44.7297 24.8093 -56.2549 -37.9574 -29.9521 -75.7529 0.0000 0.0000 0.0000
47.0240 -103.1071 -0.0158 0.0000 0.0000 0.0000 0.3418 -22.3228 -0.0674 0.0000 0.0000 0.0000 0.0000 0.0000 0.0000 0.0000 0.0000 0.0000 0.0000 0.0000 0.0000 0.0000 0.0000 0.0000 -73.5163 -19.8925 -26.4237 -82.3621 -15.2250 -17.3718 0.0000 0.0000 0.0000 0.0000 0.0000 0.0000 45.8368 24.9528 -55.2490 -38.4718 -30.1875 -75.4027 0.0000 0.0000 0.0000
47.0267 -103.1834 -0.0150 0.0000 0.0000 0.0000 0.3131 -21.5212 -0.0595 0.0000 0.0000 0.0000 0.0000 0.0000 0.0000 0.0000 0.0000 0.0000 0.0000 0.0000 0.0000 0.0000 0.0000 0.0000 -76.6731 -16.9128 -21.2954 -86.4610 -5.9760 -6.3563 0.0000 0.0000 0.0000 0.0000 0.0000 0.0000 47.4966 24.9912 -53.4685 -37.9192 -29.9752 -75.8581 0.0000 0.0000 0.0000
47.0161 -103.1756 -0.0152 0.0000 0.0000 0.0000 0.3138 -20.6636 -0.0572 0.0000 0.0000 0.0000 0.0000 0.0000 0.0000 0.0000 0.0000 0.0000 0.0000 0.0000 0.0000 0.0000 0.0000 0.0000 -74.8704 -18.6836 -24.2558 -82.3917 -14.9963 -17.1030 0.0000 0.0000 0.0000 0.0000 0.0000 0.0000 48.8622 24.9826 -51.9941 -40.7217 -31.1216 -73.7652 0.0000 0.0000 0.0000
47.0221 -103.2416 -0.0151 0.0000 0.0000 0.0000 0.3209 -18.7649 -0.0530 0.0000 0.0000 0.0000 0.0000 0.0000 0.0000 0.0000 0.0000 0.0000 0.0000 0.0000 0.0000 0.0000 0.0000 0.0000 -76.4542 -17.0183 -21.5094 -84.5482 -11.3049 -12.4268 0.0000 0.0000 0.0000 0.0000 0.0000 0.0000 50.0137 24.8996 -50.6571 -41.2429 -31.4721 -73.6500 0.0000 0.0000 0.0000
46.9259 -102.9904 -0.0155 0.0000 0.0000 0.0000 0.1894 -15.3874 -0.0256 0.0000 0.0000 0.0000 0.0000 0.0000 0.0000 0.0000 0.0000 0.0000 0.0000 0.0000 0.0000 0.0000 0.0000 0.0000 -75.8808 -17.6300 -22.5002 -84.4936 -11.3772 -12.5181 0.0000 0.0000 0.0000 0.0000 0.0000 0.0000 46.8550 24.9716 -54.1369 -39.2320 -30.9062 -75.5984 0.0000 0.0000 0.0000
46.8386 -103.3919 -0.0140 0.0000 0.0000 0.0000 0.1485 -18.7956 -0.0246 0.0000 0.0000 0.0000 0.0000 0.0000 0.0000 0.0000 0.0000 0.0000 0.0000 0.0000 0.0000 0.0000 0.0000 0.0000 -79.1248 -13.7179 -16.5676 -86.6931 5.0435 5.3429 0.0000 0.0000 0.0000 0.0000 0.0000 0.0000 48.3671 25.0849 -52.7079 -39.4379 -31.1151 -75.6765 0.0000 0.0000 0.0000
46.8707 -103.7261 -0.0138 0.0000 0.0000 0.0000 0.1868 -18.3817 -0.0302 0.0000 0.0000 0.0000 0.0000 0.0000 0.0000 0.0000 0.0000 0.0000 0.0000 0.0000 0.0000 0.0000 0.0000 0.0000 -78.1048 -15.1095 -18.5682 -87.2494 -0.2290 -0.2403 0.0000 0.0000 0.0000 0.0000 0.0000 0.0000 51.1625 24.9226 -49.5581 -41.6572 -32.0713 -74.1420 0.0000 0.0000 0.0000
46.8696 -103.7203 -0.0136 0.0000 0.0000 0.0000 0.1852 -18.0203 -0.0294 0.0000 0.0000 0.0000 0.0000 0.0000 0.0000 0.0000 0.0000 0.0000 0.0000 0.0000 0.0000 0.0000 0.0000 0.0000 -74.9357 -18.7429 -24.3039 -83.3629 -14.1595 -15.8816 0.0000 0.0000 0.0000 0.0000 0.0000 0.0000 51.0667 24.9552 -49.7109 -40.6363 -31.6845 -74.9314 0.0000 0.0000 0.0000
46.8736 -103.8746 -0.0136 0.0000 0.0000 0.0000 0.2280 -17.5897 -0.0353 0.0000 0.0000 0.0000 0.0000 0.0000 0.0000 0.0000 0.0000 0.0000 0.0000 0.0000 0.0000 0.0000 0.0000 0.0000 -74.1326 -19.3932 -25.4926 -85.4965 -9.8723 -10.6760 0.0000 0.0000 0.0000 0.0000 0.0000 0.0000 51.2551 25.0637 -49.7220 -41.0459 -31.7594 -74.4648 0.0000 0.0000 0.0000
46.8812 -103.7807 -0.0157 0.0000 0.0000 0.0000 0.2428 -15.6629 -0.0334 0.0000 0.0000 0.0000 0.0000 0.0000 0.0000 0.0000 0.0000 0.0000 0.0000 0.0000 0.0000 0.0000 0.0000 0.0000 -70.8662 -21.8738 -30.3878 -78.1974 -20.1364 -24.6498 0.0000 0.0000 0.0000 0.0000 0.0000 0.0000 49.3591 25.3655 -52.1857 -42.3322 -32.0591 -73.1518 0.0000 0.0000 0.0000
46.9235 -103.4504 -0.0155 0.0000 0.0000 0.0000 0.2883 -16.5655 -0.0420 0.0000 0.0000 0.0000 0.0000 0.0000 0.0000 0.0000 0.0000 0.0000 0.0000 0.0000 0.0000 0.0000 0.0000 0.0000 -71.4991 -21.4856 -29.5292 -84.2265 -11.8810 -13.1323 0.0000 0.0000 0.0000 0.0000 0.0000 0.0000 47.2732 25.5064 -54.6926 -40.7490 -31.2874 -74.0324 0.0000 0.0000 0.0000
46.9475 -103.3707 -0.0143 0.0000 0.0000 0.0000 0.3510 -19.5176 -0.0604 0.0000 0.0000 0.0000 0.0000 0.0000 0.0000 0.0000 0.0000 0.0000 0.0000 0.0000 0.0000 0.0000 0.0000 0.0000 -71.3289 -21.5735 -29.7363 -84.2638 -11.7591 -12.9894 0.0000 0.0000 0.0000 0.0000 0.0000 0.0000 45.6243 25.5469 -56.6489 -39.4579 -30.5715 -74.6211 0.0000 0.0000 0.0000
46.9223 -103.0271 -0.0151 0.0000 0.0000 0.0000 0.3570 -18.6184 -0.0585 0.0000 0.0000 0.0000 0.0000 0.0000 0.0000 0.0000 0.0000 0.0000 0.0000 0.0000 0.0000 0.0000 0.0000 0.0000 -72.4900 -20.7904 -28.0981 -82.7309 -14.3874 -16.3145 0.0000 0.0000 0.0000 0.0000 0.0000 0.0000 45.5874 25.6338 -56.8604 -44.7061 -32.2585 -70.2343 0.0000 0.0000 0.0000
46.9043 -103.0348 -0.0116 0.0000 0.0000 0.0000 0.3448 -19.8208 -0.0602 0.0000 0.0000 0.0000 0.0000 0.0000 0.0000 0.0000 0.0000 0.0000 0.0000 0.0000 0.0000 0.0000 0.0000 0.0000 -74.9791 -18.7224 -24.2592 -87.0948 -2.4349 -2.5615 0.0000 0.0000 0.0000 0.0000 0.0000 0.0000 51.8373 25.6062 -50.1233 -44.0071 -32.0317 -70.7749 0.0000 0.0000 0.0000
46.9132 -103.0584 -0.0099 0.0000 0.0000 0.0000 0.3064 -20.5838 -0.0556 0.0000 0.0000 0.0000 0.0000 0.0000 0.0000 0.0000 0.0000 0.0000 0.0000 0.0000 0.0000 0.0000 0.0000 0.0000 -76.2644 -17.4739 -22.1535 -87.4629 -0.1067 -0.1116 0.0000 0.0000 0.0000 0.0000 0.0000 0.0000 54.5409 25.2633 -46.9939 -41.3732 -31.1565 -72.8794 0.0000 0.0000 0.0000
46.9685 -103.0965 -0.0100 0.0000 0.0000 0.0000 0.3599 -20.6481 -0.0656 0.0000 0.0000 0.0000 0.0000 0.0000 0.0000 0.0000 0.0000 0.0000 0.0000 0.0000 0.0000 0.0000 0.0000 0.0000 -77.2320 -16.3052 -20.3362 -87.1616 3.7937 3.9863 0.0000 0.0000 0.0000 0.0000 0.0000 0.0000 54.6705 25.2208 -46.8051 -40.8295 -30.9754 -73.3350 0.0000 0.0000 0.0000
46.9967 -103.0846 -0.0122 0.0000 0.0000 0.0000 0.4106 -20.3721 -0.0738 0.0000 0.0000 0.0000 0.0000 0.0000 0.0000 0.0000 0.0000 0.0000 0.0000 0.0000 0.0000 0.0000 0.0000 0.0000 -74.3569 -19.1751 -25.1109 -80.2886 -18.3675 -21.7030 0.0000 0.0000 0.0000 0.0000 0.0000 0.0000 53.4727 25.4085 -48.2194 -41.3182 -31.2319 -73.0983 0.0000 0.0000 0.0000
46.9530 -102.9566 -0.0148 0.0000 0.0000 0.0000 0.3627 -17.7124 -0.0565 0.0000 0.0000 0.0000 0.0000 0.0000 0.0000 0.0000 0.0000 0.0000 0.0000 0.0000 0.0000 0.0000 0.0000 0.0000 -75.4058 -18.2940 -23.5337 -83.8607 -12.9433 -14.3955 0.0000 0.0000 0.0000 0.0000 0.0000 0.0000 49.3116 25.7162 -52.8808 -38.1147 -30.1779 -75.9424 0.0000 0.0000 0.0000
46.9202 -102.9570 -0.0133 0.0000 0.0000 0.0000 0.3324 -19.6890 -0.0577 0.0000 0.0000 0.0000 0.0000 0.0000 0.0000 0.0000 0.0000 0.0000 0.0000 0.0000 0.0000 0.0000 0.0000 0.0000 -77.0791 -16.5076 -20.6419 -87.0840 -2.7502 -2.8938 0.0000 0.0000 0.0000 0.0000 0.0000 0.0000 51.2944 25.6263 -50.6932 -39.6243 -30.9414 -75.0670 0.0000 0.0000 0.0000
46.8898 -102.8824 -0.0115 0.0000 0.0000 0.0000 0.2944 -21.0081 -0.0546 0.0000 0.0000 0.0000 0.0000 0.0000 0.0000 0.0000 0.0000 0.0000 0.0000 0.0000 0.0000 0.0000 0.0000 0.0000 -76.6922 -16.9856 -21.3791 -87.1655 -4.6697 -4.9063 0.0000 0.0000 0.0000 0.0000 0.0000 0.0000 50.6448 25.6908 -51.4597 -40.3767 -31.2808 -74.5713 0.0000 0.0000 0.0000
46.8411 -102.8575 -0.0115 0.0000 0.0000 0.0000 0.2785 -21.8908 -0.0539 0.0000 0.0000 0.0000 0.0000 0.0000 0.0000 0.0000 0.0000 0.0000 0.0000 0.0000 0.0000 0.0000 0.0000 0.0000 -78.3325 -14.9590 -18.3111 -87.4478 3.1627 3.3067 0.0000 0.0000 0.0000 0.0000 0.0000 0.0000 50.6395 25.7271 -51.5305 -39.2237 -30.8664 -75.5360 0.0000 0.0000 0.0000
46.8132 -102.8729 -0.0105 0.0000 0.0000 0.0000 0.2549 -22.6923 -0.0511 0.0000 0.0000 0.0000 0.0000 0.0000 0.0000 0.0000 0.0000 0.0000 0.0000 0.0000 0.0000 0.0000 0.0000 0.0000 -77.7817 -15.7153 -19.4176 -87.5404 -2.2472 -2.3458 0.0000 0.0000 0.0000 0.0000 0.0000 0.0000 47.8578 25.7933 -54.5870 -38.9383 -30.7131 -75.6846 0.0000 0.0000 0.0000
46.7837 -102.6423 -0.0109 0.0000 0.0000 0.0000 0.2098 -21.7991 -0.0404 0.0000 0.0000 0.0000 0.0000 0.0000 0.0000 0.0000 0.0000 0.0000 0.0000 0.0000 0.0000 0.0000 0.0000 0.0000 -78.0580 -15.4531 -19.0035 -87.3690 -3.7485 -3.9246 0.0000 0.0000 0.0000 0.0000 0.0000 0.0000 52.4428 25.5936 -49.5150 -46.7551 -33.2954 -69.3462 0.0000 0.0000 0.0000
46.7933 -102.6552 -0.0108 0.0000 0.0000 0.0000 0.2143 -23.0272 -0.0437 0.0000 0.0000 0.0000 0.0000 0.0000 0.0000 0.0000 0.0000 0.0000 0.0000 0.0000 0.0000 0.0000 0.0000 0.0000 -78.4180 -14.9193 -18.2355 -87.4964 3.7237 3.8900 0.0000 0.0000 0.0000 0.0000 0.0000 0.0000 52.4642 25.5280 -49.3790 -46.0388 -32.8884 -69.5745 0.0000 0.0000 0.0000
46.7939 -102.8833 -0.0109 0.0000 0.0000 0.0000 0.2240 -23.3760 -0.0463 0.0000 0.0000 0.0000 0.0000 0.0000 0.0000 0.0000 0.0000 0.0000 0.0000 0.0000 0.0000 0.0000 0.0000 0.0000 -77.4441 -16.2054 -20.1376 -87.6081 2.5401 2.6484 0.0000 0.0000 0.0000 0.0000 0.0000 0.0000 49.6104 25.7090 -52.5550 -41.8350 -31.4031 -72.6689 0.0000 0.0000 0.0000
46.7932 -102.9593 -0.0110 0.0000 0.0000 0.0000 0.2248 -23.0081 -0.0458 0.0000 0.0000 0.0000 0.0000 0.0000 0.0000 0.0000 0.0000 0.0000 0.0000 0.0000 0.0000 0.0000 0.0000 0.0000 -77.3999 -16.3763 -20.3641 -87.6812 -0.4469 -0.4653 0.0000 0.0000 0.0000 0.0000 0.0000 0.0000 48.8781 25.7056 -53.3200 -39.5859 -30.4184 -74.1369 0.0000 0.0000 0.0000
46.8008 -103.0481 -0.0098 0.0000 0.0000 0.0000 0.2340 -22.6983 -0.0470 0.0000 0.0000 0.0000 0.0000 0.0000 0.0000 0.0000 0.0000 0.0000 0.0000 0.0000 0.0000 0.0000 0.0000 0.0000 -77.3540 -16.4327 -20.4502 -87.8840 1.0814 1.1221 0.0000 0.0000 0.0000 0.0000 0.0000 0.0000 52.0194 25.5302 -49.8113 -38.9367 -29.9466 -74.2210 0.0000 0.0000 0.0000
46.7865 -103.1862 -0.0094 0.0000 0.0000 0.0000 0.2325 -22.5348 -0.0463 0.0000 0.0000 0.0000 0.0000 0.0000 0.0000 0.0000 0.0000 0.0000 0.0000 0.0000 0.0000 0.0000 0.0000 0.0000 -77.3706 -16.4030 -20.4077 -87.9122 -1.0081 -1.0455 0.0000 0.0000 0.0000 0.0000 0.0000 0.0000 52.7391 25.4887 -49.0479 -38.8209 -29.7468 -74.0124 0.0000 0.0000 0.0000
46.7985 -103.2637 -0.0096 0.0000 0.0000 0.0000 0.2391 -22.1033 -0.0467 0.0000 0.0000 0.0000 0.0000 0.0000 0.0000 0.0000 0.0000 0.0000 0.0000 0.0000 0.0000 0.0000 0.0000 0.0000 -77.1925 -16.6163 -20.7355 -87.8155 1.8528 1.9248 0.0000 0.0000 0.0000 0.0000 0.0000 0.0000 55.0504 25.2400 -46.4999 -38.3049 -29.4700 -74.2698 0.0000 0.0000 0.0000
46.7819 -103.0708 -0.0107 0.0000 0.0000 0.0000 0.2677 -21.6611 -0.0512 0.0000 0.0000 0.0000 0.0000 0.0000 0.0000 0.0000 0.0000 0.0000 0.0000 0.0000 0.0000 0.0000 0.0000 0.0000 -74.9343 -18.8047 -24.3837 -87.3372 -3.1305 -3.2794 0.0000 0.0000 0.0000 0.0000 0.0000 0.0000 55.5126 25.2486 -46.1079 -36.5016 -28.8150 -75.8389 0.0000 0.0000 0.0000
46.7570 -103.0545 -0.0100 0.0000 0.0000 0.0000 0.2196 -21.8641 -0.0424 0.0000 0.0000 0.0000 0.0000 0.0000 0.0000 0.0000 0.0000 0.0000 0.0000 0.0000 0.0000 0.0000 0.0000 0.0000 -76.9764 -16.8464 -21.1000 -85.6607 9.8086 10.5768 0.0000 0.0000 0.0000 0.0000 0.0000 0.0000 56.5533 25.1246 -45.0041 -32.5948 -27.2437 -79.3068 0.0000 0.0000 0.0000
46.6848 -103.0849 -0.0106 0.0000 0.0000 0.0000 0.1062 -21.7825 -0.0204 0.0000 0.0000 0.0000 0.0000 0.0000 0.0000 0.0000 0.0000 0.0000 0.0000 0.0000 0.0000 0.0000 0.0000 0.0000 -79.0275 -14.4909 -17.5266 -84.7887 11.8819 13.0056 0.0000 0.0000 0.0000 0.0000 0.0000 0.0000 60.8154 24.0699 -39.9290 -32.1461 -27.2288 -80.0994 0.0000 0.0000 0.0000
46.5378 -103.1269 -0.0106 0.0000 0.0000 0.0000 -0.0517 -21.9281 0.0100 0.0000 0.0000 0.0000 0.0000 0.0000 0.0000 0.0000 0.0000 0.0000 0.0000 0.0000 0.0000 0.0000 0.0000 0.0000 -77.5349 -16.3825 -20.3237 -87.0506 4.9750 5.2376 0.0000 0.0000 0.0000 0.0000 0.0000 0.0000 61.0347 24.0694 -39.7675 -28.4161 -25.3855 -83.3101 0.0000 0.0000 0.0000
46.3974 -103.0624 -0.0102 0.0000 0.0000 0.0000 -0.1916 -21.2904 0.0360 0.0000 0.0000 0.0000 0.0000 0.0000 0.0000 0.0000 0.0000 0.0000 0.0000 0.0000 0.0000 0.0000 0.0000 0.0000 -75.6170 -18.4273 -23.6157 -87.3054 3.4254 3.5903 0.0000 0.0000 0.0000 0.0000 0.0000 0.0000 60.8041 24.2333 -40.1943 -24.7458 -23.0905 -85.9189 0.0000 0.0000 0.0000
46.2881 -103.3277 -0.0095 0.0000 0.0000 0.0000 -0.2324 -21.5173 0.0442 0.0000 0.0000 0.0000 0.0000 0.0000 0.0000 0.0000 0.0000 0.0000 0.0000 0.0000 0.0000 0.0000 0.0000 0.0000 -75.7119 -18.4110 -23.5560 -87.7285 0.9724 1.0117 0.0000 0.0000 0.0000 0.0000 0.0000 0.0000 59.5240 24.9243 -42.2615 -24.8815 -23.3594 -86.2769 0.0000 0.0000 0.0000
46.2906 -103.3625 -0.0090 0.0000 0.0000 0.0000 -0.1965 -19.0592 0.0330 0.0000 0.0000 0.0000 0.0000 0.0000 0.0000 0.0000 0.0000 0.0000 0.0000 0.0000 0.0000 0.0000 0.0000 0.0000 -74.2612 -19.6191 -25.7274 -87.7603 -0.1496 -0.1556 0.0000 0.0000 0.0000 0.0000 0.0000 0.0000 61.1349 24.6277 -40.5670 -26.7177 -25.0011 -86.0661 0.0000 0.0000 0.0000
46.2912 -103.3807 -0.0094 0.0000 0.0000 0.0000 -0.1788 -17.4962 0.0275 0.0000 0.0000 0.0000 0.0000 0.0000 0.0000 0.0000 0.0000 0.0000 0.0000 0.0000 0.0000 0.0000 0.0000 0.0000 -74.8101 -19.2586 -25.0191 -87.5442 -2.4163 -2.5222 0.0000 0.0000 0.0000 0.0000 0.0000 0.0000 62.0556 24.4553 -39.6255 -30.0613 -27.4193 -84.5101 0.0000 0.0000 0.0000
46.3067 -103.3150 -0.0096 0.0000 0.0000 0.0000 -0.1281 -18.0932 0.0204 0.0000 0.0000 0.0000 0.0000 0.0000 0.0000 0.0000 0.0000 0.0000 0.0000 0.0000 0.0000 0.0000 0.0000 0.0000 -74.8651 -19.2522 -24.9869 -87.6608 -2.7401 -2.8543 0.0000 0.0000 0.0000 0.0000 0.0000 0.0000 61.3786 24.9591 -40.9014 -29.9031 -27.3439 -84.6621 0.0000 0.0000 0.0000
46.2917 -103.3072 -0.0096 0.0000 0.0000 0.0000 -0.1304 -18.2057 0.0209 0.0000 0.0000 0.0000 0.0000 0.0000 0.0000 0.0000 0.0000 0.0000 0.0000 0.0000 0.0000 0.0000 0.0000 0.0000 -76.3252 -18.0968 -22.9109 -87.6460 -1.1839 -1.2336 0.0000 0.0000 0.0000 0.0000 0.0000 0.0000 60.6399 25.3502 -42.0703 -29.9946 -27.5811 -84.9918 0.0000 0.0000 0.0000
46.2750 -103.3722 -0.0099 0.0000 0.0000 0.0000 -0.1117 -18.0500 0.0177 0.0000 0.0000 0.0000 0.0000 0.0000 0.0000 0.0000 0.0000 0.0000 0.0000 0.0000 0.0000 0.0000 0.0000 0.0000 -77.3628 -16.8347 -20.9433 -86.8286 7.2866 7.7003 0.0000 0.0000 0.0000 0.0000 0.0000 0.0000 60.4499 25.5684 -42.5589 -28.9782 -26.9053 -85.5785 0.0000 0.0000 0.0000
46.2455 -103.3604 -0.0104 0.0000 0.0000 0.0000 -0.1403 -18.2892 0.0226 0.0000 0.0000 0.0000 0.0000 0.0000 0.0000 0.0000 0.0000 0.0000 0.0000 0.0000 0.0000 0.0000 0.0000 0.0000 -77.0988 -17.0415 -21.2967 -87.1723 6.4161 6.7401 0.0000 0.0000 0.0000 0.0000 0.0000 0.0000 60.4105 25.5613 -42.5783 -31.0888 -28.2557 -84.2822 0.0000 0.0000 0.0000
46.2384 -103.4019 -0.0101 0.0000 0.0000 0.0000 -0.1490 -18.3827 0.0241 0.0000 0.0000 0.0000 0.0000 0.0000 0.0000 0.0000 0.0000 0.0000 0.0000 0.0000 0.0000 0.0000 0.0000 0.0000 -77.7772 -16.2286 -20.0490 -86.8130 8.1852 8.6520 0.0000 0.0000 0.0000 0.0000 0.0000 0.0000 59.3247 25.8837 -43.9478 -27.9612 -26.1379 -85.9924 0.0000 0.0000 0.0000
46.2475 -103.3252 -0.0101 0.0000 0.0000 0.0000 -0.0965 -18.4368 0.0157 0.0000 0.0000 0.0000 0.0000 0.0000 0.0000 0.0000 0.0000 0.0000 0.0000 0.0000 0.0000 0.0000 0.0000 0.0000 -76.3870 -17.4528 -22.0796 -87.5424 5.2313 5.4603 0.0000 0.0000 0.0000 0.0000 0.0000 0.0000 58.9894 25.9333 -44.2988 -29.0268 -26.8201 -85.2907 0.0000 0.0000 0.0000
46.2297 -103.3078 -0.0103 0.0000 0.0000 0.0000 -0.1222 -13.0292 0.0140 0.0000 0.0000 0.0000 0.0000 0.0000 0.0000 0.0000 0.0000 0.0000 0.0000 0.0000 0.0000 0.0000 0.0000 0.0000 -77.5401 -16.1806 -20.0733 -88.0851 -0.8810 -0.9109 0.0000 0.0000 0.0000 0.0000 0.0000 0.0000 56.7312 26.3411 -46.8645 -30.6808 -27.7656 -84.0348 0.0000 0.0000 0.0000
46.2436 -103.2970 -0.0096 0.0000 0.0000 0.0000 -0.1072 -15.2435 0.0143 0.0000 0.0000 0.0000 0.0000 0.0000 0.0000 0.0000 0.0000 0.0000 0.0000 0.0000 0.0000 0.0000 0.0000 0.0000 -77.8439 -15.8302 -19.5373 -87.7336 4.4282 4.6067 0.0000 0.0000 0.0000 0.0000 0.0000 0.0000 58.3136 26.0836 -45.0965 -30.5533 -27.4475 -83.6013 0.0000 0.0000 0.0000
46.2384 -103.2912 -0.0099 0.0000 0.0000 0.0000 -0.1239 -12.6479 0.0137 0.0000 0.0000 0.0000 0.0000 0.0000 0.0000 0.0000 0.0000 0.0000 0.0000 0.0000 0.0000 0.0000 0.0000 0.0000 -75.3523 -18.5474 -23.8784 -87.4696 -5.9352 -6.2028 0.0000 0.0000 0.0000 0.0000 0.0000 0.0000 58.7786 26.0357 -44.6349 -32.3648 -28.2789 -81.9219 0.0000 0.0000 0.0000
46.2390 -103.4238 -0.0087 0.0000 0.0000 0.0000 -0.1011 -15.5414 0.0138 0.0000 0.0000 0.0000 0.0000 0.0000 0.0000 0.0000 0.0000 0.0000 0.0000 0.0000 0.0000 0.0000 0.0000 0.0000 -75.7629 -18.1408 -23.1933 -87.6252 5.0831 5.2980 0.0000 0.0000 0.0000 0.0000 0.0000 0.0000 60.4516 25.7581 -42.8547 -30.4262 -26.9704 -82.8140 0.0000 0.0000 0.0000
46.2413 -103.3127 -0.0088 0.0000 0.0000 0.0000 -0.0843 -14.3765 0.0106 0.0000 0.0000 0.0000 0.0000 0.0000 0.0000 0.0000 0.0000 0.0000 0.0000 0.0000 0.0000 0.0000 0.0000 0.0000 -73.5002 -20.0869 -26.6853 -87.4459 -5.8262 -6.0914 0.0000 0.0000 0.0000 0.0000 0.0000 0.0000 61.6707 25.4899 -41.5030 -31.6858 -27.5133 -81.5696 0.0000 0.0000 0.0000
46.2437 -103.3114 -0.0090 0.0000 0.0000 0.0000 -0.0615 -18.7399 0.0101 0.0000 0.0000 0.0000 0.0000 0.0000 0.0000 0.0000 0.0000 0.0000 0.0000 0.0000 0.0000 0.0000 0.0000 0.0000 -76.3108 -17.5051 -22.1746 -87.9909 3.3422 3.4615 0.0000 0.0000 0.0000 0.0000 0.0000 0.0000 61.8725 25.5018 -41.3697 -28.7980 -25.8200 -83.5166 0.0000 0.0000 0.0000
46.2500 -103.2820 -0.0094 0.0000 0.0000 0.0000 -0.0407 -18.1163 0.0065 0.0000 0.0000 0.0000 0.0000 0.0000 0.0000 0.0000 0.0000 0.0000 0.0000 0.0000 0.0000 0.0000 0.0000 0.0000 -75.7249 -18.1790 -23.2570 -88.1599 1.2445 1.2851 0.0000 0.0000 0.0000 0.0000 0.0000 0.0000 61.7082 25.6392 -41.7045 -28.5317 -25.6426 -83.6623 0.0000 0.0000 0.0000
46.2596 -103.2589 -0.0098 0.0000 0.0000 0.0000 0.0713 -13.4444 -0.0084 0.0000 0.0000 0.0000 0.0000 0.0000 0.0000 0.0000 0.0000 0.0000 0.0000 0.0000 0.0000 0.0000 0.0000 0.0000 -76.5549 -17.0545 -21.5167 -88.1814 0.6069 0.6264 0.0000 0.0000 0.0000 0.0000 0.0000 0.0000 59.2675 26.2863 -44.6337 -28.0780 -25.4108 -84.0789 0.0000 0.0000 0.0000
46.2678 -103.1652 -0.0109 0.0000 0.0000 0.0000 0.1158 -12.2518 -0.0124 0.0000 0.0000 0.0000 0.0000 0.0000 0.0000 0.0000 0.0000 0.0000 0.0000 0.0000 0.0000 0.0000 0.0000 0.0000 -77.2528 -16.2530 -20.2641 -88.0896 1.5727 1.6260 0.0000 0.0000 0.0000 0.0000 0.0000 0.0000 55.8819 26.9351 -48.6001 -26.9973 -24.8478 -85.0863 0.0000 0.0000 0.0000
46.2418 -102.9260 -0.0111 0.0000 0.0000 0.0000 0.1909 -11.8845 -0.0199 0.0000 0.0000 0.0000 0.0000 0.0000 0.0000 0.0000 0.0000 0.0000 0.0000 0.0000 0.0000 0.0000 0.0000 0.0000 -75.5689 -17.8165 -22.8606 -88.1552 0.8632 0.8915 0.0000 0.0000 0.0000 0.0000 0.0000 0.0000 55.9693 27.0108 -48.6462 -25.5299 -23.9451 -86.2144 0.0000 0.0000 0.0000
46.2309 -102.7183 -0.0109 0.0000 0.0000 0.0000 0.2045 -13.8858 -0.0249 0.0000 0.0000 0.0000 0.0000 0.0000 0.0000 0.0000 0.0000 0.0000 0.0000 0.0000 0.0000 0.0000 0.0000 0.0000 -76.2468 -17.0314 -21.6043 -88.1716 0.2284 0.2358 0.0000 0.0000 0.0000 0.0000 0.0000 0.0000 56.8313 26.9454 -47.7671 -25.6608 -24.1363 -86.3802 0.0000 0.0000 0.0000
46.2066 -102.7740 -0.0108 0.0000 0.0000 0.0000 0.2017 -14.1573 -0.0251 0.0000 0.0000 0.0000 0.0000 0.0000 0.0000 0.0000 0.0000 0.0000 0.0000 0.0000 0.0000 0.0000 0.0000 0.0000 -76.1898 -17.2133 -21.8547 -88.1372 0.3965 0.4096 0.0000 0.0000 0.0000 0.0000 0.0000 0.0000 58.5841 26.7217 -45.8935 -28.2230 -26.0494 -85.2376 0.0000 0.0000 0.0000
46.1947 -102.7841 -0.0119 0.0000 0.0000 0.0000 0.1946 -17.1988 -0.0294 0.0000 0.0000 0.0000 0.0000 0.0000 0.0000 0.0000 0.0000 0.0000 0.0000 0.0000 0.0000 0.0000 0.0000 0.0000 -76.2571 -17.1694 -21.7738 -87.5717 -5.5416 -5.7812 0.0000 0.0000 0.0000 0.0000 0.0000 0.0000 61.4951 26.1163 -42.6006 -32.5847 -28.8342 -82.6672 0.0000 0.0000 0.0000
46.1818 -102.7850 -0.0119 0.0000 0.0000 0.0000 0.2114 -18.6425 -0.0347 0.0000 0.0000 0.0000 0.0000 0.0000 0.0000 0.0000 0.0000 0.0000 0.0000 0.0000 0.0000 0.0000 0.0000 0.0000 -75.6698 -17.8186 -22.8228 -87.9630 -3.2558 -3.3736 0.0000 0.0000 0.0000 0.0000 0.0000 0.0000 63.6808 25.5617 -40.1330 -31.6979 -28.3507 -83.3192 0.0000 0.0000 0.0000
46.1552 -102.8294 -0.0117 0.0000 0.0000 0.0000 0.2112 -18.3404 -0.0341 0.0000 0.0000 0.0000 0.0000 0.0000 0.0000 0.0000 0.0000 0.0000 0.0000 0.0000 0.0000 0.0000 0.0000 0.0000 -76.4174 -17.0759 -21.5955 -87.0983 -7.5603 -7.9520 0.0000 0.0000 0.0000 0.0000 0.0000 0.0000 63.4275 25.7269 -40.5633 -31.0456 -27.9384 -83.6954 0.0000 0.0000 0.0000
46.1502 -102.8400 -0.0117 0.0000 0.0000 0.0000 0.2907 -18.3448 -0.0469 0.0000 0.0000 0.0000 0.0000 0.0000 0.0000 0.0000 0.0000 0.0000 0.0000 0.0000 0.0000 0.0000 0.0000 0.0000 -76.2777 -17.2757 -21.8994 -87.4343 -6.0410 -6.3172 0.0000 0.0000 0.0000 0.0000 0.0000 0.0000 63.8318 25.7580 -40.3171 -31.0591 -27.9774 -83.7522 0.0000 0.0000 0.0000
46.1471 -103.0289 -0.0112 0.0000 0.0000 0.0000 0.2959 -15.7902 -0.0410 0.0000 0.0000 0.0000 0.0000 0.0000 0.0000 0.0000 0.0000 0.0000 0.0000 0.0000 0.0000 0.0000 0.0000 0.0000 -74.2605 -19.3102 -25.3282 -87.8806 -3.0530 -3.1680 0.0000 0.0000 0.0000 0.0000 0.0000 0.0000 61.5244 26.4230 -43.0490 -25.7939 -24.4937 -86.9407 0.0000 0.0000 0.0000
46.1510 -103.0398 -0.0112 0.0000 0.0000 0.0000 0.3125 -16.2728 -0.0447 0.0000 0.0000 0.0000 0.0000 0.0000 0.0000 0.0000 0.0000 0.0000 0.0000 0.0000 0.0000 0.0000 0.0000 0.0000 -74.3221 -19.2978 -25.2848 -87.7618 -3.3486 -3.4820 0.0000 0.0000 0.0000 0.0000 0.0000 0.0000 60.7637 26.5503 -43.8425 -25.3923 -24.3088 -87.4223 0.0000 0.0000 0.0000
46.1402 -102.9274 -0.0114 0.0000 0.0000 0.0000 0.2932 -17.0885 -0.0440 0.0000 0.0000 0.0000 0.0000 0.0000 0.0000 0.0000 0.0000 0.0000 0.0000 0.0000 0.0000 0.0000 0.0000 0.0000 -74.5293 -19.2215 -25.0948 -87.4885 -4.6076 -4.8139 0.0000 0.0000 0.0000 0.0000 0.0000 0.0000 59.8934 26.6582 -44.7099 -23.6461 -23.1478 -88.7453 0.0000 0.0000 0.0000
46.1239 -102.9241 -0.0101 0.0000 0.0000 0.0000 0.2938 -20.4463 -0.0530 0.0000 0.0000 0.0000 0.0000 0.0000 0.0000 0.0000 0.0000 0.0000 0.0000 0.0000 0.0000 0.0000 0.0000 0.0000 -75.0019 -18.8204 -24.3750 -87.8890 0.6064 0.6291 0.0000 0.0000 0.0000 0.0000 0.0000 0.0000 61.3956 26.1668 -42.7550 -21.9390 -21.8783 -89.8372 0.0000 0.0000 0.0000
46.1256 -102.8568 -0.0096 0.0000 0.0000 0.0000 0.3099 -19.9373 -0.0545 0.0000 0.0000 0.0000 0.0000 0.0000 0.0000 0.0000 0.0000 0.0000 0.0000 0.0000 0.0000 0.0000 0.0000 0.0000 -74.6466 -19.1311 -24.9270 -87.9187 0.6915 0.7171 0.0000 0.0000 0.0000 0.0000 0.0000 0.0000 61.2283 26.1837 -42.9107 -22.1445 -22.0948 -89.8682 0.0000 0.0000 0.0000
46.1112 -102.8400 -0.0096 0.0000 0.0000 0.0000 0.2836 -17.3359 -0.0432 0.0000 0.0000 0.0000 0.0000 0.0000 0.0000 0.0000 0.0000 0.0000 0.0000 0.0000 0.0000 0.0000 0.0000 0.0000 -73.6958 -20.0099 -26.4935 -87.5512 -3.7312 -3.8940 0.0000 0.0000 0.0000 0.0000 0.0000 0.0000 60.7588 26.2430 -43.3697 -21.4888 -21.5393 -90.1379 0.0000 0.0000 0.0000
46.1014 -102.8195 -0.0097 0.0000 0.0000 0.0000 0.2626 -18.7534 -0.0434 0.0000 0.0000 0.0000 0.0000 0.0000 0.0000 0.0000 0.0000 0.0000 0.0000 0.0000 0.0000 0.0000 0.0000 0.0000 -74.1112 -19.6683 -25.8588 -87.4513 -3.7262 -3.8956 0.0000 0.0000 0.0000 0.0000 0.0000 0.0000 62.1174 25.8535 -41.7241 -22.0854 -22.0429 -89.8867 0.0000 0.0000 0.0000
46.0996 -102.8075 -0.0099 0.0000 0.0000 0.0000 0.2286 -19.5232 -0.0393 0.0000 0.0000 0.0000 0.0000 0.0000 0.0000 0.0000 0.0000 0.0000 0.0000 0.0000 0.0000 0.0000 0.0000 0.0000 -74.3557 -19.5919 -25.6496 -87.5449 -3.9698 -4.1435 0.0000 0.0000 0.0000 0.0000 0.0000 0.0000 62.8604 25.6267 -40.8270 -23.2194 -22.9043 -89.1955 0.0000 0.0000 0.0000
46.0990 -102.8073 -0.0099 0.0000 0.0000 0.0000 0.2068 -19.2665 -0.0351 0.0000 0.0000 0.0000 0.0000 0.0000 0.0000 0.0000 0.0000 0.0000 0.0000 0.0000 0.0000 0.0000 0.0000 0.0000 -74.4453 -19.5129 -25.5076 -87.6205 -4.0176 -4.1879 0.0000 0.0000 0.0000 0.0000 0.0000 0.0000 65.1947 24.7842 -37.9256 -25.1863 -24.4341 -88.2075 0.0000 0.0000 0.0000
46.0917 -102.8413 -0.0099 0.0000 0.0000 0.0000 0.1933 -19.3305 -0.0329 0.0000 0.0000 0.0000 0.0000 0.0000 0.0000 0.0000 0.0000 0.0000 0.0000 0.0000 0.0000 0.0000 0.0000 0.0000 -74.5421 -19.4427 -25.3739 -87.6952 -3.8668 -4.0254 0.0000 0.0000 0.0000 0.0000 0.0000 0.0000 64.1911 25.0493 -39.0075 -25.3281 -24.5344 -88.1172 0.0000 0.0000 0.0000
46.0341 -102.8772 -0.0101 0.0000 0.0000 0.0000 0.1209 -19.2827 -0.0205 0.0000 0.0000 0.0000 0.0000 0.0000 0.0000 0.0000 0.0000 0.0000 0.0000 0.0000 0.0000 0.0000 0.0000 0.0000 -75.8191 -18.3219 -23.3993 -87.6838 -2.4822 -2.5846 0.0000 0.0000 0.0000 0.0000 0.0000 0.0000 63.9852 24.9912 -39.0652 -25.2070 -24.4170 -88.1177 0.0000 0.0000 0.0000
46.0462 -102.8485 -0.0103 0.0000 0.0000 0.0000 0.1527 -23.0752 -0.0312 0.0000 0.0000 0.0000 0.0000 0.0000 0.0000 0.0000 0.0000 0.0000 0.0000 0.0000 0.0000 0.0000 0.0000 0.0000 -75.7766 -18.1502 -23.1995 -87.4920 4.5266 4.7290 0.0000 0.0000 0.0000 0.0000 0.0000 0.0000 63.9894 24.8500 -38.8516 -23.8250 -23.3018 -88.6914 0.0000 0.0000 0.0000
46.0404 -102.7554 -0.0112 0.0000 0.0000 0.0000 0.1593 -20.6627 -0.0290 0.0000 0.0000 0.0000 0.0000 0.0000 0.0000 0.0000 0.0000 0.0000 0.0000 0.0000 0.0000 0.0000 0.0000 0.0000 -72.8870 -20.7010 -27.7850 -84.9864 -12.0540 -13.1485 0.0000 0.0000 0.0000 0.0000 0.0000 0.0000 66.1467 23.7399 -35.7751 -27.9881 -26.6052 -86.9854 0.0000 0.0000 0.0000
46.0137 -102.7307 -0.0100 0.0000 0.0000 0.0000 0.1265 -22.5490 -0.0252 0.0000 0.0000 0.0000 0.0000 0.0000 0.0000 0.0000 0.0000 0.0000 0.0000 0.0000 0.0000 0.0000 0.0000 0.0000 -76.3337 -17.7298 -22.4475 -86.8359 6.8670 7.2561 0.0000 0.0000 0.0000 0.0000 0.0000 0.0000 65.9610 23.4750 -35.5081 -20.4271 -20.6955 -90.7643 0.0000 0.0000 0.0000
45.9834 -102.7136 -0.0100 0.0000 0.0000 0.0000 0.0629 -22.2645 -0.0124 0.0000 0.0000 0.0000 0.0000 0.0000 0.0000 0.0000 0.0000 0.0000 0.0000 0.0000 0.0000 0.0000 0.0000 0.0000 -76.6730 -17.4337 -21.9454 -85.7167 10.5642 11.3799 0.0000 0.0000 0.0000 0.0000 0.0000 0.0000 66.0764 23.0609 -34.8315 -14.8346 -15.5988 -92.9110 0.0000 0.0000 0.0000
45.9255 -102.5974 -0.0094 0.0000 0.0000 0.0000 -0.0089 -22.0817 0.0017 0.0000 0.0000 0.0000 0.0000 0.0000 0.0000 0.0000 0.0000 0.0000 0.0000 0.0000 0.0000 0.0000 0.0000 0.0000 -76.3513 -17.7953 -22.5227 -85.6505 11.2946 12.1798 0.0000 0.0000 0.0000 0.0000 0.0000 0.0000 68.2695 21.5154 -31.3116 -8.9958 -9.7850 -94.8340 0.0000 0.0000 0.0000
45.9356 -102.6377 -0.0086 0.0000 0.0000 0.0000 -0.0215 -21.8766 0.0042 0.0000 0.0000 0.0000 0.0000 0.0000 0.0000 0.0000 0.0000 0.0000 0.0000 0.0000 0.0000 0.0000 0.0000 0.0000 -77.2927 -16.8211 -20.9522 -84.4655 13.7186 15.0969 0.0000 0.0000 0.0000 0.0000 0.0000 0.0000 73.0746 17.6060 -23.6097 0.7034 0.7872 -96.4355 0.0000 0.0000 0.0000
45.9739 -102.7427 -0.0107 0.0000 0.0000 0.0000 -0.0529 -20.9698 0.0098 0.0000 0.0000 0.0000 0.0000 0.0000 0.0000 0.0000 0.0000 0.0000 0.0000 0.0000 0.0000 0.0000 0.0000 0.0000 -78.6841 -15.3986 -18.7306 -82.4948 16.3802 18.6418 0.0000 0.0000 0.0000 0.0000 0.0000 0.0000 74.2096 15.7505 -20.7254 13.4365 13.6885 -91.0747 0.0000 0.0000 0.0000
46.2450 -102.6738 -0.0112 0.0000 0.0000 0.0000 0.1720 -21.2419 -0.0322 0.0000 0.0000 0.0000 0.0000 0.0000 0.0000 0.0000 0.0000 0.0000 0.0000 0.0000 0.0000 0.0000 0.0000 0.0000 -80.0529 -13.6021 -16.1636 -78.5987 20.3025 24.6794 0.0000 0.0000 0.0000 0.0000 0.0000 0.0000 78.0298 9.4094 -11.5999 30.1146 25.6982 -80.5875 0.0000 0.0000 0.0000
46.3309 -102.3798 -0.0137 0.0000 0.0000 0.0000 0.2320 -24.2776 -0.0499 0.0000 0.0000 0.0000 0.0000 0.0000 0.0000 0.0000 0.0000 0.0000 0.0000 0.0000 0.0000 0.0000 0.0000 0.0000 -80.9790 -12.3074 -14.3950 -81.1967 18.1233 21.0829 0.0000 0.0000 0.0000 0.0000 0.0000 0.0000 79.7483 3.6574 -4.3776 61.8918 31.9035 -50.9769 0.0000 0.0000 0.0000
46.3388 -102.4926 -0.0160 0.0000 0.0000 0.0000 0.2331 -24.9174 -0.0515 0.0000 0.0000 0.0000 0.0000 0.0000 0.0000 0.0000 0.0000 0.0000 0.0000 0.0000 0.0000 0.0000 0.0000 0.0000 -81.5353 -11.2428 -13.0254 -78.4778 21.2603 25.8849 0.0000 0.0000 0.0000 0.0000 0.0000 0.0000 79.6923 -4.0939 4.9047 79.6366 24.3720 -29.0438 0.0000 0.0000 0.0000
46.3431 -102.4738 -0.0178 0.0000 0.0000 0.0000 0.2405 -25.5465 -0.0545 0.0000 0.0000 0.0000 0.0000 0.0000 0.0000 0.0000 0.0000 0.0000 0.0000 0.0000 0.0000 0.0000 0.0000 0.0000 -81.0304 -12.5285 -14.6397 -81.7061 18.1339 20.9107 0.0000 0.0000 0.0000 0.0000 0.0000 0.0000 79.6946 -4.2619 5.1057 82.1658 21.2789 -24.3198 0.0000 0.0000 0.0000
46.3236 -102.3139 -0.0186 0.0000 0.0000 0.0000 0.2377 -26.8982 -0.0568 0.0000 0.0000 0.0000 0.0000 0.0000 0.0000 0.0000 0.0000 0.0000 0.0000 0.0000 0.0000 0.0000 0.0000 0.0000 -82.0830 -10.7143 -12.2959 -80.8653 19.2116 22.4687 0.0000 0.0000 0.0000 0.0000 0.0000 0.0000 79.9435 -3.3276 3.9692 81.3660 21.2525 -24.6244 0.0000 0.0000 0.0000
46.2555 -102.2236 -0.0183 0.0000 0.0000 0.0000 0.1738 -26.6479 -0.0412 0.0000 0.0000 0.0000 0.0000 0.0000 0.0000 0.0000 0.0000 0.0000 0.0000 0.0000 0.0000 0.0000 0.0000 0.0000 -82.0698 -11.0458 -12.6786 -81.4208 18.4109 21.3329 0.0000 0.0000 0.0000 0.0000 0.0000 0.0000 80.0721 -4.1115 4.8928 82.9613 19.2813 -21.7515 0.0000 0.0000 0.0000
