HIERARCHY
ROOT mixamorig:Hips
{
  OFFSET 0.000000 0.000000 0.000000
  CHANNELS 6 Xposition Yposition Zposition Zrotation Xrotation Yrotation
  JOINT mixamorig:Spine
  {
    OFFSET 0.000000 9.878500 1.258800
    CHANNELS 3 Zrotation Xrotation Yrotation
    JOINT mixamorig:Spine1
    {
      OFFSET 0.000000 11.272100 0.038100
      CHANNELS 3 Zrotation Xrotation Yrotation
      JOINT mixamorig:Spine2
      {
        OFFSET 0.000000 10.749001 -0.597600
        CHANNELS 3 Zrotation Xrotation Yrotation
        JOINT mixamorig:Neck
        {
          OFFSET 0.000000 12.015200 -1.691700
          CHANNELS 3 Zrotation Xrotation Yrotation
          JOINT mixamorig:Head
          {
            OFFSET 0.000000 8.810500 2.213900
            CHANNELS 3 Zrotation Xrotation Yrotation
            End Site
            {
              OFFSET 0.000000 18.232300 3.738000
            }
          }
        }
        JOINT mixamorig:LeftShoulder
        {
          OFFSET 6.002800 8.887900 -2.628900
          CHANNELS 3 Zrotation Xrotation Yrotation
          JOINT mixamorig:LeftArm
          {
            OFFSET 12.046300 0.000000 0.000000
            CHANNELS 3 Zrotation Xrotation Yrotation
            JOINT mixamorig:LeftForeArm
            {
              OFFSET 27.876501 0.000000 0.000000
              CHANNELS 3 Zrotation Xrotation Yrotation
              JOINT mixamorig:LeftHand
              {
                OFFSET 25.438500 0.000000 0.000000
                CHANNELS 3 Zrotation Xrotation Yrotation
                End Site
                {
                  OFFSET 10.0 0.0 0.0
                }
              }
            }
          }
        }
        JOINT mixamorig:RightShoulder
        {
          OFFSET -6.002800 8.887900 -2.628900
          CHANNELS 3 Zrotation Xrotation Yrotation
          JOINT mixamorig:RightArm
          {
            OFFSET -12.046300 0.000000 0.000000
            CHANNELS 3 Zrotation Xrotation Yrotation
            JOINT mixamorig:RightForeArm
            {
              OFFSET -27.876501 0.000000 0.000000
              CHANNELS 3 Zrotation Xrotation Yrotation
              JOINT mixamorig:RightHand
              {
                OFFSET -25.438500 0.000000 0.000000
                CHANNELS 3 Zrotation Xrotation Yrotation
                End Site
                {
                  OFFSET -10.0 0.0 0.0
                }
              }
            }
          }
        }
      }
    }
  }
}
MOTION
Frames: 178
Frame Time: 0.033333
45.0233 -98.3128 -0.0158 0.0000 0.0000 0.0000 -1.2682 -24.0338 0.2700 0.0000 0.0000 0.0000 0.0000 0.0000 0.0000 0.0000 0.0000 0.0000 0.0000 0.0000 0.0000 0.0000 0.0000 0.0000 -80.3995 -16.0973 -18.9991 -83.8218 14.2888 15.8993 0.0000 0.0000 0.0000 0.0000 0.0000 0.0000 82.7876 -7.0337 7.9771 81.1642 14.6504 -17.0702 0.0000 0.0000 0.0000
44.9956 -98.2758 -0.0154 0.0000 0.0000 0.0000 -1.3775 -24.6287 0.3007 0.0000 0.0000 0.0000 0.0000 0.0000 0.0000 0.0000 0.0000 0.0000 0.0000 0.0000 0.0000 0.0000 0.0000 0.0000 -77.9960 -18.7212 -23.0138 -87.9168 -0.7160 -0.7425 0.0000 0.0000 0.0000 0.0000 0.0000 0.0000 80.7956 -11.5705 13.5788 82.8558 10.7635 -12.1866 0.0000 0.0000 0.0000
44.9247 -98.2463 -0.0145 0.0000 0.0000 0.0000 -1.4790 -24.3390 0.3190 0.0000 0.0000 0.0000 0.0000 0.0000 0.0000 0.0000 0.0000 0.0000 0.0000 0.0000 0.0000 0.0000 0.0000 0.0000 -78.1229 -18.5870 -22.8000 -88.1767 0.7777 0.8029 0.0000 0.0000 0.0000 0.0000 0.0000 0.0000 81.5117 -10.1749 11.7954 81.9784 11.8133 -13.5792 0.0000 0.0000 0.0000
44.9074 -98.2290 -0.0131 0.0000 0.0000 0.0000 -1.5230 -25.5667 0.3456 0.0000 0.0000 0.0000 0.0000 0.0000 0.0000 0.0000 0.0000 0.0000 0.0000 0.0000 0.0000 0.0000 0.0000 0.0000 -77.5747 -18.9907 -23.5134 -88.1780 -2.1523 -2.2219 0.0000 0.0000 0.0000 0.0000 0.0000 0.0000 81.4472 -10.0431 11.6561 79.5228 15.8920 -19.0464 0.0000 0.0000 0.0000
44.9208 -98.1910 -0.0129 0.0000 0.0000 0.0000 -1.5243 -27.1714 0.3684 0.0000 0.0000 0.0000 0.0000 0.0000 0.0000 0.0000 0.0000 0.0000 0.0000 0.0000 0.0000 0.0000 0.0000 0.0000 -78.9185 -17.5322 -21.2209 -87.1609 7.8946 8.2945 0.0000 0.0000 0.0000 0.0000 0.0000 0.0000 81.2763 -10.3767 12.0787 78.8237 16.7181 -20.2757 0.0000 0.0000 0.0000
44.8884 -98.2651 -0.0133 0.0000 0.0000 0.0000 -1.5908 -26.5678 0.3756 0.0000 0.0000 0.0000 0.0000 0.0000 0.0000 0.0000 0.0000 0.0000 0.0000 0.0000 0.0000 0.0000 0.0000 0.0000 -78.8426 -17.5999 -21.3304 -87.2906 7.8850 8.2657 0.0000 0.0000 0.0000 0.0000 0.0000 0.0000 80.9410 -11.0816 12.9734 80.3092 14.5981 -17.2648 0.0000 0.0000 0.0000
44.8804 -98.1793 -0.0123 0.0000 0.0000 0.0000 -1.6235 -26.5398 0.3829 0.0000 0.0000 0.0000 0.0000 0.0000 0.0000 0.0000 0.0000 0.0000 0.0000 0.0000 0.0000 0.0000 0.0000 0.0000 -78.3576 -18.0975 -22.1144 -87.9822 5.5538 5.7526 0.0000 0.0000 0.0000 0.0000 0.0000 0.0000 81.4203 -10.0850 11.7101 79.6558 15.5312 -18.5732 0.0000 0.0000 0.0000
44.8826 -98.2124 -0.0116 0.0000 0.0000 0.0000 -1.6215 -26.6304 0.3838 0.0000 0.0000 0.0000 0.0000 0.0000 0.0000 0.0000 0.0000 0.0000 0.0000 0.0000 0.0000 0.0000 0.0000 0.0000 -76.1289 -20.1877 -25.6140 -87.7739 -6.5565 -6.8157 0.0000 0.0000 0.0000 0.0000 0.0000 0.0000 80.4178 -12.1669 14.3716 83.2538 8.9445 -10.0595 0.0000 0.0000 0.0000
44.8866 -98.2791 -0.0127 0.0000 0.0000 0.0000 -1.6154 -25.7425 0.3691 0.0000 0.0000 0.0000 0.0000 0.0000 0.0000 0.0000 0.0000 0.0000 0.0000 0.0000 0.0000 0.0000 0.0000 0.0000 -76.5386 -19.8432 -25.0035 -88.5564 -0.1014 -0.1040 0.0000 0.0000 0.0000 0.0000 0.0000 0.0000 81.0990 -10.8673 12.6878 80.5288 14.3721 -16.9336 0.0000 0.0000 0.0000
44.9026 -98.3620 -0.0128 0.0000 0.0000 0.0000 -1.5997 -26.5254 0.3771 0.0000 0.0000 0.0000 0.0000 0.0000 0.0000 0.0000 0.0000 0.0000 0.0000 0.0000 0.0000 0.0000 0.0000 0.0000 -75.3423 -20.8737 -26.8369 -88.4984 -2.7444 -2.8172 0.0000 0.0000 0.0000 0.0000 0.0000 0.0000 80.4169 -12.2236 14.4386 81.7048 12.5054 -14.4417 0.0000 0.0000 0.0000
44.9073 -98.3672 -0.0127 0.0000 0.0000 0.0000 -1.6127 -26.5658 0.3807 0.0000 0.0000 0.0000 0.0000 0.0000 0.0000 0.0000 0.0000 0.0000 0.0000 0.0000 0.0000 0.0000 0.0000 0.0000 -75.1018 -21.0600 -27.1863 -88.6034 -1.4022 -1.4368 0.0000 0.0000 0.0000 0.0000 0.0000 0.0000 80.5023 -11.9808 14.1314 81.8623 12.1843 -14.0331 0.0000 0.0000 0.0000
44.8995 -98.2812 -0.0128 0.0000 0.0000 0.0000 -1.6327 -26.9519 0.3913 0.0000 0.0000 0.0000 0.0000 0.0000 0.0000 0.0000 0.0000 0.0000 0.0000 0.0000 0.0000 0.0000 0.0000 0.0000 -74.2832 -21.7065 -28.4089 -88.1070 -5.2319 -5.4075 0.0000 0.0000 0.0000 0.0000 0.0000 0.0000 80.3789 -12.2058 14.4271 82.1908 11.3662 -13.0181 0.0000 0.0000 0.0000
44.8477 -98.3935 -0.0127 0.0000 0.0000 0.0000 -1.6889 -26.9478 0.4047 0.0000 0.0000 0.0000 0.0000 0.0000 0.0000 0.0000 0.0000 0.0000 0.0000 0.0000 0.0000 0.0000 0.0000 0.0000 -74.1155 -21.8191 -28.6371 -87.9629 -5.8934 -6.1064 0.0000 0.0000 0.0000 0.0000 0.0000 0.0000 78.9397 -14.5256 17.5953 83.9140 6.5256 -7.2565 0.0000 0.0000 0.0000
44.8464 -98.3980 -0.0127 0.0000 0.0000 0.0000 -1.7020 -27.0850 0.4100 0.0000 0.0000 0.0000 0.0000 0.0000 0.0000 0.0000 0.0000 0.0000 0.0000 0.0000 0.0000 0.0000 0.0000 0.0000 -73.5971 -22.2132 -29.4090 -88.1738 -4.8897 -5.0479 0.0000 0.0000 0.0000 0.0000 0.0000 0.0000 79.1975 -14.2031 17.1291 83.4409 7.9536 -8.9169 0.0000 0.0000 0.0000
44.8397 -98.3420 -0.0120 0.0000 0.0000 0.0000 -1.7089 -27.8081 0.4231 0.0000 0.0000 0.0000 0.0000 0.0000 0.0000 0.0000 0.0000 0.0000 0.0000 0.0000 0.0000 0.0000 0.0000 0.0000 -72.6313 -22.8595 -30.7602 -88.1816 -4.9333 -5.0922 0.0000 0.0000 0.0000 0.0000 0.0000 0.0000 78.8965 -14.7142 17.8361 82.9944 9.0612 -10.2369 0.0000 0.0000 0.0000
44.8399 -98.3543 -0.0120 0.0000 0.0000 0.0000 -1.7237 -27.6690 0.4245 0.0000 0.0000 0.0000 0.0000 0.0000 0.0000 0.0000 0.0000 0.0000 0.0000 0.0000 0.0000 0.0000 0.0000 0.0000 -73.8312 -22.1081 -29.1535 -88.1078 -5.4855 -5.6694 0.0000 0.0000 0.0000 0.0000 0.0000 0.0000 79.0848 -14.4325 17.4388 83.1789 8.4803 -9.5504 0.0000 0.0000 0.0000
44.8320 -98.2986 -0.0122 0.0000 0.0000 0.0000 -1.7332 -27.9994 0.4321 0.0000 0.0000 0.0000 0.0000 0.0000 0.0000 0.0000 0.0000 0.0000 0.0000 0.0000 0.0000 0.0000 0.0000 0.0000 -74.8518 -21.4170 -27.7604 -88.5308 -1.9006 -1.9500 0.0000 0.0000 0.0000 0.0000 0.0000 0.0000 80.0148 -12.9947 15.4548 82.0820 11.0442 -12.6740 0.0000 0.0000 0.0000
44.8341 -98.4178 -0.0125 0.0000 0.0000 0.0000 -1.7351 -27.8237 0.4298 0.0000 0.0000 0.0000 0.0000 0.0000 0.0000 0.0000 0.0000 0.0000 0.0000 0.0000 0.0000 0.0000 0.0000 0.0000 -75.5645 -20.8316 -26.6803 -88.6255 1.3584 1.3914 0.0000 0.0000 0.0000 0.0000 0.0000 0.0000 80.9604 -11.2372 13.1507 80.5272 13.8151 -16.2802 0.0000 0.0000 0.0000
44.8618 -98.2310 -0.0124 0.0000 0.0000 0.0000 -1.7118 -28.0958 0.4283 0.0000 0.0000 0.0000 0.0000 0.0000 0.0000 0.0000 0.0000 0.0000 0.0000 0.0000 0.0000 0.0000 0.0000 0.0000 -74.8969 -21.3810 -27.6927 -88.4080 -5.1177 -5.2618 0.0000 0.0000 0.0000 0.0000 0.0000 0.0000 80.6851 -11.7675 13.8362 81.1939 12.7475 -14.8523 0.0000 0.0000 0.0000
44.8570 -98.2659 -0.0119 0.0000 0.0000 0.0000 -1.7175 -27.6928 0.4234 0.0000 0.0000 0.0000 0.0000 0.0000 0.0000 0.0000 0.0000 0.0000 0.0000 0.0000 0.0000 0.0000 0.0000 0.0000 -73.9495 -22.0615 -29.0333 -88.1391 -6.3535 -6.5628 0.0000 0.0000 0.0000 0.0000 0.0000 0.0000 77.6387 -16.3321 20.2249 84.1751 2.8935 -3.2035 0.0000 0.0000 0.0000
44.8452 -98.2569 -0.0118 0.0000 0.0000 0.0000 -1.7329 -27.6451 0.4264 0.0000 0.0000 0.0000 0.0000 0.0000 0.0000 0.0000 0.0000 0.0000 0.0000 0.0000 0.0000 0.0000 0.0000 0.0000 -74.2805 -21.8555 -28.6019 -88.3095 -5.6347 -5.8032 0.0000 0.0000 0.0000 0.0000 0.0000 0.0000 78.0928 -15.7591 19.3656 83.6101 5.9792 -6.6847 0.0000 0.0000 0.0000
44.8434 -98.2638 -0.0128 0.0000 0.0000 0.0000 -1.7350 -27.6177 0.4265 0.0000 0.0000 0.0000 0.0000 0.0000 0.0000 0.0000 0.0000 0.0000 0.0000 0.0000 0.0000 0.0000 0.0000 0.0000 -74.9827 -21.3863 -27.6583 -88.6604 -3.6421 -3.7282 0.0000 0.0000 0.0000 0.0000 0.0000 0.0000 79.6373 -13.5753 16.2496 81.7425 11.2557 -12.9931 0.0000 0.0000 0.0000
44.8270 -98.1783 -0.0128 0.0000 0.0000 0.0000 -1.7601 -28.1636 0.4415 0.0000 0.0000 0.0000 0.0000 0.0000 0.0000 0.0000 0.0000 0.0000 0.0000 0.0000 0.0000 0.0000 0.0000 0.0000 -76.4185 -20.2460 -25.5581 -89.0076 0.1554 0.1581 0.0000 0.0000 0.0000 0.0000 0.0000 0.0000 80.4939 -12.0309 14.1925 81.4687 11.8531 -13.7468 0.0000 0.0000 0.0000
44.8093 -98.1530 -0.0130 0.0000 0.0000 0.0000 -1.7392 -28.1016 0.4353 0.0000 0.0000 0.0000 0.0000 0.0000 0.0000 0.0000 0.0000 0.0000 0.0000 0.0000 0.0000 0.0000 0.0000 0.0000 -73.3201 -22.5371 -29.9736 -87.3658 -9.4447 -9.8870 0.0000 0.0000 0.0000 0.0000 0.0000 0.0000 80.8282 -11.5644 13.5639 81.9975 10.7842 -12.3945 0.0000 0.0000 0.0000
44.8089 -98.2307 -0.0125 0.0000 0.0000 0.0000 -1.7479 -28.3957 0.4422 0.0000 0.0000 0.0000 0.0000 0.0000 0.0000 0.0000 0.0000 0.0000 0.0000 0.0000 0.0000 0.0000 0.0000 0.0000 -73.7317 -22.3450 -29.5110 -87.9263 -7.3444 -7.6144 0.0000 0.0000 0.0000 0.0000 0.0000 0.0000 79.9989 -13.0608 15.5374 83.1323 7.7418 -8.7266 0.0000 0.0000 0.0000
44.8137 -98.2352 -0.0121 0.0000 0.0000 0.0000 -1.7429 -26.7200 0.4140 0.0000 0.0000 0.0000 0.0000 0.0000 0.0000 0.0000 0.0000 0.0000 0.0000 0.0000 0.0000 0.0000 0.0000 0.0000 -73.4643 -22.5417 -29.9045 -88.0291 -7.4877 -7.7490 0.0000 0.0000 0.0000 0.0000 0.0000 0.0000 79.0501 -14.4749 17.5004 83.9827 4.2271 -4.6956 0.0000 0.0000 0.0000
44.8118 -98.1990 -0.0106 0.0000 0.0000 0.0000 -1.7186 -27.2477 0.4166 0.0000 0.0000 0.0000 0.0000 0.0000 0.0000 0.0000 0.0000 0.0000 0.0000 0.0000 0.0000 0.0000 0.0000 0.0000 -73.0637 -22.7622 -30.4022 -87.8305 -8.5417 -8.8701 0.0000 0.0000 0.0000 0.0000 0.0000 0.0000 78.3365 -15.4728 18.9350 83.7733 5.9130 -6.5919 0.0000 0.0000 0.0000
44.8085 -98.1788 -0.0101 0.0000 0.0000 0.0000 -1.7199 -27.2101 0.4163 0.0000 0.0000 0.0000 0.0000 0.0000 0.0000 0.0000 0.0000 0.0000 0.0000 0.0000 0.0000 0.0000 0.0000 0.0000 -72.8226 -22.8947 -30.7040 -88.0569 -8.1600 -8.4405 0.0000 0.0000 0.0000 0.0000 0.0000 0.0000 78.6808 -15.0148 18.2674 83.6002 6.4908 -7.2575 0.0000 0.0000 0.0000
44.7948 -98.2080 -0.0097 0.0000 0.0000 0.0000 -1.7243 -27.1306 0.4161 0.0000 0.0000 0.0000 0.0000 0.0000 0.0000 0.0000 0.0000 0.0000 0.0000 0.0000 0.0000 0.0000 0.0000 0.0000 -73.0610 -22.7408 -30.3756 -88.2647 -7.7447 -7.9822 0.0000 0.0000 0.0000 0.0000 0.0000 0.0000 78.7410 -14.9094 18.1207 83.4699 7.0215 -7.8686 0.0000 0.0000 0.0000
44.7496 -97.7888 -0.0099 0.0000 0.0000 0.0000 -1.7544 -29.4249 0.4607 0.0000 0.0000 0.0000 0.0000 0.0000 0.0000 0.0000 0.0000 0.0000 0.0000 0.0000 0.0000 0.0000 0.0000 0.0000 -70.6612 -24.1093 -33.5321 -87.9525 -8.6388 -8.9519 0.0000 0.0000 0.0000 0.0000 0.0000 0.0000 79.5269 -13.7248 16.4595 83.3458 7.3001 -8.1983 0.0000 0.0000 0.0000
44.6664 -97.9607 -0.0105 0.0000 0.0000 0.0000 -1.8170 -29.2575 0.4743 0.0000 0.0000 0.0000 0.0000 0.0000 0.0000 0.0000 0.0000 0.0000 0.0000 0.0000 0.0000 0.0000 0.0000 0.0000 -74.8734 -21.4775 -27.8272 -89.2550 0.3262 0.3305 0.0000 0.0000 0.0000 0.0000 0.0000 0.0000 80.3717 -12.2139 14.4386 81.1993 12.7740 -14.8817 0.0000 0.0000 0.0000
44.6347 -98.0349 -0.0105 0.0000 0.0000 0.0000 -1.8595 -29.5670 0.4908 0.0000 0.0000 0.0000 0.0000 0.0000 0.0000 0.0000 0.0000 0.0000 0.0000 0.0000 0.0000 0.0000 0.0000 0.0000 -76.6284 -20.0749 -25.2525 -89.0240 3.6270 3.6893 0.0000 0.0000 0.0000 0.0000 0.0000 0.0000 81.5290 -9.2065 10.6713 79.3536 15.9616 -19.1858 0.0000 0.0000 0.0000
44.6245 -98.0219 -0.0102 0.0000 0.0000 0.0000 -1.8539 -29.4087 0.4866 0.0000 0.0000 0.0000 0.0000 0.0000 0.0000 0.0000 0.0000 0.0000 0.0000 0.0000 0.0000 0.0000 0.0000 0.0000 -74.8306 -21.7402 -28.1829 -88.7415 -5.1378 -5.2518 0.0000 0.0000 0.0000 0.0000 0.0000 0.0000 81.2819 -9.4241 10.9706 80.7358 14.2842 -16.7698 0.0000 0.0000 0.0000
44.5917 -97.9722 -0.0103 0.0000 0.0000 0.0000 -1.8860 -29.0632 0.4889 0.0000 0.0000 0.0000 0.0000 0.0000 0.0000 0.0000 0.0000 0.0000 0.0000 0.0000 0.0000 0.0000 0.0000 0.0000 -75.7094 -21.0558 -26.8956 -89.0242 2.6028 2.6475 0.0000 0.0000 0.0000 0.0000 0.0000 0.0000 80.7862 -9.8401 11.5541 81.7316 13.3721 -15.4323 0.0000 0.0000 0.0000
44.5868 -97.9680 -0.0111 0.0000 0.0000 0.0000 -1.8584 -26.7828 0.4425 0.0000 0.0000 0.0000 0.0000 0.0000 0.0000 0.0000 0.0000 0.0000 0.0000 0.0000 0.0000 0.0000 0.0000 0.0000 -77.5992 -19.0240 -23.5442 -88.9632 3.2485 3.3078 0.0000 0.0000 0.0000 0.0000 0.0000 0.0000 81.2218 -7.2859 8.4932 82.8594 13.4959 -15.2722 0.0000 0.0000 0.0000
44.6945 -97.9717 -0.0130 0.0000 0.0000 0.0000 -1.7455 -26.4429 0.4101 0.0000 0.0000 0.0000 0.0000 0.0000 0.0000 0.0000 0.0000 0.0000 0.0000 0.0000 0.0000 0.0000 0.0000 0.0000 -78.3665 -18.2580 -22.3053 -87.0596 10.6151 11.1709 0.0000 0.0000 0.0000 0.0000 0.0000 0.0000 80.9433 -7.0370 8.2437 82.1613 16.7650 -19.1882 0.0000 0.0000 0.0000
44.7945 -97.8946 -0.0138 0.0000 0.0000 0.0000 -1.6355 -26.1590 0.3800 0.0000 0.0000 0.0000 0.0000 0.0000 0.0000 0.0000 0.0000 0.0000 0.0000 0.0000 0.0000 0.0000 0.0000 0.0000 -79.0069 -17.5343 -21.1909 -86.7888 11.2951 11.9420 0.0000 0.0000 0.0000 0.0000 0.0000 0.0000 80.5256 -7.4925 8.8416 83.0626 17.7092 -19.9512 0.0000 0.0000 0.0000
44.8767 -97.4984 -0.0154 0.0000 0.0000 0.0000 -1.5449 -24.5164 0.3357 0.0000 0.0000 0.0000 0.0000 0.0000 0.0000 0.0000 0.0000 0.0000 0.0000 0.0000 0.0000 0.0000 0.0000 0.0000 -81.4626 -14.1521 -16.4063 -83.1999 17.0150 19.1270 0.0000 0.0000 0.0000 0.0000 0.0000 0.0000 81.2037 -3.4296 4.0006 66.9491 29.0041 -42.7273 0.0000 0.0000 0.0000
44.8917 -97.5589 -0.0128 0.0000 0.0000 0.0000 -1.5459 -21.9194 0.2994 0.0000 0.0000 0.0000 0.0000 0.0000 0.0000 0.0000 0.0000 0.0000 0.0000 0.0000 0.0000 0.0000 0.0000 0.0000 -83.1415 -10.8280 -12.1986 -81.1523 19.0908 22.2183 0.0000 0.0000 0.0000 0.0000 0.0000 0.0000 79.4819 8.7219 -10.4813 35.7150 27.2324 -73.8753 0.0000 0.0000 0.0000
44.9085 -97.0736 -0.0129 0.0000 0.0000 0.0000 -1.5117 -20.2564 0.2701 0.0000 0.0000 0.0000 0.0000 0.0000 0.0000 0.0000 0.0000 0.0000 0.0000 0.0000 0.0000 0.0000 0.0000 0.0000 -82.2225 -12.4182 -14.2123 -83.4035 15.8825 17.7956 0.0000 0.0000 0.0000 0.0000 0.0000 0.0000 75.9428 14.5098 -18.5277 27.3097 23.7856 -81.8435 0.0000 0.0000 0.0000
44.9647 -97.0830 -0.0103 0.0000 0.0000 0.0000 -1.4374 -15.9670 0.2016 0.0000 0.0000 0.0000 0.0000 0.0000 0.0000 0.0000 0.0000 0.0000 0.0000 0.0000 0.0000 0.0000 0.0000 0.0000 -79.8934 -15.7451 -18.7499 -87.7579 4.9667 5.1647 0.0000 0.0000 0.0000 0.0000 0.0000 0.0000 71.6658 18.5361 -25.4683 17.0151 16.7916 -89.2314 0.0000 0.0000 0.0000
44.9904 -97.0919 -0.0098 0.0000 0.0000 0.0000 -1.3822 -17.4239 0.2118 0.0000 0.0000 0.0000 0.0000 0.0000 0.0000 0.0000 0.0000 0.0000 0.0000 0.0000 0.0000 0.0000 0.0000 0.0000 -76.8603 -19.0290 -23.8549 -88.0218 1.3126 1.3587 0.0000 0.0000 0.0000 0.0000 0.0000 0.0000 66.1407 21.9712 -33.2003 7.4809 7.9733 -93.6612 0.0000 0.0000 0.0000
44.9955 -97.1076 -0.0089 0.0000 0.0000 0.0000 -1.3476 -16.9816 0.2012 0.0000 0.0000 0.0000 0.0000 0.0000 0.0000 0.0000 0.0000 0.0000 0.0000 0.0000 0.0000 0.0000 0.0000 0.0000 -74.9523 -20.5051 -26.5495 -87.7667 -4.5556 -4.7366 0.0000 0.0000 0.0000 0.0000 0.0000 0.0000 68.3800 20.6090 -29.9657 1.0752 1.2326 -97.8020 0.0000 0.0000 0.0000
44.9962 -96.6722 -0.0101 0.0000 0.0000 0.0000 -1.3490 -18.0557 0.2143 0.0000 0.0000 0.0000 0.0000 0.0000 0.0000 0.0000 0.0000 0.0000 0.0000 0.0000 0.0000 0.0000 0.0000 0.0000 -73.6387 -21.4476 -28.3930 -87.6339 -5.2657 -5.4874 0.0000 0.0000 0.0000 0.0000 0.0000 0.0000 61.7495 23.7724 -38.7883 -6.1813 -6.8258 -95.6852 0.0000 0.0000 0.0000
44.9979 -96.6963 -0.0097 0.0000 0.0000 0.0000 -1.3368 -17.0931 0.2009 0.0000 0.0000 0.0000 0.0000 0.0000 0.0000 0.0000 0.0000 0.0000 0.0000 0.0000 0.0000 0.0000 0.0000 0.0000 -74.1330 -20.9839 -27.5507 -87.6845 -5.3231 -5.5424 0.0000 0.0000 0.0000 0.0000 0.0000 0.0000 62.3209 23.6164 -38.1444 -9.6203 -10.5613 -95.3670 0.0000 0.0000 0.0000
44.9931 -96.9878 -0.0089 0.0000 0.0000 0.0000 -1.3354 -14.9465 0.1752 0.0000 0.0000 0.0000 0.0000 0.0000 0.0000 0.0000 0.0000 0.0000 0.0000 0.0000 0.0000 0.0000 0.0000 0.0000 -73.6526 -21.3291 -28.2321 -87.3878 -6.4803 -6.7820 0.0000 0.0000 0.0000 0.0000 0.0000 0.0000 56.6741 25.2635 -45.1326 -12.5687 -13.5604 -94.3850 0.0000 0.0000 0.0000
44.9734 -97.1438 -0.0090 0.0000 0.0000 0.0000 -1.3187 -9.9795 0.1151 0.0000 0.0000 0.0000 0.0000 0.0000 0.0000 0.0000 0.0000 0.0000 0.0000 0.0000 0.0000 0.0000 0.0000 0.0000 -73.8759 -21.1611 -27.9045 -86.6761 -8.9422 -9.4742 0.0000 0.0000 0.0000 0.0000 0.0000 0.0000 55.2233 25.6577 -47.0547 -15.8036 -16.8985 -93.8879 0.0000 0.0000 0.0000
44.9749 -97.2356 -0.0093 0.0000 0.0000 0.0000 -1.3187 -6.1052 0.0703 0.0000 0.0000 0.0000 0.0000 0.0000 0.0000 0.0000 0.0000 0.0000 0.0000 0.0000 0.0000 0.0000 0.0000 0.0000 -74.4598 -20.7247 -27.0609 -86.1834 -10.2961 -11.0016 0.0000 0.0000 0.0000 0.0000 0.0000 0.0000 52.5047 26.0189 -50.2023 -19.4732 -20.4050 -92.7317 0.0000 0.0000 0.0000
44.9781 -97.1976 -0.0101 0.0000 0.0000 0.0000 -1.3463 -5.8898 0.0693 0.0000 0.0000 0.0000 0.0000 0.0000 0.0000 0.0000 0.0000 0.0000 0.0000 0.0000 0.0000 0.0000 0.0000 0.0000 -72.6492 -22.0423 -29.6738 -83.4200 -15.1357 -16.9565 0.0000 0.0000 0.0000 0.0000 0.0000 0.0000 53.1014 26.0320 -49.6518 -20.4601 -21.1354 -91.9018 0.0000 0.0000 0.0000
44.9777 -97.3794 -0.0107 0.0000 0.0000 0.0000 -1.3524 -5.5760 0.0659 0.0000 0.0000 0.0000 0.0000 0.0000 0.0000 0.0000 0.0000 0.0000 0.0000 0.0000 0.0000 0.0000 0.0000 0.0000 -73.2627 -21.6778 -28.8812 -83.0813 -15.6888 -17.6775 0.0000 0.0000 0.0000 0.0000 0.0000 0.0000 52.9129 26.2000 -50.1242 -24.0394 -24.2098 -90.4169 0.0000 0.0000 0.0000
45.0134 -97.8315 -0.0107 0.0000 0.0000 0.0000 -1.3140 -5.8459 0.0671 0.0000 0.0000 0.0000 0.0000 0.0000 0.0000 0.0000 0.0000 0.0000 0.0000 0.0000 0.0000 0.0000 0.0000 0.0000 -74.2727 -20.9101 -27.3885 -86.1116 -10.2231 -10.9374 0.0000 0.0000 0.0000 0.0000 0.0000 0.0000 51.5051 26.4301 -51.9124 -22.9056 -22.9559 -90.1291 0.0000 0.0000 0.0000
45.0256 -97.8397 -0.0117 0.0000 0.0000 0.0000 -1.3145 -7.1658 0.0823 0.0000 0.0000 0.0000 0.0000 0.0000 0.0000 0.0000 0.0000 0.0000 0.0000 0.0000 0.0000 0.0000 0.0000 0.0000 -74.8827 -20.2275 -26.2271 -87.0621 -8.3693 -8.8082 0.0000 0.0000 0.0000 0.0000 0.0000 0.0000 48.7701 26.6716 -55.2133 -22.7353 -22.7044 -89.9198 0.0000 0.0000 0.0000
45.0495 -97.9163 -0.0119 0.0000 0.0000 0.0000 -1.3118 -7.2731 0.0834 0.0000 0.0000 0.0000 0.0000 0.0000 0.0000 0.0000 0.0000 0.0000 0.0000 0.0000 0.0000 0.0000 0.0000 0.0000 -74.1084 -20.7671 -27.2823 -86.9848 -8.8906 -9.3691 0.0000 0.0000 0.0000 0.0000 0.0000 0.0000 50.4619 26.8929 -53.8047 -22.7850 -22.6761 -89.7181 0.0000 0.0000 0.0000
45.0855 -97.9081 -0.0121 0.0000 0.0000 0.0000 -1.3042 -8.2153 0.0937 0.0000 0.0000 0.0000 0.0000 0.0000 0.0000 0.0000 0.0000 0.0000 0.0000 0.0000 0.0000 0.0000 0.0000 0.0000 -73.6208 -21.0582 -27.8952 -86.9965 -9.2731 -9.7701 0.0000 0.0000 0.0000 0.0000 0.0000 0.0000 48.1669 27.0071 -56.4951 -21.6617 -21.7986 -90.3697 0.0000 0.0000 0.0000
45.0883 -97.7483 -0.0115 0.0000 0.0000 0.0000 -1.4002 -9.8940 0.1212 0.0000 0.0000 0.0000 0.0000 0.0000 0.0000 0.0000 0.0000 0.0000 0.0000 0.0000 0.0000 0.0000 0.0000 0.0000 -74.2070 -20.8035 -27.2824 -88.5843 -0.5736 -0.5880 0.0000 0.0000 0.0000 0.0000 0.0000 0.0000 48.4843 27.1658 -56.4316 -19.1194 -19.6007 -91.4518 0.0000 0.0000 0.0000
45.0983 -97.6662 -0.0109 0.0000 0.0000 0.0000 -1.4470 -9.0925 0.1151 0.0000 0.0000 0.0000 0.0000 0.0000 0.0000 0.0000 0.0000 0.0000 0.0000 0.0000 0.0000 0.0000 0.0000 0.0000 -74.0789 -20.9124 -27.4843 -87.2134 -8.2811 -8.6925 0.0000 0.0000 0.0000 0.0000 0.0000 0.0000 47.8736 27.1375 -57.0650 -20.7518 -21.1100 -91.0026 0.0000 0.0000 0.0000
45.1017 -97.4110 -0.0102 0.0000 0.0000 0.0000 -1.4807 -6.9618 0.0901 0.0000 0.0000 0.0000 0.0000 0.0000 0.0000 0.0000 0.0000 0.0000 0.0000 0.0000 0.0000 0.0000 0.0000 0.0000 -75.6853 -19.5381 -24.9923 -87.7002 -2.5904 -2.6965 0.0000 0.0000 0.0000 0.0000 0.0000 0.0000 51.1891 27.2329 -53.6511 -17.7122 -18.3278 -91.9896 0.0000 0.0000 0.0000
45.1698 -97.4019 -0.0097 0.0000 0.0000 0.0000 -1.4495 -7.1017 0.0900 0.0000 0.0000 0.0000 0.0000 0.0000 0.0000 0.0000 0.0000 0.0000 0.0000 0.0000 0.0000 0.0000 0.0000 0.0000 -74.9672 -20.1790 -26.1264 -86.5992 -8.0888 -8.5819 0.0000 0.0000 0.0000 0.0000 0.0000 0.0000 53.4067 27.1189 -51.2314 -19.5859 -20.1086 -91.5394 0.0000 0.0000 0.0000
45.1762 -97.5231 -0.0106 0.0000 0.0000 0.0000 -1.4507 -6.0440 0.0766 0.0000 0.0000 0.0000 0.0000 0.0000 0.0000 0.0000 0.0000 0.0000 0.0000 0.0000 0.0000 0.0000 0.0000 0.0000 -75.2891 -19.9993 -25.7519 -86.4047 -8.1294 -8.6543 0.0000 0.0000 0.0000 0.0000 0.0000 0.0000 52.7656 27.1566 -51.9243 -19.5815 -20.1465 -91.6628 0.0000 0.0000 0.0000
45.1751 -97.5370 -0.0114 0.0000 0.0000 0.0000 -1.4591 -6.5257 0.0832 0.0000 0.0000 0.0000 0.0000 0.0000 0.0000 0.0000 0.0000 0.0000 0.0000 0.0000 0.0000 0.0000 0.0000 0.0000 -74.5312 -20.5309 -26.7784 -85.4286 -10.9924 -11.9001 0.0000 0.0000 0.0000 0.0000 0.0000 0.0000 52.7917 27.1605 -51.9052 -19.8314 -20.3890 -91.6216 0.0000 0.0000 0.0000
45.2044 -97.5719 -0.0116 0.0000 0.0000 0.0000 -1.4270 -5.7053 0.0711 0.0000 0.0000 0.0000 0.0000 0.0000 0.0000 0.0000 0.0000 0.0000 0.0000 0.0000 0.0000 0.0000 0.0000 0.0000 -74.7738 -20.1485 -26.1758 -86.0159 -9.3501 -10.0207 0.0000 0.0000 0.0000 0.0000 0.0000 0.0000 53.3614 27.1125 -51.2645 -20.5710 -21.0701 -91.4041 0.0000 0.0000 0.0000
45.2431 -97.9545 -0.0122 0.0000 0.0000 0.0000 -1.3829 -3.9599 0.0478 0.0000 0.0000 0.0000 0.0000 0.0000 0.0000 0.0000 0.0000 0.0000 0.0000 0.0000 0.0000 0.0000 0.0000 0.0000 -74.2243 -20.5668 -26.9688 -86.2077 -9.0582 -9.6757 0.0000 0.0000 0.0000 0.0000 0.0000 0.0000 51.7519 27.1644 -52.9540 -20.3858 -20.8041 -91.1891 0.0000 0.0000 0.0000
45.3332 -98.1160 -0.0132 0.0000 0.0000 0.0000 -1.2647 -4.3237 0.0477 0.0000 0.0000 0.0000 0.0000 0.0000 0.0000 0.0000 0.0000 0.0000 0.0000 0.0000 0.0000 0.0000 0.0000 0.0000 -74.2248 -20.3994 -26.7523 -86.7382 -8.1280 -8.6027 0.0000 0.0000 0.0000 0.0000 0.0000 0.0000 48.9709 27.1146 -55.8008 -21.7005 -21.7141 -90.0368 0.0000 0.0000 0.0000
45.3976 -98.2744 -0.0131 0.0000 0.0000 0.0000 -1.1888 -3.2738 0.0340 0.0000 0.0000 0.0000 0.0000 0.0000 0.0000 0.0000 0.0000 0.0000 0.0000 0.0000 0.0000 0.0000 0.0000 0.0000 -73.9208 -20.4973 -27.0220 -88.0259 -2.5794 -2.6698 0.0000 0.0000 0.0000 0.0000 0.0000 0.0000 45.9350 26.7191 -58.5298 -19.1013 -19.2834 -90.5538 0.0000 0.0000 0.0000
45.4602 -98.4908 -0.0131 0.0000 0.0000 0.0000 -1.1113 -3.0067 0.0292 0.0000 0.0000 0.0000 0.0000 0.0000 0.0000 0.0000 0.0000 0.0000 0.0000 0.0000 0.0000 0.0000 0.0000 0.0000 -74.3868 -19.8925 -26.0234 -87.9335 -4.0110 -4.1582 0.0000 0.0000 0.0000 0.0000 0.0000 0.0000 47.5561 26.5101 -56.2619 -21.0190 -21.0923 -90.2041 0.0000 0.0000 0.0000
45.4973 -99.0611 -0.0123 0.0000 0.0000 0.0000 -1.0588 -5.6353 0.0521 0.0000 0.0000 0.0000 0.0000 0.0000 0.0000 0.0000 0.0000 0.0000 0.0000 0.0000 0.0000 0.0000 0.0000 0.0000 -76.0888 -18.3307 -23.3001 -88.0773 2.4117 2.4940 0.0000 0.0000 0.0000 0.0000 0.0000 0.0000 46.0819 26.1013 -57.1809 -20.4488 -20.4909 -90.1206 0.0000 0.0000 0.0000
45.5283 -99.1767 -0.0111 0.0000 0.0000 0.0000 -1.0269 -5.9523 0.0534 0.0000 0.0000 0.0000 0.0000 0.0000 0.0000 0.0000 0.0000 0.0000 0.0000 0.0000 0.0000 0.0000 0.0000 0.0000 -74.7047 -19.5916 -25.4930 -88.0540 2.4006 2.4835 0.0000 0.0000 0.0000 0.0000 0.0000 0.0000 46.6946 25.8660 -56.0260 -18.8349 -19.0086 -90.5357 0.0000 0.0000 0.0000
45.5286 -99.1643 -0.0126 0.0000 0.0000 0.0000 -1.0225 -7.8330 0.0700 0.0000 0.0000 0.0000 0.0000 0.0000 0.0000 0.0000 0.0000 0.0000 0.0000 0.0000 0.0000 0.0000 0.0000 0.0000 -75.1192 -19.1616 -24.7603 -87.7813 4.1111 4.2733 0.0000 0.0000 0.0000 0.0000 0.0000 0.0000 47.6867 25.5870 -54.3878 -19.1035 -19.4297 -90.9887 0.0000 0.0000 0.0000
45.5242 -99.1508 -0.0126 0.0000 0.0000 0.0000 -1.0108 -6.8669 0.0606 0.0000 0.0000 0.0000 0.0000 0.0000 0.0000 0.0000 0.0000 0.0000 0.0000 0.0000 0.0000 0.0000 0.0000 0.0000 -74.8732 -19.3655 -25.1285 -87.9360 -2.1574 -2.2365 0.0000 0.0000 0.0000 0.0000 0.0000 0.0000 50.1626 25.3146 -51.2661 -20.3365 -20.8884 -91.5675 0.0000 0.0000 0.0000
45.5374 -98.9923 -0.0125 0.0000 0.0000 0.0000 -1.0176 -8.3930 0.0747 0.0000 0.0000 0.0000 0.0000 0.0000 0.0000 0.0000 0.0000 0.0000 0.0000 0.0000 0.0000 0.0000 0.0000 0.0000 -73.1272 -20.8477 -27.8607 -86.9940 -7.3578 -7.7531 0.0000 0.0000 0.0000 0.0000 0.0000 0.0000 51.5574 25.0892 -49.4732 -18.1590 -19.1636 -93.1388 0.0000 0.0000 0.0000
45.5226 -98.9874 -0.0139 0.0000 0.0000 0.0000 -1.0335 -9.6771 0.0875 0.0000 0.0000 0.0000 0.0000 0.0000 0.0000 0.0000 0.0000 0.0000 0.0000 0.0000 0.0000 0.0000 0.0000 0.0000 -73.9051 -20.2401 -26.6956 -87.4658 -5.5535 -5.8043 0.0000 0.0000 0.0000 0.0000 0.0000 0.0000 54.1244 24.7097 -46.4130 -18.6950 -19.8975 -93.6376 0.0000 0.0000 0.0000
45.5271 -98.9823 -0.0131 0.0000 0.0000 0.0000 -1.0246 -8.5173 0.0763 0.0000 0.0000 0.0000 0.0000 0.0000 0.0000 0.0000 0.0000 0.0000 0.0000 0.0000 0.0000 0.0000 0.0000 0.0000 -73.7567 -20.3902 -26.9604 -87.2656 -6.8778 -7.2132 0.0000 0.0000 0.0000 0.0000 0.0000 0.0000 57.2723 24.0876 -42.6847 -19.1647 -20.5165 -93.9812 0.0000 0.0000 0.0000
45.5348 -98.9683 -0.0137 0.0000 0.0000 0.0000 -1.0053 -10.8254 0.0953 0.0000 0.0000 0.0000 0.0000 0.0000 0.0000 0.0000 0.0000 0.0000 0.0000 0.0000 0.0000 0.0000 0.0000 0.0000 -71.8710 -21.8628 -29.8410 -86.7130 -8.9987 -9.5280 0.0000 0.0000 0.0000 0.0000 0.0000 0.0000 56.7280 24.2934 -43.4710 -18.0734 -19.5528 -94.5849 0.0000 0.0000 0.0000
45.5369 -98.8236 -0.0136 0.0000 0.0000 0.0000 -1.0188 -10.6994 0.0954 0.0000 0.0000 0.0000 0.0000 0.0000 0.0000 0.0000 0.0000 0.0000 0.0000 0.0000 0.0000 0.0000 0.0000 0.0000 -72.2565 -21.6628 -29.3742 -87.2415 -7.8625 -8.2491 0.0000 0.0000 0.0000 0.0000 0.0000 0.0000 56.3046 24.4196 -44.0336 -17.9818 -19.6802 -95.2581 0.0000 0.0000 0.0000
45.4948 -98.7571 -0.0139 0.0000 0.0000 0.0000 -1.0573 -9.9835 0.0923 0.0000 0.0000 0.0000 0.0000 0.0000 0.0000 0.0000 0.0000 0.0000 0.0000 0.0000 0.0000 0.0000 0.0000 0.0000 -71.4241 -22.3061 -30.6723 -86.4809 -10.4845 -11.1450 0.0000 0.0000 0.0000 0.0000 0.0000 0.0000 56.7444 24.3469 -43.5468 -19.4784 -21.6502 -96.1768 0.0000 0.0000 0.0000
45.5034 -98.7788 -0.0119 0.0000 0.0000 0.0000 -1.0462 -12.7139 0.1166 0.0000 0.0000 0.0000 0.0000 0.0000 0.0000 0.0000 0.0000 0.0000 0.0000 0.0000 0.0000 0.0000 0.0000 0.0000 -70.0911 -23.1266 -32.5250 -86.7121 -10.0775 -10.6697 0.0000 0.0000 0.0000 0.0000 0.0000 0.0000 57.4709 24.2957 -42.8694 -22.1676 -24.5909 -96.1009 0.0000 0.0000 0.0000
45.5038 -98.4484 -0.0117 0.0000 0.0000 0.0000 -1.0543 -12.5043 0.1155 0.0000 0.0000 0.0000 0.0000 0.0000 0.0000 0.0000 0.0000 0.0000 0.0000 0.0000 0.0000 0.0000 0.0000 0.0000 -72.1390 -21.9440 -29.8090 -88.2691 -4.3895 -4.5240 0.0000 0.0000 0.0000 0.0000 0.0000 0.0000 56.2984 24.6546 -44.4335 -18.5275 -20.8859 -96.9849 0.0000 0.0000 0.0000
45.5037 -98.3718 -0.0115 0.0000 0.0000 0.0000 -1.0478 -13.1726 0.1210 0.0000 0.0000 0.0000 0.0000 0.0000 0.0000 0.0000 0.0000 0.0000 0.0000 0.0000 0.0000 0.0000 0.0000 0.0000 -71.6239 -22.2755 -30.5240 -88.5114 -2.6048 -2.6734 0.0000 0.0000 0.0000 0.0000 0.0000 0.0000 56.8036 24.6145 -43.9444 -17.8973 -20.2633 -97.2277 0.0000 0.0000 0.0000
45.5174 -98.2572 -0.0110 0.0000 0.0000 0.0000 -1.0389 -14.4119 0.1314 0.0000 0.0000 0.0000 0.0000 0.0000 0.0000 0.0000 0.0000 0.0000 0.0000 0.0000 0.0000 0.0000 0.0000 0.0000 -70.3816 -23.0287 -32.2259 -88.2391 -4.4798 -4.6195 0.0000 0.0000 0.0000 0.0000 0.0000 0.0000 57.6582 24.4714 -43.0082 -17.1217 -19.4804 -97.5004 0.0000 0.0000 0.0000
45.5470 -98.4618 -0.0101 0.0000 0.0000 0.0000 -1.0160 -14.1429 0.1260 0.0000 0.0000 0.0000 0.0000 0.0000 0.0000 0.0000 0.0000 0.0000 0.0000 0.0000 0.0000 0.0000 0.0000 0.0000 -72.8054 -21.6413 -29.0648 -88.1603 -5.2022 -5.3718 0.0000 0.0000 0.0000 0.0000 0.0000 0.0000 57.9830 24.4233 -42.6682 -17.1254 -19.5355 -97.6514 0.0000 0.0000 0.0000
45.5681 -98.4979 -0.0107 0.0000 0.0000 0.0000 -0.9988 -15.1412 0.1328 0.0000 0.0000 0.0000 0.0000 0.0000 0.0000 0.0000 0.0000 0.0000 0.0000 0.0000 0.0000 0.0000 0.0000 0.0000 -72.5760 -21.8098 -29.4046 -88.6180 -1.4417 -1.4769 0.0000 0.0000 0.0000 0.0000 0.0000 0.0000 52.4792 25.3792 -49.1025 -13.7524 -15.4922 -96.8833 0.0000 0.0000 0.0000
45.5833 -98.4827 -0.0108 0.0000 0.0000 0.0000 -0.9810 -7.6096 0.0652 0.0000 0.0000 0.0000 0.0000 0.0000 0.0000 0.0000 0.0000 0.0000 0.0000 0.0000 0.0000 0.0000 0.0000 0.0000 -73.6149 -21.1084 -27.9634 -87.2604 -8.6712 -9.0944 0.0000 0.0000 0.0000 0.0000 0.0000 0.0000 58.6065 24.2160 -41.8370 -17.1155 -19.2720 -96.8979 0.0000 0.0000 0.0000
45.5902 -98.4598 -0.0107 0.0000 0.0000 0.0000 -0.9710 -8.2402 0.0699 0.0000 0.0000 0.0000 0.0000 0.0000 0.0000 0.0000 0.0000 0.0000 0.0000 0.0000 0.0000 0.0000 0.0000 0.0000 -74.7757 -20.1014 -26.1146 -88.5961 -2.2605 -2.3165 0.0000 0.0000 0.0000 0.0000 0.0000 0.0000 56.3467 24.7115 -44.4883 -14.4426 -16.1811 -96.5759 0.0000 0.0000 0.0000
45.6052 -98.3822 -0.0104 0.0000 0.0000 0.0000 -0.9575 -8.9829 0.0752 0.0000 0.0000 0.0000 0.0000 0.0000 0.0000 0.0000 0.0000 0.0000 0.0000 0.0000 0.0000 0.0000 0.0000 0.0000 -73.6043 -21.0453 -27.8864 -88.3367 -4.3513 -4.4794 0.0000 0.0000 0.0000 0.0000 0.0000 0.0000 55.7457 24.8254 -45.1909 -15.1769 -17.0217 -96.6450 0.0000 0.0000 0.0000
45.6091 -98.3215 -0.0102 0.0000 0.0000 0.0000 -0.9802 -12.3208 0.1058 0.0000 0.0000 0.0000 0.0000 0.0000 0.0000 0.0000 0.0000 0.0000 0.0000 0.0000 0.0000 0.0000 0.0000 0.0000 -73.1616 -21.3649 -28.5223 -88.6032 -2.9330 -3.0054 0.0000 0.0000 0.0000 0.0000 0.0000 0.0000 54.2003 25.0744 -46.9755 -15.2298 -16.9457 -96.1856 0.0000 0.0000 0.0000
45.6058 -98.3354 -0.0095 0.0000 0.0000 0.0000 -1.0207 -16.8558 0.1512 0.0000 0.0000 0.0000 0.0000 0.0000 0.0000 0.0000 0.0000 0.0000 0.0000 0.0000 0.0000 0.0000 0.0000 0.0000 -73.4243 -21.1156 -28.0661 -88.6636 3.1937 3.2691 0.0000 0.0000 0.0000 0.0000 0.0000 0.0000 49.6542 25.4769 -52.0843 -13.4408 -14.8316 -95.6899 0.0000 0.0000 0.0000
45.6204 -97.7685 -0.0114 0.0000 0.0000 0.0000 -1.0132 -16.0575 0.1429 0.0000 0.0000 0.0000 0.0000 0.0000 0.0000 0.0000 0.0000 0.0000 0.0000 0.0000 0.0000 0.0000 0.0000 0.0000 -73.5620 -20.9934 -27.8393 -88.2178 -5.2230 -5.3878 0.0000 0.0000 0.0000 0.0000 0.0000 0.0000 52.0270 25.3499 -49.4841 -14.3365 -15.8404 -95.7722 0.0000 0.0000 0.0000
45.6587 -97.7835 -0.0101 0.0000 0.0000 0.0000 -0.9949 -12.3960 0.1081 0.0000 0.0000 0.0000 0.0000 0.0000 0.0000 0.0000 0.0000 0.0000 0.0000 0.0000 0.0000 0.0000 0.0000 0.0000 -72.8286 -21.3603 -28.6829 -88.0069 -5.7276 -5.9300 0.0000 0.0000 0.0000 0.0000 0.0000 0.0000 53.1394 25.2452 -48.2446 -14.7864 -16.3581 -95.8497 0.0000 0.0000 0.0000
45.7440 -97.7890 -0.0103 0.0000 0.0000 0.0000 -0.9770 -15.3642 0.1318 0.0000 0.0000 0.0000 0.0000 0.0000 0.0000 0.0000 0.0000 0.0000 0.0000 0.0000 0.0000 0.0000 0.0000 0.0000 -70.7867 -22.8352 -31.7354 -87.5392 -7.2916 -7.6108 0.0000 0.0000 0.0000 0.0000 0.0000 0.0000 52.8155 25.2771 -48.6042 -15.6853 -17.4616 -96.2209 0.0000 0.0000 0.0000
45.8859 -97.7341 -0.0110 0.0000 0.0000 0.0000 -0.8412 -17.1080 0.1265 0.0000 0.0000 0.0000 0.0000 0.0000 0.0000 0.0000 0.0000 0.0000 0.0000 0.0000 0.0000 0.0000 0.0000 0.0000 -69.9955 -23.2172 -32.7039 -87.3023 -7.5641 -7.9278 0.0000 0.0000 0.0000 0.0000 0.0000 0.0000 55.9257 24.8109 -45.0123 -16.2402 -18.2315 -96.7125 0.0000 0.0000 0.0000
45.9838 -97.6660 -0.0109 0.0000 0.0000 0.0000 -0.7545 -16.8772 0.1119 0.0000 0.0000 0.0000 0.0000 0.0000 0.0000 0.0000 0.0000 0.0000 0.0000 0.0000 0.0000 0.0000 0.0000 0.0000 -70.9425 -22.5703 -31.2905 -88.2016 -4.0320 -4.1605 0.0000 0.0000 0.0000 0.0000 0.0000 0.0000 56.0659 24.8122 -44.8950 -16.7672 -19.0141 -97.3036 0.0000 0.0000 0.0000
46.0211 -97.6475 -0.0110 0.0000 0.0000 0.0000 -0.7652 -15.5002 0.1041 0.0000 0.0000 0.0000 0.0000 0.0000 0.0000 0.0000 0.0000 0.0000 0.0000 0.0000 0.0000 0.0000 0.0000 0.0000 -71.0297 -22.5417 -31.2040 -87.9178 -5.1993 -5.3915 0.0000 0.0000 0.0000 0.0000 0.0000 0.0000 57.2556 24.5220 -43.4187 -15.4774 -17.6189 -97.5077 0.0000 0.0000 0.0000
46.0403 -97.5739 -0.0105 0.0000 0.0000 0.0000 -0.8320 -15.7068 0.1148 0.0000 0.0000 0.0000 0.0000 0.0000 0.0000 0.0000 0.0000 0.0000 0.0000 0.0000 0.0000 0.0000 0.0000 0.0000 -71.8197 -22.1177 -30.2086 -88.3161 -2.5574 -2.6336 0.0000 0.0000 0.0000 0.0000 0.0000 0.0000 57.1709 24.5099 -43.4680 -14.0919 -15.9016 -96.9845 0.0000 0.0000 0.0000
46.0983 -97.5992 -0.0099 0.0000 0.0000 0.0000 -0.8149 -11.5788 0.0826 0.0000 0.0000 0.0000 0.0000 0.0000 0.0000 0.0000 0.0000 0.0000 0.0000 0.0000 0.0000 0.0000 0.0000 0.0000 -71.5768 -22.3465 -30.6444 -86.5817 -10.1975 -10.8211 0.0000 0.0000 0.0000 0.0000 0.0000 0.0000 59.1544 23.9735 -41.0204 -15.3731 -17.3348 -96.9580 0.0000 0.0000 0.0000
46.1112 -97.5935 -0.0100 0.0000 0.0000 0.0000 -0.8498 -10.8446 0.0807 0.0000 0.0000 0.0000 0.0000 0.0000 0.0000 0.0000 0.0000 0.0000 0.0000 0.0000 0.0000 0.0000 0.0000 0.0000 -73.2490 -21.2616 -28.3435 -86.8665 -8.7634 -9.2542 0.0000 0.0000 0.0000 0.0000 0.0000 0.0000 56.5929 24.6112 -44.1142 -14.0008 -15.7164 -96.6824 0.0000 0.0000 0.0000
46.1782 -97.6147 -0.0096 0.0000 0.0000 0.0000 -0.7953 -13.5862 0.0947 0.0000 0.0000 0.0000 0.0000 0.0000 0.0000 0.0000 0.0000 0.0000 0.0000 0.0000 0.0000 0.0000 0.0000 0.0000 -73.1711 -21.3674 -28.5208 -87.8594 -5.5955 -5.8082 0.0000 0.0000 0.0000 0.0000 0.0000 0.0000 47.9137 25.5022 -53.9797 -11.4329 -12.7080 -96.0919 0.0000 0.0000 0.0000
46.1622 -97.5772 -0.0097 0.0000 0.0000 0.0000 -0.8343 -13.3609 0.0977 0.0000 0.0000 0.0000 0.0000 0.0000 0.0000 0.0000 0.0000 0.0000 0.0000 0.0000 0.0000 0.0000 0.0000 0.0000 -73.8127 -20.7893 -27.4525 -88.4503 1.4902 1.5311 0.0000 0.0000 0.0000 0.0000 0.0000 0.0000 50.0761 25.4465 -51.5947 -11.8987 -13.2399 -96.1570 0.0000 0.0000 0.0000
46.1494 -97.5772 -0.0089 0.0000 0.0000 0.0000 -0.8526 -10.1474 0.0757 0.0000 0.0000 0.0000 0.0000 0.0000 0.0000 0.0000 0.0000 0.0000 0.0000 0.0000 0.0000 0.0000 0.0000 0.0000 -72.3798 -21.8198 -29.5189 -87.1555 -8.5973 -9.0333 0.0000 0.0000 0.0000 0.0000 0.0000 0.0000 53.4665 25.1377 -47.7539 -12.8692 -14.3620 -96.3344 0.0000 0.0000 0.0000
46.1705 -97.7272 -0.0084 0.0000 0.0000 0.0000 -0.8506 -8.9983 0.0669 0.0000 0.0000 0.0000 0.0000 0.0000 0.0000 0.0000 0.0000 0.0000 0.0000 0.0000 0.0000 0.0000 0.0000 0.0000 -72.3669 -21.8081 -29.5102 -88.0618 -5.3419 -5.5255 0.0000 0.0000 0.0000 0.0000 0.0000 0.0000 53.6159 25.0949 -47.5420 -12.4654 -13.8799 -96.2008 0.0000 0.0000 0.0000
46.1736 -97.7278 -0.0093 0.0000 0.0000 0.0000 -0.9380 -7.9983 0.0656 0.0000 0.0000 0.0000 0.0000 0.0000 0.0000 0.0000 0.0000 0.0000 0.0000 0.0000 0.0000 0.0000 0.0000 0.0000 -73.3990 -21.1550 -28.1301 -88.2485 -4.3615 -4.4968 0.0000 0.0000 0.0000 0.0000 0.0000 0.0000 54.4249 24.9373 -46.5378 -13.1336 -14.6891 -96.4628 0.0000 0.0000 0.0000
46.1945 -97.7584 -0.0094 0.0000 0.0000 0.0000 -0.9257 -11.9805 0.0971 0.0000 0.0000 0.0000 0.0000 0.0000 0.0000 0.0000 0.0000 0.0000 0.0000 0.0000 0.0000 0.0000 0.0000 0.0000 -71.8923 -22.1764 -30.2486 -86.4535 -10.6781 -11.3561 0.0000 0.0000 0.0000 0.0000 0.0000 0.0000 54.5664 24.9541 -46.4407 -13.2831 -14.9448 -96.8064 0.0000 0.0000 0.0000
46.1996 -97.7585 -0.0097 0.0000 0.0000 0.0000 -0.9314 -14.5340 0.1188 0.0000 0.0000 0.0000 0.0000 0.0000 0.0000 0.0000 0.0000 0.0000 0.0000 0.0000 0.0000 0.0000 0.0000 0.0000 -71.6435 -22.2064 -30.4209 -88.0112 -6.1030 -6.3182 0.0000 0.0000 0.0000 0.0000 0.0000 0.0000 55.3718 24.8674 -45.5849 -12.3963 -13.9857 -96.9561 0.0000 0.0000 0.0000
46.2245 -97.9503 -0.0095 0.0000 0.0000 0.0000 -0.9281 -15.0114 0.1223 0.0000 0.0000 0.0000 0.0000 0.0000 0.0000 0.0000 0.0000 0.0000 0.0000 0.0000 0.0000 0.0000 0.0000 0.0000 -70.0022 -22.7651 -32.0800 -88.6406 -6.1446 -6.2918 0.0000 0.0000 0.0000 0.0000 0.0000 0.0000 58.4655 24.2126 -41.9418 -12.2043 -13.8556 -97.3137 0.0000 0.0000 0.0000
46.1526 -98.0905 -0.0093 0.0000 0.0000 0.0000 -1.0178 -15.1309 0.1352 0.0000 0.0000 0.0000 0.0000 0.0000 0.0000 0.0000 0.0000 0.0000 0.0000 0.0000 0.0000 0.0000 0.0000 0.0000 -68.8815 -23.0695 -33.1463 -89.2630 -6.3564 -6.4385 0.0000 0.0000 0.0000 0.0000 0.0000 0.0000 61.0814 23.3941 -38.6728 -11.7285 -13.3947 -97.6493 0.0000 0.0000 0.0000
46.1976 -98.0837 -0.0096 0.0000 0.0000 0.0000 -0.9690 -15.6735 0.1334 0.0000 0.0000 0.0000 0.0000 0.0000 0.0000 0.0000 0.0000 0.0000 0.0000 0.0000 0.0000 0.0000 0.0000 0.0000 -66.0443 -24.0322 -36.2655 -85.0877 -18.1076 -19.7002 0.0000 0.0000 0.0000 0.0000 0.0000 0.0000 61.6741 23.2114 -37.9678 -11.3891 -13.0666 -97.9075 0.0000 0.0000 0.0000
46.1533 -97.9729 -0.0095 0.0000 0.0000 0.0000 -1.0694 -15.6789 0.1473 0.0000 0.0000 0.0000 0.0000 0.0000 0.0000 0.0000 0.0000 0.0000 0.0000 0.0000 0.0000 0.0000 0.0000 0.0000 -66.4951 -23.4562 -35.1434 -93.7914 -2.7231 -2.5487 0.0000 0.0000 0.0000 0.0000 0.0000 0.0000 62.7966 22.7134 -36.4293 -11.3689 -13.0199 -97.8038 0.0000 0.0000 0.0000
45.7700 -97.4524 -0.0090 0.0000 0.0000 0.0000 -1.5047 -18.6251 0.2468 0.0000 0.0000 0.0000 0.0000 0.0000 0.0000 0.0000 0.0000 0.0000 0.0000 0.0000 0.0000 0.0000 0.0000 0.0000 -64.2984 -24.2590 -37.7572 -96.7222 -2.6611 -2.3660 0.0000 0.0000 0.0000 0.0000 0.0000 0.0000 70.5789 18.0647 -25.3170 -13.2083 -15.3298 -98.5908 0.0000 0.0000 0.0000
45.3850 -96.9349 -0.0055 0.0000 0.0000 0.0000 -1.9775 -18.3203 0.3189 0.0000 0.0000 0.0000 0.0000 0.0000 0.0000 0.0000 0.0000 0.0000 0.0000 0.0000 0.0000 0.0000 0.0000 0.0000 -63.3219 -24.4862 -38.7720 -99.5460 -4.4861 -3.7952 0.0000 0.0000 0.0000 0.0000 0.0000 0.0000 75.3959 12.4423 -16.0573 -14.7612 -17.2424 -98.9817 0.0000 0.0000 0.0000
45.3181 -96.9249 -0.0025 0.0000 0.0000 0.0000 -2.0782 -13.9280 0.2539 0.0000 0.0000 0.0000 0.0000 0.0000 0.0000 0.0000 0.0000 0.0000 0.0000 0.0000 0.0000 0.0000 0.0000 0.0000 -71.3803 -20.3922 -28.1145 -72.0786 34.3690 46.0548 0.0000 0.0000 0.0000 0.0000 0.0000 0.0000 77.3265 9.0880 -11.3453 -13.1419 -15.4472 -99.3155 0.0000 0.0000 0.0000
45.2310 -96.9383 -0.0013 0.0000 0.0000 0.0000 -2.1925 -12.4744 0.2396 0.0000 0.0000 0.0000 0.0000 0.0000 0.0000 0.0000 0.0000 0.0000 0.0000 0.0000 0.0000 0.0000 0.0000 0.0000 -77.6192 -14.3019 -17.7319 -34.3025 30.0852 82.0987 0.0000 0.0000 0.0000 0.0000 0.0000 0.0000 75.5212 13.4058 -17.2550 -8.4525 -9.4174 -96.2068 0.0000 0.0000 0.0000
45.2179 -96.9735 -0.0028 0.0000 0.0000 0.0000 -2.2072 -12.2377 0.2366 0.0000 0.0000 0.0000 0.0000 0.0000 0.0000 0.0000 0.0000 0.0000 0.0000 0.0000 0.0000 0.0000 0.0000 0.0000 -79.9796 -11.9387 -14.2116 -26.1076 25.4027 88.3777 0.0000 0.0000 0.0000 0.0000 0.0000 0.0000 75.9021 13.3302 -17.0427 -7.5481 -8.3531 -95.8153 0.0000 0.0000 0.0000
45.1675 -96.6177 -0.0012 0.0000 0.0000 0.0000 -2.2890 -11.1733 0.2239 0.0000 0.0000 0.0000 0.0000 0.0000 0.0000 0.0000 0.0000 0.0000 0.0000 0.0000 0.0000 0.0000 0.0000 0.0000 -84.6082 -4.4842 -4.9268 -17.5350 17.3941 89.5305 0.0000 0.0000 0.0000 0.0000 0.0000 0.0000 73.1745 16.7501 -22.4355 -4.7267 -5.2174 -95.6566 0.0000 0.0000 0.0000
45.1513 -96.5885 -0.0002 0.0000 0.0000 0.0000 -2.3250 -10.7833 0.2195 0.0000 0.0000 0.0000 0.0000 0.0000 0.0000 0.0000 0.0000 0.0000 0.0000 0.0000 0.0000 0.0000 0.0000 0.0000 -86.8241 1.3050 1.3794 -13.9282 13.7157 89.1106 0.0000 0.0000 0.0000 0.0000 0.0000 0.0000 73.5303 16.6858 -22.2096 -2.4203 -2.6720 -95.6619 0.0000 0.0000 0.0000
45.2159 -96.1380 -0.0000 0.0000 0.0000 0.0000 -2.2851 -11.0492 0.2211 0.0000 0.0000 0.0000 0.0000 0.0000 0.0000 0.0000 0.0000 0.0000 0.0000 0.0000 0.0000 0.0000 0.0000 0.0000 -87.4454 1.0047 1.0505 -11.2043 10.8673 88.2396 0.0000 0.0000 0.0000 0.0000 0.0000 0.0000 74.7252 15.2183 -19.8488 -1.5044 -1.6689 -95.9343 0.0000 0.0000 0.0000
45.2705 -95.5952 -0.0022 0.0000 0.0000 0.0000 -2.2472 -8.6313 0.1696 0.0000 0.0000 0.0000 0.0000 0.0000 0.0000 0.0000 0.0000 0.0000 0.0000 0.0000 0.0000 0.0000 0.0000 0.0000 -87.4387 0.6793 0.7104 -10.7848 10.2023 86.8023 0.0000 0.0000 0.0000 0.0000 0.0000 0.0000 77.3783 11.5237 -14.3625 -1.1438 -1.2774 -96.3170 0.0000 0.0000 0.0000
45.2955 -95.1345 -0.0026 0.0000 0.0000 0.0000 -2.2533 -9.2309 0.1819 0.0000 0.0000 0.0000 0.0000 0.0000 0.0000 0.0000 0.0000 0.0000 0.0000 0.0000 0.0000 0.0000 0.0000 0.0000 -87.4476 1.0091 1.0550 -9.0519 8.4764 86.2246 0.0000 0.0000 0.0000 0.0000 0.0000 0.0000 76.6300 13.1722 -16.6260 0.5538 0.6117 -95.6848 0.0000 0.0000 0.0000
45.3438 -94.7603 -0.0045 0.0000 0.0000 0.0000 -2.2011 -7.5511 0.1453 0.0000 0.0000 0.0000 0.0000 0.0000 0.0000 0.0000 0.0000 0.0000 0.0000 0.0000 0.0000 0.0000 0.0000 0.0000 -86.8497 4.9937 5.2758 -8.5179 7.9286 85.8813 0.0000 0.0000 0.0000 0.0000 0.0000 0.0000 77.5675 12.8452 -15.9490 2.8461 3.1004 -94.9001 0.0000 0.0000 0.0000
45.3689 -94.5740 -0.0072 0.0000 0.0000 0.0000 -2.1712 -6.2367 0.1183 0.0000 0.0000 0.0000 0.0000 0.0000 0.0000 0.0000 0.0000 0.0000 0.0000 0.0000 0.0000 0.0000 0.0000 0.0000 -85.8541 8.2286 8.8443 -8.1548 7.5764 85.7754 0.0000 0.0000 0.0000 0.0000 0.0000 0.0000 76.8754 15.3625 -19.2891 5.2024 5.5077 -93.2704 0.0000 0.0000 0.0000
45.4085 -94.0794 -0.0075 0.0000 0.0000 0.0000 -2.1470 -5.8425 0.1096 0.0000 0.0000 0.0000 0.0000 0.0000 0.0000 0.0000 0.0000 0.0000 0.0000 0.0000 0.0000 0.0000 0.0000 0.0000 -82.4838 14.8287 16.8855 -7.6317 7.1641 86.3695 0.0000 0.0000 0.0000 0.0000 0.0000 0.0000 75.3235 18.5864 -23.9402 6.9574 7.1357 -91.4530 0.0000 0.0000 0.0000
45.4107 -93.7655 -0.0060 0.0000 0.0000 0.0000 -2.1555 -5.8853 0.1108 0.0000 0.0000 0.0000 0.0000 0.0000 0.0000 0.0000 0.0000 0.0000 0.0000 0.0000 0.0000 0.0000 0.0000 0.0000 -82.9300 13.5633 15.3294 -8.5220 7.9933 86.3200 0.0000 0.0000 0.0000 0.0000 0.0000 0.0000 76.0628 18.0532 -22.9615 7.5466 7.6215 -90.5675 0.0000 0.0000 0.0000
45.4246 -93.4540 -0.0057 0.0000 0.0000 0.0000 -2.1476 -6.5706 0.1233 0.0000 0.0000 0.0000 0.0000 0.0000 0.0000 0.0000 0.0000 0.0000 0.0000 0.0000 0.0000 0.0000 0.0000 0.0000 -82.6972 13.4861 15.3042 -9.3643 8.7701 86.2309 0.0000 0.0000 0.0000 0.0000 0.0000 0.0000 75.5815 18.5852 -23.8306 7.3815 7.4575 -90.5884 0.0000 0.0000 0.0000
45.4169 -93.4824 -0.0049 0.0000 0.0000 0.0000 -2.1411 -6.9823 0.1306 0.0000 0.0000 0.0000 0.0000 0.0000 0.0000 0.0000 0.0000 0.0000 0.0000 0.0000 0.0000 0.0000 0.0000 0.0000 -83.0197 12.1397 13.7026 -10.6433 9.9342 86.0314 0.0000 0.0000 0.0000 0.0000 0.0000 0.0000 77.2865 16.8347 -20.9713 7.5463 7.6360 -90.6788 0.0000 0.0000 0.0000
45.4194 -93.5359 -0.0041 0.0000 0.0000 0.0000 -2.1504 -8.6299 0.1623 0.0000 0.0000 0.0000 0.0000 0.0000 0.0000 0.0000 0.0000 0.0000 0.0000 0.0000 0.0000 0.0000 0.0000 0.0000 -83.1591 10.5571 11.8903 -11.2662 10.6128 86.5579 0.0000 0.0000 0.0000 0.0000 0.0000 0.0000 77.1234 16.0407 -20.0468 8.3951 8.5118 -90.7940 0.0000 0.0000 0.0000
45.4117 -93.8026 -0.0044 0.0000 0.0000 0.0000 -2.1462 -8.0062 0.1502 0.0000 0.0000 0.0000 0.0000 0.0000 0.0000 0.0000 0.0000 0.0000 0.0000 0.0000 0.0000 0.0000 0.0000 0.0000 -83.9468 -5.7724 -6.4156 -17.8881 16.2508 84.4267 0.0000 0.0000 0.0000 0.0000 0.0000 0.0000 79.2923 9.7473 -11.7502 9.8706 10.1595 -91.6612 0.0000 0.0000 0.0000
45.3850 -94.1927 -0.0048 0.0000 0.0000 0.0000 -2.1079 -8.0354 0.1481 0.0000 0.0000 0.0000 0.0000 0.0000 0.0000 0.0000 0.0000 0.0000 0.0000 0.0000 0.0000 0.0000 0.0000 0.0000 -82.7949 -5.5918 -6.3418 -23.0149 20.3639 82.8368 0.0000 0.0000 0.0000 0.0000 0.0000 0.0000 77.9077 10.5566 -13.0383 10.4270 10.8289 -92.1786 0.0000 0.0000 0.0000
45.3161 -94.8097 -0.0061 0.0000 0.0000 0.0000 -2.1536 -8.9598 0.1688 0.0000 0.0000 0.0000 0.0000 0.0000 0.0000 0.0000 0.0000 0.0000 0.0000 0.0000 0.0000 0.0000 0.0000 0.0000 -81.9299 -7.1533 -8.2356 -33.7463 26.6619 75.9970 0.0000 0.0000 0.0000 0.0000 0.0000 0.0000 77.7628 10.5722 -13.0911 10.0948 10.5788 -92.6966 0.0000 0.0000 0.0000
45.3562 -95.6262 -0.0067 0.0000 0.0000 0.0000 -2.0766 -8.7667 0.1592 0.0000 0.0000 0.0000 0.0000 0.0000 0.0000 0.0000 0.0000 0.0000 0.0000 0.0000 0.0000 0.0000 0.0000 0.0000 -77.4939 -15.7306 -19.5347 -74.3612 28.3164 36.7920 0.0000 0.0000 0.0000 0.0000 0.0000 0.0000 77.7243 10.4996 -13.0103 9.9158 10.5880 -93.7759 0.0000 0.0000 0.0000
45.6351 -95.7410 -0.0068 0.0000 0.0000 0.0000 -1.7488 -11.0027 0.1684 0.0000 0.0000 0.0000 0.0000 0.0000 0.0000 0.0000 0.0000 0.0000 0.0000 0.0000 0.0000 0.0000 0.0000 0.0000 -72.0304 -20.2752 -27.6369 -88.5839 17.7336 18.1701 0.0000 0.0000 0.0000 0.0000 0.0000 0.0000 77.4637 10.9947 -13.6848 7.1762 7.9973 -96.2132 0.0000 0.0000 0.0000
45.9041 -95.8211 -0.0099 0.0000 0.0000 0.0000 -1.4418 -14.5603 0.1842 0.0000 0.0000 0.0000 0.0000 0.0000 0.0000 0.0000 0.0000 0.0000 0.0000 0.0000 0.0000 0.0000 0.0000 0.0000 -69.0808 -22.0566 -31.6182 -91.0443 13.6759 13.4312 0.0000 0.0000 0.0000 0.0000 0.0000 0.0000 72.7205 17.3579 -23.4280 5.1299 5.7038 -96.0735 0.0000 0.0000 0.0000
45.8994 -96.3647 -0.0093 0.0000 0.0000 0.0000 -1.4419 -15.0445 0.1904 0.0000 0.0000 0.0000 0.0000 0.0000 0.0000 0.0000 0.0000 0.0000 0.0000 0.0000 0.0000 0.0000 0.0000 0.0000 -69.5021 -21.6586 -30.8305 -89.6139 16.2782 16.3868 0.0000 0.0000 0.0000 0.0000 0.0000 0.0000 72.4726 17.3554 -23.5281 4.2987 4.8316 -96.6878 0.0000 0.0000 0.0000
45.9795 -96.4143 -0.0080 0.0000 0.0000 0.0000 -1.3538 -19.3343 0.2306 0.0000 0.0000 0.0000 0.0000 0.0000 0.0000 0.0000 0.0000 0.0000 0.0000 0.0000 0.0000 0.0000 0.0000 0.0000 -65.1717 -23.9269 -36.6810 -93.7669 -4.7084 -4.4089 0.0000 0.0000 0.0000 0.0000 0.0000 0.0000 70.5407 18.9514 -26.5565 1.8614 2.1424 -98.0328 0.0000 0.0000 0.0000
46.0269 -96.8830 -0.0085 0.0000 0.0000 0.0000 -1.2514 -19.5523 0.2156 0.0000 0.0000 0.0000 0.0000 0.0000 0.0000 0.0000 0.0000 0.0000 0.0000 0.0000 0.0000 0.0000 0.0000 0.0000 -65.9538 -23.7537 -35.9189 -93.4210 -5.2042 -4.9028 0.0000 0.0000 0.0000 0.0000 0.0000 0.0000 68.2902 20.7493 -30.2134 -1.5952 -1.8407 -98.1741 0.0000 0.0000 0.0000
46.1309 -97.1389 -0.0088 0.0000 0.0000 0.0000 -1.1190 -17.5782 0.1730 0.0000 0.0000 0.0000 0.0000 0.0000 0.0000 0.0000 0.0000 0.0000 0.0000 0.0000 0.0000 0.0000 0.0000 0.0000 -67.0720 -23.3370 -34.6127 -92.6986 -2.9008 -2.7673 0.0000 0.0000 0.0000 0.0000 0.0000 0.0000 66.7334 21.8065 -32.6090 -4.4617 -5.1421 -98.1151 0.0000 0.0000 0.0000
46.2113 -97.4839 -0.0091 0.0000 0.0000 0.0000 -1.0222 -17.2075 0.1547 0.0000 0.0000 0.0000 0.0000 0.0000 0.0000 0.0000 0.0000 0.0000 0.0000 0.0000 0.0000 0.0000 0.0000 0.0000 -69.0731 -22.5260 -32.2774 -91.5912 -0.5830 -0.5671 0.0000 0.0000 0.0000 0.0000 0.0000 0.0000 62.9471 23.5251 -37.5716 -7.0731 -8.0450 -97.3786 0.0000 0.0000 0.0000
46.3050 -97.5372 -0.0090 0.0000 0.0000 0.0000 -0.9137 -16.6702 0.1339 0.0000 0.0000 0.0000 0.0000 0.0000 0.0000 0.0000 0.0000 0.0000 0.0000 0.0000 0.0000 0.0000 0.0000 0.0000 -68.6818 -22.9280 -33.0655 -89.8632 -5.4253 -5.4383 0.0000 0.0000 0.0000 0.0000 0.0000 0.0000 59.6791 24.5335 -41.5177 -8.6193 -9.5924 -96.1426 0.0000 0.0000 0.0000
46.3327 -97.5864 -0.0091 0.0000 0.0000 0.0000 -0.8827 -16.3924 0.1271 0.0000 0.0000 0.0000 0.0000 0.0000 0.0000 0.0000 0.0000 0.0000 0.0000 0.0000 0.0000 0.0000 0.0000 0.0000 -69.4307 -22.9408 -32.6483 -88.1502 -9.1343 -9.4328 0.0000 0.0000 0.0000 0.0000 0.0000 0.0000 59.2230 24.5114 -41.8344 -12.7828 -14.1098 -95.7015 0.0000 0.0000 0.0000
46.3924 -97.5752 -0.0102 0.0000 0.0000 0.0000 -0.8097 -18.0065 0.1283 0.0000 0.0000 0.0000 0.0000 0.0000 0.0000 0.0000 0.0000 0.0000 0.0000 0.0000 0.0000 0.0000 0.0000 0.0000 -69.8446 -23.0621 -32.5777 -86.2737 -12.1905 -13.0035 0.0000 0.0000 0.0000 0.0000 0.0000 0.0000 50.7686 25.7013 -51.3536 -14.3862 -15.5874 -94.6426 0.0000 0.0000 0.0000
46.4342 -98.1675 -0.0114 0.0000 0.0000 0.0000 -0.7412 -7.5999 0.0492 0.0000 0.0000 0.0000 0.0000 0.0000 0.0000 0.0000 0.0000 0.0000 0.0000 0.0000 0.0000 0.0000 0.0000 0.0000 -73.5327 -20.6507 -27.4065 -87.9415 -5.9268 -6.1432 0.0000 0.0000 0.0000 0.0000 0.0000 0.0000 47.6322 25.7360 -54.7281 -21.1980 -21.8636 -91.8136 0.0000 0.0000 0.0000
46.4038 -98.5401 -0.0117 0.0000 0.0000 0.0000 -0.7703 -9.0399 0.0609 0.0000 0.0000 0.0000 0.0000 0.0000 0.0000 0.0000 0.0000 0.0000 0.0000 0.0000 0.0000 0.0000 0.0000 0.0000 -72.9954 -20.9787 -28.0976 -88.0045 -4.9863 -5.1628 0.0000 0.0000 0.0000 0.0000 0.0000 0.0000 46.7783 25.6522 -55.5243 -20.5133 -20.9387 -91.2020 0.0000 0.0000 0.0000
46.3300 -98.6441 -0.0125 0.0000 0.0000 0.0000 -0.8314 -5.4527 0.0396 0.0000 0.0000 0.0000 0.0000 0.0000 0.0000 0.0000 0.0000 0.0000 0.0000 0.0000 0.0000 0.0000 0.0000 0.0000 -75.5685 -18.7372 -24.0288 -87.8391 -3.8578 -4.0060 0.0000 0.0000 0.0000 0.0000 0.0000 0.0000 46.4945 25.6030 -55.7525 -23.7899 -23.4197 -89.0754 0.0000 0.0000 0.0000
46.2938 -98.7126 -0.0136 0.0000 0.0000 0.0000 -0.8672 -7.1281 0.0540 0.0000 0.0000 0.0000 0.0000 0.0000 0.0000 0.0000 0.0000 0.0000 0.0000 0.0000 0.0000 0.0000 0.0000 0.0000 -74.0530 -19.9616 -26.2656 -87.1287 -5.1188 -5.3816 0.0000 0.0000 0.0000 0.0000 0.0000 0.0000 45.1963 25.5006 -57.0621 -24.0013 -23.4011 -88.5069 0.0000 0.0000 0.0000
46.2764 -98.7138 -0.0135 0.0000 0.0000 0.0000 -0.9563 -5.4792 0.0458 0.0000 0.0000 0.0000 0.0000 0.0000 0.0000 0.0000 0.0000 0.0000 0.0000 0.0000 0.0000 0.0000 0.0000 0.0000 -74.4852 -19.5464 -25.5329 -87.2379 -4.6733 -4.9039 0.0000 0.0000 0.0000 0.0000 0.0000 0.0000 45.2660 25.4323 -56.8467 -26.1554 -24.9696 -87.2524 0.0000 0.0000 0.0000
46.2756 -98.7006 -0.0140 0.0000 0.0000 0.0000 -0.9609 -6.4972 0.0545 0.0000 0.0000 0.0000 0.0000 0.0000 0.0000 0.0000 0.0000 0.0000 0.0000 0.0000 0.0000 0.0000 0.0000 0.0000 -69.2969 -22.9269 -32.7062 -81.8361 -17.0621 -19.6367 0.0000 0.0000 0.0000 0.0000 0.0000 0.0000 44.2287 25.3544 -57.9349 -25.9790 -24.6484 -86.8888 0.0000 0.0000 0.0000
46.2784 -98.6818 -0.0134 0.0000 0.0000 0.0000 -0.9640 -6.6892 0.0563 0.0000 0.0000 0.0000 0.0000 0.0000 0.0000 0.0000 0.0000 0.0000 0.0000 0.0000 0.0000 0.0000 0.0000 0.0000 -70.4412 -22.2579 -31.1411 -85.4500 -11.1680 -12.0854 0.0000 0.0000 0.0000 0.0000 0.0000 0.0000 44.2012 25.3754 -58.0099 -25.0830 -23.8915 -87.1260 0.0000 0.0000 0.0000
46.2858 -98.6873 -0.0105 0.0000 0.0000 0.0000 -0.9177 -8.2630 0.0663 0.0000 0.0000 0.0000 0.0000 0.0000 0.0000 0.0000 0.0000 0.0000 0.0000 0.0000 0.0000 0.0000 0.0000 0.0000 -70.1846 -22.3673 -31.4324 -85.8360 -10.2292 -10.9964 0.0000 0.0000 0.0000 0.0000 0.0000 0.0000 44.6801 25.4996 -57.6757 -22.8616 -22.1587 -88.1642 0.0000 0.0000 0.0000
46.3566 -98.8207 -0.0105 0.0000 0.0000 0.0000 -0.8386 -8.0039 0.0587 0.0000 0.0000 0.0000 0.0000 0.0000 0.0000 0.0000 0.0000 0.0000 0.0000 0.0000 0.0000 0.0000 0.0000 0.0000 -71.0096 -22.0015 -30.4841 -86.0571 -9.0659 -9.7093 0.0000 0.0000 0.0000 0.0000 0.0000 0.0000 46.0222 25.6904 -56.4629 -25.2918 -24.0196 -86.9512 0.0000 0.0000 0.0000
46.3726 -98.8090 -0.0103 0.0000 0.0000 0.0000 -0.8326 -7.9849 0.0581 0.0000 0.0000 0.0000 0.0000 0.0000 0.0000 0.0000 0.0000 0.0000 0.0000 0.0000 0.0000 0.0000 0.0000 0.0000 -73.5758 -20.2257 -26.8313 -87.5647 -0.0233 -0.0243 0.0000 0.0000 0.0000 0.0000 0.0000 0.0000 51.1330 25.7894 -51.1458 -25.1030 -23.9828 -87.3037 0.0000 0.0000 0.0000
46.3267 -98.6914 -0.0101 0.0000 0.0000 0.0000 -0.8621 -8.9055 0.0671 0.0000 0.0000 0.0000 0.0000 0.0000 0.0000 0.0000 0.0000 0.0000 0.0000 0.0000 0.0000 0.0000 0.0000 0.0000 -71.4478 -21.7443 -29.9040 -87.1676 -5.1705 -5.4322 0.0000 0.0000 0.0000 0.0000 0.0000 0.0000 49.6139 26.1132 -53.2893 -22.1500 -21.8405 -89.1735 0.0000 0.0000 0.0000
46.3299 -98.6770 -0.0099 0.0000 0.0000 0.0000 -0.8178 -7.8666 0.0562 0.0000 0.0000 0.0000 0.0000 0.0000 0.0000 0.0000 0.0000 0.0000 0.0000 0.0000 0.0000 0.0000 0.0000 0.0000 -72.2306 -21.2356 -28.8194 -87.1251 -7.1363 -7.5027 0.0000 0.0000 0.0000 0.0000 0.0000 0.0000 51.3703 26.2469 -51.7234 -23.2429 -23.0222 -89.4381 0.0000 0.0000 0.0000
46.3173 -98.6232 -0.0100 0.0000 0.0000 0.0000 -0.8308 -12.5918 0.0917 0.0000 0.0000 0.0000 0.0000 0.0000 0.0000 0.0000 0.0000 0.0000 0.0000 0.0000 0.0000 0.0000 0.0000 0.0000 -70.4310 -22.4512 -31.4107 -87.8742 -4.1606 -4.3177 0.0000 0.0000 0.0000 0.0000 0.0000 0.0000 52.5678 26.4083 -50.8213 -20.8351 -21.0357 -90.5615 0.0000 0.0000 0.0000
46.3017 -98.6403 -0.0101 0.0000 0.0000 0.0000 -0.8777 -8.9682 0.0688 0.0000 0.0000 0.0000 0.0000 0.0000 0.0000 0.0000 0.0000 0.0000 0.0000 0.0000 0.0000 0.0000 0.0000 0.0000 -72.0474 -21.5037 -29.2701 -87.9827 -4.4269 -4.5854 0.0000 0.0000 0.0000 0.0000 0.0000 0.0000 51.7335 26.5605 -51.9132 -20.6696 -20.9966 -90.9195 0.0000 0.0000 0.0000
46.3033 -98.5506 -0.0106 0.0000 0.0000 0.0000 -0.9109 -9.6904 0.0772 0.0000 0.0000 0.0000 0.0000 0.0000 0.0000 0.0000 0.0000 0.0000 0.0000 0.0000 0.0000 0.0000 0.0000 0.0000 -70.8178 -22.4380 -31.1796 -86.6666 -9.8194 -10.4048 0.0000 0.0000 0.0000 0.0000 0.0000 0.0000 52.5331 26.6140 -51.2134 -20.8506 -21.2134 -91.0109 0.0000 0.0000 0.0000
46.2969 -98.5652 -0.0105 0.0000 0.0000 0.0000 -0.9002 -9.8533 0.0776 0.0000 0.0000 0.0000 0.0000 0.0000 0.0000 0.0000 0.0000 0.0000 0.0000 0.0000 0.0000 0.0000 0.0000 0.0000 -71.5951 -21.9827 -30.1467 -87.5193 -7.2800 -7.6013 0.0000 0.0000 0.0000 0.0000 0.0000 0.0000 52.6013 26.6376 -51.1876 -20.2771 -20.8295 -91.5734 0.0000 0.0000 0.0000
46.2982 -98.4121 -0.0106 0.0000 0.0000 0.0000 -0.8878 -9.6718 0.0751 0.0000 0.0000 0.0000 0.0000 0.0000 0.0000 0.0000 0.0000 0.0000 0.0000 0.0000 0.0000 0.0000 0.0000 0.0000 -73.5182 -20.6000 -27.3473 -87.6251 -7.2870 -7.5946 0.0000 0.0000 0.0000 0.0000 0.0000 0.0000 59.1482 25.7081 -43.8105 -26.3473 -26.1374 -89.5252 0.0000 0.0000 0.0000
46.2993 -98.4939 -0.0087 0.0000 0.0000 0.0000 -0.8271 -15.4540 0.1122 0.0000 0.0000 0.0000 0.0000 0.0000 0.0000 0.0000 0.0000 0.0000 0.0000 0.0000 0.0000 0.0000 0.0000 0.0000 -70.5912 -22.5807 -31.4984 -88.3994 -4.6858 -4.8184 0.0000 0.0000 0.0000 0.0000 0.0000 0.0000 54.7389 26.5323 -48.9723 -18.8772 -19.7715 -92.7019 0.0000 0.0000 0.0000
46.3065 -98.5434 -0.0082 0.0000 0.0000 0.0000 -0.8114 -14.8879 0.1060 0.0000 0.0000 0.0000 0.0000 0.0000 0.0000 0.0000 0.0000 0.0000 0.0000 0.0000 0.0000 0.0000 0.0000 0.0000 -71.5118 -22.0511 -30.2827 -88.9803 -1.2742 -1.2971 0.0000 0.0000 0.0000 0.0000 0.0000 0.0000 53.8423 26.6269 -49.9722 -16.7080 -17.7934 -93.6587 0.0000 0.0000 0.0000
46.3025 -98.6709 -0.0080 0.0000 0.0000 0.0000 -0.8158 -14.3940 0.1030 0.0000 0.0000 0.0000 0.0000 0.0000 0.0000 0.0000 0.0000 0.0000 0.0000 0.0000 0.0000 0.0000 0.0000 0.0000 -71.5162 -22.1154 -30.3668 -88.9853 -2.4795 -2.5237 0.0000 0.0000 0.0000 0.0000 0.0000 0.0000 54.0535 26.6148 -49.7519 -16.6320 -17.7530 -93.7910 0.0000 0.0000 0.0000
46.3089 -98.7622 -0.0077 0.0000 0.0000 0.0000 -0.8017 -18.1965 0.1284 0.0000 0.0000 0.0000 0.0000 0.0000 0.0000 0.0000 0.0000 0.0000 0.0000 0.0000 0.0000 0.0000 0.0000 0.0000 -71.6256 -22.0496 -30.2202 -89.1673 -0.6102 -0.6192 0.0000 0.0000 0.0000 0.0000 0.0000 0.0000 52.7710 26.7316 -51.1844 -14.1089 -15.2718 -94.5834 0.0000 0.0000 0.0000
46.3101 -98.7896 -0.0073 0.0000 0.0000 0.0000 -0.7947 -16.4726 0.1150 0.0000 0.0000 0.0000 0.0000 0.0000 0.0000 0.0000 0.0000 0.0000 0.0000 0.0000 0.0000 0.0000 0.0000 0.0000 -71.7906 -21.9270 -29.9690 -89.0786 -2.4807 -2.5209 0.0000 0.0000 0.0000 0.0000 0.0000 0.0000 50.7985 26.8184 -53.3219 -14.6110 -15.8290 -94.6370 0.0000 0.0000 0.0000
46.3089 -98.7940 -0.0084 0.0000 0.0000 0.0000 -0.7982 -15.5886 0.1093 0.0000 0.0000 0.0000 0.0000 0.0000 0.0000 0.0000 0.0000 0.0000 0.0000 0.0000 0.0000 0.0000 0.0000 0.0000 -71.6671 -22.0088 -30.1436 -89.1184 -1.8066 -1.8347 0.0000 0.0000 0.0000 0.0000 0.0000 0.0000 60.0177 25.6372 -43.0052 -16.7459 -18.1386 -94.6436 0.0000 0.0000 0.0000
46.3243 -98.8061 -0.0085 0.0000 0.0000 0.0000 -0.7892 -15.6732 0.1086 0.0000 0.0000 0.0000 0.0000 0.0000 0.0000 0.0000 0.0000 0.0000 0.0000 0.0000 0.0000 0.0000 0.0000 0.0000 -70.8468 -22.5081 -31.2588 -88.7606 -4.8010 -4.9058 0.0000 0.0000 0.0000 0.0000 0.0000 0.0000 59.4388 25.7554 -43.6522 -14.3618 -15.7316 -95.2727 0.0000 0.0000 0.0000
46.3840 -98.8099 -0.0083 0.0000 0.0000 0.0000 -0.7126 -16.8867 0.1058 0.0000 0.0000 0.0000 0.0000 0.0000 0.0000 0.0000 0.0000 0.0000 0.0000 0.0000 0.0000 0.0000 0.0000 0.0000 -69.1487 -23.3903 -33.4356 -88.5763 -5.3732 -5.5082 0.0000 0.0000 0.0000 0.0000 0.0000 0.0000 60.4537 25.4040 -42.2982 -11.8243 -13.1258 -96.0191 0.0000 0.0000 0.0000
46.4823 -98.8972 -0.0091 0.0000 0.0000 0.0000 -0.6224 -17.3018 0.0947 0.0000 0.0000 0.0000 0.0000 0.0000 0.0000 0.0000 0.0000 0.0000 0.0000 0.0000 0.0000 0.0000 0.0000 0.0000 -71.9739 -21.7655 -29.6573 -89.0229 0.1754 0.1785 0.0000 0.0000 0.0000 0.0000 0.0000 0.0000 71.1723 20.0679 -27.7779 -10.3922 -11.9524 -98.0388 0.0000 0.0000 0.0000
46.5918 -98.9234 -0.0097 0.0000 0.0000 0.0000 -0.5687 -17.8364 0.0892 0.0000 0.0000 0.0000 0.0000 0.0000 0.0000 0.0000 0.0000 0.0000 0.0000 0.0000 0.0000 0.0000 0.0000 0.0000 -72.2393 -21.7195 -29.4584 -88.7322 2.8478 2.9115 0.0000 0.0000 0.0000 0.0000 0.0000 0.0000 69.0078 20.8612 -29.9849 -3.5565 -4.1779 -99.1936 0.0000 0.0000 0.0000
46.6591 -98.6913 -0.0101 0.0000 0.0000 0.0000 -0.5774 -17.8006 0.0904 0.0000 0.0000 0.0000 0.0000 0.0000 0.0000 0.0000 0.0000 0.0000 0.0000 0.0000 0.0000 0.0000 0.0000 0.0000 -74.5202 -20.0507 -26.1662 -87.0396 8.9820 9.4564 0.0000 0.0000 0.0000 0.0000 0.0000 0.0000 68.1744 20.7877 -30.3309 7.6154 8.6281 -97.1591 0.0000 0.0000 0.0000
46.8086 -98.6905 -0.0110 0.0000 0.0000 0.0000 -0.4539 -18.9769 0.0759 0.0000 0.0000 0.0000 0.0000 0.0000 0.0000 0.0000 0.0000 0.0000 0.0000 0.0000 0.0000 0.0000 0.0000 0.0000 -78.2574 -16.6097 -20.3451 -86.4926 9.7840 10.3988 0.0000 0.0000 0.0000 0.0000 0.0000 0.0000 75.4448 13.6217 -17.5550 29.0407 27.2981 -86.3100 0.0000 0.0000 0.0000
47.0587 -98.5879 -0.0129 0.0000 0.0000 0.0000 -0.2149 -18.9716 0.0359 0.0000 0.0000 0.0000 0.0000 0.0000 0.0000 0.0000 0.0000 0.0000 0.0000 0.0000 0.0000 0.0000 0.0000 0.0000 -78.5745 -16.3037 -19.8625 -81.6558 18.1302 20.9246 0.0000 0.0000 0.0000 0.0000 0.0000 0.0000 80.2703 0.5604 -0.6646 69.3049 34.6631 -48.5969 0.0000 0.0000 0.0000
47.0370 -98.5889 -0.0154 0.0000 0.0000 0.0000 -0.2554 -20.0766 0.0452 0.0000 0.0000 0.0000 0.0000 0.0000 0.0000 0.0000 0.0000 0.0000 0.0000 0.0000 0.0000 0.0000 0.0000 0.0000 -78.8808 -16.2861 -19.7355 -77.8260 22.0083 27.0867 0.0000 0.0000 0.0000 0.0000 0.0000 0.0000 80.3270 -4.1674 4.9370 84.7800 25.0478 -27.3542 0.0000 0.0000 0.0000
46.8734 -98.7185 -0.0178 0.0000 0.0000 0.0000 -0.4494 -21.6149 0.0858 0.0000 0.0000 0.0000 0.0000 0.0000 0.0000 0.0000 0.0000 0.0000 0.0000 0.0000 0.0000 0.0000 0.0000 0.0000 -78.9805 -16.3155 -19.7366 -81.3691 19.0546 22.0938 0.0000 0.0000 0.0000 0.0000 0.0000 0.0000 80.9310 -3.4787 4.0775 85.4536 20.0677 -21.6888 0.0000 0.0000 0.0000
46.7370 -98.6864 -0.0174 0.0000 0.0000 0.0000 -0.5980 -28.9076 0.1541 0.0000 0.0000 0.0000 0.0000 0.0000 0.0000 0.0000 0.0000 0.0000 0.0000 0.0000 0.0000 0.0000 0.0000 0.0000 -77.4189 -18.2433 -22.6580 -85.4342 13.4632 14.5696 0.0000 0.0000 0.0000 0.0000 0.0000 0.0000 80.1380 -9.9662 11.8360 79.8485 22.2484 -26.4454 0.0000 0.0000 0.0000
46.4678 -98.7366 -0.0163 0.0000 0.0000 0.0000 -0.8969 -27.3352 0.2181 0.0000 0.0000 0.0000 0.0000 0.0000 0.0000 0.0000 0.0000 0.0000 0.0000 0.0000 0.0000 0.0000 0.0000 0.0000 -75.8243 -20.0114 -25.5281 -87.9790 7.1411 7.3968 0.0000 0.0000 0.0000 0.0000 0.0000 0.0000 82.1361 -7.6148 8.7348 82.2531 14.7709 -16.8873 0.0000 0.0000 0.0000
46.2352 -98.7356 -0.0153 0.0000 0.0000 0.0000 -1.1233 -27.6311 0.2762 0.0000 0.0000 0.0000 0.0000 0.0000 0.0000 0.0000 0.0000 0.0000 0.0000 0.0000 0.0000 0.0000 0.0000 0.0000 -73.3306 -22.0571 -29.3422 -88.1152 6.1704 6.3764 0.0000 0.0000 0.0000 0.0000 0.0000 0.0000 82.7666 -7.9388 9.0059 81.5807 11.3415 -13.1291 0.0000 0.0000 0.0000
46.1721 -98.8138 -0.0128 0.0000 0.0000 0.0000 -1.1722 -26.5576 0.2767 0.0000 0.0000 0.0000 0.0000 0.0000 0.0000 0.0000 0.0000 0.0000 0.0000 0.0000 0.0000 0.0000 0.0000 0.0000 -74.0023 -21.7088 -28.5512 -88.1551 6.4598 6.6708 0.0000 0.0000 0.0000 0.0000 0.0000 0.0000 80.2078 -13.9964 16.5853 82.4146 6.7747 -7.7339 0.0000 0.0000 0.0000
46.0968 -98.8190 -0.0133 0.0000 0.0000 0.0000 -1.1883 -25.4126 0.2679 0.0000 0.0000 0.0000 0.0000 0.0000 0.0000 0.0000 0.0000 0.0000 0.0000 0.0000 0.0000 0.0000 0.0000 0.0000 -68.9789 -24.6405 -35.2718 -88.5920 -5.0737 -5.1998 0.0000 0.0000 0.0000 0.0000 0.0000 0.0000 81.1361 -12.5088 14.5897 82.3589 6.3410 -7.2463 0.0000 0.0000 0.0000
45.9696 -98.7602 -0.0134 0.0000 0.0000 0.0000 -1.2811 -25.2186 0.2866 0.0000 0.0000 0.0000 0.0000 0.0000 0.0000 0.0000 0.0000 0.0000 0.0000 0.0000 0.0000 0.0000 0.0000 0.0000 -69.6140 -24.4283 -34.5904 -87.5946 -9.2028 -9.5957 0.0000 0.0000 0.0000 0.0000 0.0000 0.0000 81.8900 -11.0006 12.6665 82.3298 6.5709 -7.5126 0.0000 0.0000 0.0000
45.7987 -98.7544 -0.0117 0.0000 0.0000 0.0000 -1.4194 -26.7279 0.3372 0.0000 0.0000 0.0000 0.0000 0.0000 0.0000 0.0000 0.0000 0.0000 0.0000 0.0000 0.0000 0.0000 0.0000 0.0000 -72.2198 -23.1831 -31.4103 -88.4869 -5.8529 -6.0093 0.0000 0.0000 0.0000 0.0000 0.0000 0.0000 82.1442 -10.5772 12.1260 80.7810 10.4427 -12.2613 0.0000 0.0000 0.0000
45.7437 -98.3893 -0.0124 0.0000 0.0000 0.0000 -1.4069 -26.2309 0.3278 0.0000 0.0000 0.0000 0.0000 0.0000 0.0000 0.0000 0.0000 0.0000 0.0000 0.0000 0.0000 0.0000 0.0000 0.0000 -73.1168 -22.5489 -30.0953 -88.9174 -3.2565 -3.3186 0.0000 0.0000 0.0000 0.0000 0.0000 0.0000 81.0596 -12.0922 14.1241 82.2716 7.6088 -8.7072 0.0000 0.0000 0.0000
45.6226 -98.3975 -0.0132 0.0000 0.0000 0.0000 -1.4215 -26.3465 0.3327 0.0000 0.0000 0.0000 0.0000 0.0000 0.0000 0.0000 0.0000 0.0000 0.0000 0.0000 0.0000 0.0000 0.0000 0.0000 -75.3123 -20.8772 -26.8554 -88.9910 0.0254 0.0258 0.0000 0.0000 0.0000 0.0000 0.0000 0.0000 81.8131 -10.4636 12.0657 81.5975 10.5222 -12.1789 0.0000 0.0000 0.0000
