HIERARCHY
ROOT mixamorig:Hips
{
  OFFSET 0.000000 0.000000 0.000000
  CHANNELS 6 Xposition Yposition Zposition Zrotation Xrotation Yrotation
  JOINT mixamorig:Spine
  {
    OFFSET 0.000000 9.878500 1.258800
    CHANNELS 3 Zrotation Xrotation Yrotation
    JOINT mixamorig:Spine1
    {
      OFFSET 0.000000 11.272100 0.038100
      CHANNELS 3 Zrotation Xrotation Yrotation
      JOINT mixamorig:Spine2
      {
        OFFSET 0.000000 10.749001 -0.597600
        CHANNELS 3 Zrotation Xrotation Yrotation
        JOINT mixamorig:Neck
        {
          OFFSET 0.000000 12.015200 -1.691700
          CHANNELS 3 Zrotation Xrotation Yrotation
          JOINT mixamorig:Head
          {
            OFFSET 0.000000 8.810500 2.213900
            CHANNELS 3 Zrotation Xrotation Yrotation
            End Site
            {
              OFFSET 0.000000 18.232300 3.738000
            }
          }
        }
        JOINT mixamorig:LeftShoulder
        {
          OFFSET 6.002800 8.887900 -2.628900
          CHANNELS 3 Zrotation Xrotation Yrotation
          JOINT mixamorig:LeftArm
          {
            OFFSET 12.046300 0.000000 0.000000
            CHANNELS 3 Zrotation Xrotation Yrotation
            JOINT mixamorig:LeftForeArm
            {
              OFFSET 27.876501 0.000000 0.000000
              CHANNELS 3 Zrotation Xrotation Yrotation
              JOINT mixamorig:LeftHand
              {
                OFFSET 25.438500 0.000000 0.000000
                CHANNELS 3 Zrotation Xrotation Yrotation
                End Site
                {
                  OFFSET 10.0 0.0 0.0
                }
              }
            }
          }
        }
        JOINT mixamorig:RightShoulder
        {
          OFFSET -6.002800 8.887900 -2.628900
          CHANNELS 3 Zrotation Xrotation Yrotation
          JOINT mixamorig:RightArm
          {
            OFFSET -12.046300 0.000000 0.000000
            CHANNELS 3 Zrotation Xrotation Yrotation
            JOINT mixamorig:RightForeArm
            {
              OFFSET -27.876501 0.000000 0.000000
              CHANNELS 3 Zrotation Xrotation Yrotation
              JOINT mixamorig:RightHand
              {
                OFFSET -25.438500 0.000000 0.000000
                CHANNELS 3 Zrotation Xrotation Yrotation
                End Site
                {
                  OFFSET -10.0 0.0 0.0
                }
              }
            }
          }
        }
      }
    }
  }
}
MOTION
Frames: 190
Frame Time: 0.033333
49.5096 -105.5926 -0.0212 0.0000 0.0000 0.0000 0.0521 -25.3723 -0.0117 0.0000 0.0000 0.0000 0.0000 0.0000 0.0000 0.0000 0.0000 0.0000 0.0000 0.0000 0.0000 0.0000 0.0000 0.0000 -83.0414 -2.4474 -2.7642 -69.9404 26.8035 37.6234 0.0000 0.0000 0.0000 0.0000 0.0000 0.0000 84.7357 -5.1597 5.6562 78.4968 28.9045 -35.0171 0.0000 0.0000 0.0000
49.5380 -106.4231 -0.0217 0.0000 0.0000 0.0000 0.0736 -23.8363 -0.0155 0.0000 0.0000 0.0000 0.0000 0.0000 0.0000 0.0000 0.0000 0.0000 0.0000 0.0000 0.0000 0.0000 0.0000 0.0000 -82.1568 -7.1417 -8.1896 -76.7182 23.2043 29.0858 0.0000 0.0000 0.0000 0.0000 0.0000 0.0000 84.3925 -6.4133 7.0723 80.5558 25.0476 -29.3772 0.0000 0.0000 0.0000
49.6091 -106.5227 -0.0240 0.0000 0.0000 0.0000 0.1530 -23.5986 -0.0320 0.0000 0.0000 0.0000 0.0000 0.0000 0.0000 0.0000 0.0000 0.0000 0.0000 0.0000 0.0000 0.0000 0.0000 0.0000 -81.7934 -8.7692 -10.1181 -80.0122 20.3844 24.1819 0.0000 0.0000 0.0000 0.0000 0.0000 0.0000 84.9045 -3.5192 3.8467 85.5282 20.6453 -22.2825 0.0000 0.0000 0.0000
49.6059 -106.5279 -0.0278 0.0000 0.0000 0.0000 0.1628 -24.3783 -0.0352 0.0000 0.0000 0.0000 0.0000 0.0000 0.0000 0.0000 0.0000 0.0000 0.0000 0.0000 0.0000 0.0000 0.0000 0.0000 -82.4222 -7.3201 -8.3549 -77.6669 22.3074 27.5253 0.0000 0.0000 0.0000 0.0000 0.0000 0.0000 84.4996 -5.4948 6.0484 85.3619 20.2298 -21.8977 0.0000 0.0000 0.0000
49.6358 -106.8197 -0.0270 0.0000 0.0000 0.0000 0.2288 -24.3799 -0.0494 0.0000 0.0000 0.0000 0.0000 0.0000 0.0000 0.0000 0.0000 0.0000 0.0000 0.0000 0.0000 0.0000 0.0000 0.0000 -81.1585 -10.8553 -12.6607 -80.2622 19.9386 23.5559 0.0000 0.0000 0.0000 0.0000 0.0000 0.0000 84.7863 -4.7019 5.1498 83.7065 22.4260 -24.9576 0.0000 0.0000 0.0000
49.6106 -106.8331 -0.0284 0.0000 0.0000 0.0000 0.2138 -25.5079 -0.0484 0.0000 0.0000 0.0000 0.0000 0.0000 0.0000 0.0000 0.0000 0.0000 0.0000 0.0000 0.0000 0.0000 0.0000 0.0000 -83.1007 -5.0438 -5.6899 -71.3206 25.9736 35.6368 0.0000 0.0000 0.0000 0.0000 0.0000 0.0000 84.6925 -5.1282 5.6260 83.1981 22.2392 -24.9660 0.0000 0.0000 0.0000
49.6137 -106.9270 -0.0293 0.0000 0.0000 0.0000 0.2551 -24.7475 -0.0560 0.0000 0.0000 0.0000 0.0000 0.0000 0.0000 0.0000 0.0000 0.0000 0.0000 0.0000 0.0000 0.0000 0.0000 0.0000 -80.2795 -12.8021 -15.1561 -82.5149 17.3482 19.7318 0.0000 0.0000 0.0000 0.0000 0.0000 0.0000 84.5252 -6.2014 6.8227 83.3264 21.4247 -24.0048 0.0000 0.0000 0.0000
49.6138 -106.9429 -0.0310 0.0000 0.0000 0.0000 0.2715 -24.7358 -0.0595 0.0000 0.0000 0.0000 0.0000 0.0000 0.0000 0.0000 0.0000 0.0000 0.0000 0.0000 0.0000 0.0000 0.0000 0.0000 -80.5154 -12.4432 -14.6718 -81.2076 19.0019 22.0944 0.0000 0.0000 0.0000 0.0000 0.0000 0.0000 84.2900 -7.2084 7.9628 84.4761 20.2690 -22.2747 0.0000 0.0000 0.0000
49.6077 -106.9871 -0.0294 0.0000 0.0000 0.0000 0.2944 -24.9430 -0.0651 0.0000 0.0000 0.0000 0.0000 0.0000 0.0000 0.0000 0.0000 0.0000 0.0000 0.0000 0.0000 0.0000 0.0000 0.0000 -81.3398 -10.9590 -12.7408 -77.2477 22.6025 28.0860 0.0000 0.0000 0.0000 0.0000 0.0000 0.0000 84.0961 -8.1585 9.0422 85.7493 18.7692 -20.1873 0.0000 0.0000 0.0000
49.5514 -107.0047 -0.0294 0.0000 0.0000 0.0000 0.2487 -25.2329 -0.0557 0.0000 0.0000 0.0000 0.0000 0.0000 0.0000 0.0000 0.0000 0.0000 0.0000 0.0000 0.0000 0.0000 0.0000 0.0000 -81.1133 -11.5484 -13.4778 -78.4259 21.9286 26.7130 0.0000 0.0000 0.0000 0.0000 0.0000 0.0000 83.2185 -10.4600 11.7688 86.3878 18.0616 -19.2165 0.0000 0.0000 0.0000
49.5234 -107.0031 -0.0285 0.0000 0.0000 0.0000 0.2619 -23.7513 -0.0551 0.0000 0.0000 0.0000 0.0000 0.0000 0.0000 0.0000 0.0000 0.0000 0.0000 0.0000 0.0000 0.0000 0.0000 0.0000 -78.8498 -15.3424 -18.6087 -86.9388 10.1116 10.6637 0.0000 0.0000 0.0000 0.0000 0.0000 0.0000 83.2791 -10.4320 11.7249 85.8791 17.6919 -18.9892 0.0000 0.0000 0.0000
49.5142 -107.2760 -0.0275 0.0000 0.0000 0.0000 0.2850 -23.4055 -0.0590 0.0000 0.0000 0.0000 0.0000 0.0000 0.0000 0.0000 0.0000 0.0000 0.0000 0.0000 0.0000 0.0000 0.0000 0.0000 -79.9997 -13.6831 -16.2747 -83.2659 16.9335 19.0140 0.0000 0.0000 0.0000 0.0000 0.0000 0.0000 83.3466 -10.1546 11.4002 84.8163 19.2072 -20.9898 0.0000 0.0000 0.0000
49.4707 -107.4867 -0.0273 0.0000 0.0000 0.0000 0.2674 -24.3991 -0.0578 0.0000 0.0000 0.0000 0.0000 0.0000 0.0000 0.0000 0.0000 0.0000 0.0000 0.0000 0.0000 0.0000 0.0000 0.0000 -80.9940 -11.9996 -14.0323 -79.6981 21.0629 25.1146 0.0000 0.0000 0.0000 0.0000 0.0000 0.0000 84.2704 -7.5252 8.3154 84.5325 20.8332 -22.8698 0.0000 0.0000 0.0000
49.4313 -107.4652 -0.0259 0.0000 0.0000 0.0000 0.2434 -24.2047 -0.0522 0.0000 0.0000 0.0000 0.0000 0.0000 0.0000 0.0000 0.0000 0.0000 0.0000 0.0000 0.0000 0.0000 0.0000 0.0000 -81.2536 -11.5850 -13.4872 -80.4926 20.0974 23.6481 0.0000 0.0000 0.0000 0.0000 0.0000 0.0000 82.4382 -11.3970 12.9970 85.4496 19.3298 -20.8954 0.0000 0.0000 0.0000
49.4162 -107.1396 -0.0259 0.0000 0.0000 0.0000 0.2371 -24.1750 -0.0508 0.0000 0.0000 0.0000 0.0000 0.0000 0.0000 0.0000 0.0000 0.0000 0.0000 0.0000 0.0000 0.0000 0.0000 0.0000 -81.5671 -11.1107 -12.8655 -80.0132 20.4013 24.2014 0.0000 0.0000 0.0000 0.0000 0.0000 0.0000 82.5167 -10.3258 11.7613 84.1821 20.5414 -22.6864 0.0000 0.0000 0.0000
49.4640 -107.1508 -0.0253 0.0000 0.0000 0.0000 0.3120 -23.8263 -0.0658 0.0000 0.0000 0.0000 0.0000 0.0000 0.0000 0.0000 0.0000 0.0000 0.0000 0.0000 0.0000 0.0000 0.0000 0.0000 -79.9666 -14.0309 -16.6962 -86.0699 11.9182 12.7584 0.0000 0.0000 0.0000 0.0000 0.0000 0.0000 82.9889 -9.4145 10.6366 84.8048 20.0249 -21.8842 0.0000 0.0000 0.0000
49.4453 -106.7266 -0.0270 0.0000 0.0000 0.0000 0.3204 -23.2790 -0.0660 0.0000 0.0000 0.0000 0.0000 0.0000 0.0000 0.0000 0.0000 0.0000 0.0000 0.0000 0.0000 0.0000 0.0000 0.0000 -81.7743 -11.0148 -12.7086 -82.8774 16.6154 18.7837 0.0000 0.0000 0.0000 0.0000 0.0000 0.0000 81.3241 -12.2736 14.2692 88.4181 16.1943 -16.6415 0.0000 0.0000 0.0000
49.4187 -106.5720 -0.0270 0.0000 0.0000 0.0000 0.3032 -21.4426 -0.0574 0.0000 0.0000 0.0000 0.0000 0.0000 0.0000 0.0000 0.0000 0.0000 0.0000 0.0000 0.0000 0.0000 0.0000 0.0000 -82.8505 -8.3213 -9.4256 -81.8017 17.9331 20.6462 0.0000 0.0000 0.0000 0.0000 0.0000 0.0000 81.4021 -11.1758 12.9782 89.8869 18.5862 -18.6222 0.0000 0.0000 0.0000
49.3241 -106.2792 -0.0277 0.0000 0.0000 0.0000 0.2228 -19.4962 -0.0383 0.0000 0.0000 0.0000 0.0000 0.0000 0.0000 0.0000 0.0000 0.0000 0.0000 0.0000 0.0000 0.0000 0.0000 0.0000 -83.0915 -7.3643 -8.3073 -76.7973 22.3776 28.0268 0.0000 0.0000 0.0000 0.0000 0.0000 0.0000 75.8759 17.4376 -22.2591 24.6549 22.4487 -84.4833 0.0000 0.0000 0.0000
49.3476 -106.1090 -0.0225 0.0000 0.0000 0.0000 0.2715 -18.3864 -0.0439 0.0000 0.0000 0.0000 0.0000 0.0000 0.0000 0.0000 0.0000 0.0000 0.0000 0.0000 0.0000 0.0000 0.0000 0.0000 -83.2609 -6.4091 -7.2090 -74.3372 23.7415 30.9914 0.0000 0.0000 0.0000 0.0000 0.0000 0.0000 67.7706 23.1454 -33.9134 17.3793 17.3739 -89.9819 0.0000 0.0000 0.0000
49.2979 -106.0803 -0.0227 0.0000 0.0000 0.0000 0.3016 -19.0345 -0.0506 0.0000 0.0000 0.0000 0.0000 0.0000 0.0000 0.0000 0.0000 0.0000 0.0000 0.0000 0.0000 0.0000 0.0000 0.0000 -81.7264 -10.3778 -11.9851 -81.3872 16.2797 18.8867 0.0000 0.0000 0.0000 0.0000 0.0000 0.0000 70.5417 21.5125 -30.0688 10.6125 11.5991 -95.1187 0.0000 0.0000 0.0000
49.2898 -105.6885 -0.0167 0.0000 0.0000 0.0000 0.3064 -20.1193 -0.0544 0.0000 0.0000 0.0000 0.0000 0.0000 0.0000 0.0000 0.0000 0.0000 0.0000 0.0000 0.0000 0.0000 0.0000 0.0000 -80.9951 -11.7569 -13.7489 -84.8542 10.6061 11.5976 0.0000 0.0000 0.0000 0.0000 0.0000 0.0000 71.9392 20.3301 -27.7551 2.0818 2.4173 -98.5327 0.0000 0.0000 0.0000
49.3036 -105.6082 -0.0137 0.0000 0.0000 0.0000 0.3266 -18.7820 -0.0540 0.0000 0.0000 0.0000 0.0000 0.0000 0.0000 0.0000 0.0000 0.0000 0.0000 0.0000 0.0000 0.0000 0.0000 0.0000 -75.4122 -18.8996 -24.3011 -86.7724 -5.0760 -5.3698 0.0000 0.0000 0.0000 0.0000 0.0000 0.0000 71.3901 20.4563 -28.1963 -6.0274 -7.0194 -98.7148 0.0000 0.0000 0.0000
49.3059 -105.5323 -0.0145 0.0000 0.0000 0.0000 0.3388 -12.8019 -0.0380 0.0000 0.0000 0.0000 0.0000 0.0000 0.0000 0.0000 0.0000 0.0000 0.0000 0.0000 0.0000 0.0000 0.0000 0.0000 -74.3111 -19.8145 -25.9572 -85.7408 -9.6064 -10.3446 0.0000 0.0000 0.0000 0.0000 0.0000 0.0000 64.8238 24.0517 -37.0958 -12.2095 -13.5460 -95.9915 0.0000 0.0000 0.0000
49.3110 -105.4056 -0.0143 0.0000 0.0000 0.0000 0.3593 -12.8453 -0.0405 0.0000 0.0000 0.0000 0.0000 0.0000 0.0000 0.0000 0.0000 0.0000 0.0000 0.0000 0.0000 0.0000 0.0000 0.0000 -75.8290 -18.3895 -23.4805 -86.5612 -7.6800 -8.1538 0.0000 0.0000 0.0000 0.0000 0.0000 0.0000 61.0735 25.2431 -41.5721 -16.6171 -17.7868 -93.9535 0.0000 0.0000 0.0000
49.3026 -105.4271 -0.0148 0.0000 0.0000 0.0000 0.3714 -11.7849 -0.0383 0.0000 0.0000 0.0000 0.0000 0.0000 0.0000 0.0000 0.0000 0.0000 0.0000 0.0000 0.0000 0.0000 0.0000 0.0000 -75.6165 -18.4431 -23.6361 -86.8605 -7.2611 -7.6691 0.0000 0.0000 0.0000 0.0000 0.0000 0.0000 58.4272 25.8244 -44.5847 -18.2045 -19.1972 -93.0952 0.0000 0.0000 0.0000
49.2883 -105.4346 -0.0152 0.0000 0.0000 0.0000 0.4051 -13.2338 -0.0470 0.0000 0.0000 0.0000 0.0000 0.0000 0.0000 0.0000 0.0000 0.0000 0.0000 0.0000 0.0000 0.0000 0.0000 0.0000 -75.2527 -18.6250 -24.0191 -86.5248 -8.7614 -9.3073 0.0000 0.0000 0.0000 0.0000 0.0000 0.0000 56.9666 26.0350 -46.1573 -20.1280 -21.1018 -92.7653 0.0000 0.0000 0.0000
49.2359 -105.8255 -0.0154 0.0000 0.0000 0.0000 0.3614 -13.1810 -0.0418 0.0000 0.0000 0.0000 0.0000 0.0000 0.0000 0.0000 0.0000 0.0000 0.0000 0.0000 0.0000 0.0000 0.0000 0.0000 -74.0499 -19.6646 -25.8819 -86.9606 -7.9164 -8.3464 0.0000 0.0000 0.0000 0.0000 0.0000 0.0000 58.9732 25.6052 -43.7872 -19.4211 -20.5385 -93.2694 0.0000 0.0000 0.0000
49.2459 -105.9771 -0.0161 0.0000 0.0000 0.0000 0.3765 -13.3087 -0.0439 0.0000 0.0000 0.0000 0.0000 0.0000 0.0000 0.0000 0.0000 0.0000 0.0000 0.0000 0.0000 0.0000 0.0000 0.0000 -74.2848 -19.4310 -25.4736 -86.7781 -8.5946 -9.0899 0.0000 0.0000 0.0000 0.0000 0.0000 0.0000 58.8013 25.6129 -43.9388 -18.3716 -19.6214 -93.8382 0.0000 0.0000 0.0000
49.2377 -105.9802 -0.0164 0.0000 0.0000 0.0000 0.3870 -13.6914 -0.0465 0.0000 0.0000 0.0000 0.0000 0.0000 0.0000 0.0000 0.0000 0.0000 0.0000 0.0000 0.0000 0.0000 0.0000 0.0000 -74.3599 -19.2993 -25.2700 -87.8817 -2.3636 -2.4526 0.0000 0.0000 0.0000 0.0000 0.0000 0.0000 58.6363 25.6480 -44.1293 -19.9875 -21.2366 -93.5471 0.0000 0.0000 0.0000
49.2301 -106.0440 -0.0172 0.0000 0.0000 0.0000 0.3893 -13.6938 -0.0467 0.0000 0.0000 0.0000 0.0000 0.0000 0.0000 0.0000 0.0000 0.0000 0.0000 0.0000 0.0000 0.0000 0.0000 0.0000 -73.7304 -19.7938 -26.1959 -86.6173 -8.9653 -9.5085 0.0000 0.0000 0.0000 0.0000 0.0000 0.0000 55.5868 26.1927 -47.6299 -18.0002 -19.3079 -94.0866 0.0000 0.0000 0.0000
49.2291 -106.1593 -0.0179 0.0000 0.0000 0.0000 0.4041 -13.7763 -0.0488 0.0000 0.0000 0.0000 0.0000 0.0000 0.0000 0.0000 0.0000 0.0000 0.0000 0.0000 0.0000 0.0000 0.0000 0.0000 -73.0967 -20.2452 -27.0835 -85.5528 -11.6784 -12.6146 0.0000 0.0000 0.0000 0.0000 0.0000 0.0000 56.3847 26.0924 -46.7567 -18.8877 -20.1797 -93.8626 0.0000 0.0000 0.0000
49.2286 -106.1738 -0.0178 0.0000 0.0000 0.0000 0.4180 -13.3949 -0.0491 0.0000 0.0000 0.0000 0.0000 0.0000 0.0000 0.0000 0.0000 0.0000 0.0000 0.0000 0.0000 0.0000 0.0000 0.0000 -73.5039 -19.8938 -26.4311 -85.4345 -11.9205 -12.9023 0.0000 0.0000 0.0000 0.0000 0.0000 0.0000 56.4429 26.1012 -46.7204 -20.1219 -21.3563 -93.4846 0.0000 0.0000 0.0000
49.2275 -106.1678 -0.0177 0.0000 0.0000 0.0000 0.4223 -14.5289 -0.0538 0.0000 0.0000 0.0000 0.0000 0.0000 0.0000 0.0000 0.0000 0.0000 0.0000 0.0000 0.0000 0.0000 0.0000 0.0000 -73.7776 -19.6584 -25.9978 -86.5458 -9.2970 -9.8723 0.0000 0.0000 0.0000 0.0000 0.0000 0.0000 56.5880 26.0968 -46.5866 -18.8802 -20.1094 -93.6819 0.0000 0.0000 0.0000
49.2196 -106.1571 -0.0171 0.0000 0.0000 0.0000 0.4225 -15.2603 -0.0566 0.0000 0.0000 0.0000 0.0000 0.0000 0.0000 0.0000 0.0000 0.0000 0.0000 0.0000 0.0000 0.0000 0.0000 0.0000 -73.3972 -19.9894 -26.6060 -87.1254 -7.5248 -7.9109 0.0000 0.0000 0.0000 0.0000 0.0000 0.0000 58.2738 25.8095 -44.6873 -19.4213 -20.6673 -93.6342 0.0000 0.0000 0.0000
49.2169 -106.1635 -0.0166 0.0000 0.0000 0.0000 0.4333 -16.8013 -0.0640 0.0000 0.0000 0.0000 0.0000 0.0000 0.0000 0.0000 0.0000 0.0000 0.0000 0.0000 0.0000 0.0000 0.0000 0.0000 -73.4710 -19.9304 -26.4943 -86.3334 -10.0612 -10.7228 0.0000 0.0000 0.0000 0.0000 0.0000 0.0000 59.3690 25.5974 -43.4569 -20.2117 -21.4308 -93.4284 0.0000 0.0000 0.0000
49.1914 -106.2281 -0.0160 0.0000 0.0000 0.0000 0.4153 -17.3913 -0.0635 0.0000 0.0000 0.0000 0.0000 0.0000 0.0000 0.0000 0.0000 0.0000 0.0000 0.0000 0.0000 0.0000 0.0000 0.0000 -73.2245 -20.1553 -26.9047 -86.2327 -10.3706 -11.0717 0.0000 0.0000 0.0000 0.0000 0.0000 0.0000 59.3326 25.6247 -43.5295 -20.1199 -21.3756 -93.5436 0.0000 0.0000 0.0000
49.1925 -106.2914 -0.0166 0.0000 0.0000 0.0000 0.4299 -14.6078 -0.0551 0.0000 0.0000 0.0000 0.0000 0.0000 0.0000 0.0000 0.0000 0.0000 0.0000 0.0000 0.0000 0.0000 0.0000 0.0000 -74.7779 -18.7488 -24.3789 -87.2856 -7.4338 -7.7935 0.0000 0.0000 0.0000 0.0000 0.0000 0.0000 62.8726 24.6140 -39.2829 -22.5275 -23.6961 -92.9764 0.0000 0.0000 0.0000
49.1908 -106.2805 -0.0167 0.0000 0.0000 0.0000 0.4423 -14.3954 -0.0559 0.0000 0.0000 0.0000 0.0000 0.0000 0.0000 0.0000 0.0000 0.0000 0.0000 0.0000 0.0000 0.0000 0.0000 0.0000 -74.5073 -18.9685 -24.7784 -86.7188 -9.1955 -9.7352 0.0000 0.0000 0.0000 0.0000 0.0000 0.0000 60.9780 25.2249 -41.6164 -20.2410 -21.5158 -93.5758 0.0000 0.0000 0.0000
49.1849 -106.2536 -0.0153 0.0000 0.0000 0.0000 0.4474 -17.1460 -0.0674 0.0000 0.0000 0.0000 0.0000 0.0000 0.0000 0.0000 0.0000 0.0000 0.0000 0.0000 0.0000 0.0000 0.0000 0.0000 -73.2409 -20.0379 -26.7429 -86.8073 -8.9431 -9.4536 0.0000 0.0000 0.0000 0.0000 0.0000 0.0000 58.0769 25.9418 -45.0647 -18.3134 -19.5900 -93.9289 0.0000 0.0000 0.0000
49.1714 -106.2591 -0.0155 0.0000 0.0000 0.0000 0.4363 -13.1400 -0.0502 0.0000 0.0000 0.0000 0.0000 0.0000 0.0000 0.0000 0.0000 0.0000 0.0000 0.0000 0.0000 0.0000 0.0000 0.0000 -74.7678 -18.7032 -24.3246 -86.4996 -9.7754 -10.3884 0.0000 0.0000 0.0000 0.0000 0.0000 0.0000 62.5932 24.7630 -39.7098 -22.4273 -23.5904 -92.9750 0.0000 0.0000 0.0000
49.1667 -106.2848 -0.0152 0.0000 0.0000 0.0000 0.4334 -15.6846 -0.0597 0.0000 0.0000 0.0000 0.0000 0.0000 0.0000 0.0000 0.0000 0.0000 0.0000 0.0000 0.0000 0.0000 0.0000 0.0000 -73.7777 -19.5745 -25.8884 -86.7832 -9.1137 -9.6379 0.0000 0.0000 0.0000 0.0000 0.0000 0.0000 59.4769 25.6606 -43.4710 -19.8938 -21.1557 -93.5979 0.0000 0.0000 0.0000
49.1541 -106.2871 -0.0154 0.0000 0.0000 0.0000 0.4228 -15.5029 -0.0575 0.0000 0.0000 0.0000 0.0000 0.0000 0.0000 0.0000 0.0000 0.0000 0.0000 0.0000 0.0000 0.0000 0.0000 0.0000 -74.0713 -19.3152 -25.4189 -87.2758 -7.4940 -7.8579 0.0000 0.0000 0.0000 0.0000 0.0000 0.0000 60.2514 25.4782 -42.5718 -21.6680 -22.8611 -93.1481 0.0000 0.0000 0.0000
49.1381 -106.4767 -0.0152 0.0000 0.0000 0.0000 0.4228 -15.0487 -0.0559 0.0000 0.0000 0.0000 0.0000 0.0000 0.0000 0.0000 0.0000 0.0000 0.0000 0.0000 0.0000 0.0000 0.0000 0.0000 -75.0007 -18.4363 -23.8838 -88.1846 -2.0473 -2.1132 0.0000 0.0000 0.0000 0.0000 0.0000 0.0000 60.6610 25.3888 -42.1144 -21.1791 -22.3884 -93.2575 0.0000 0.0000 0.0000
49.1447 -106.5651 -0.0161 0.0000 0.0000 0.0000 0.4356 -12.7472 -0.0487 0.0000 0.0000 0.0000 0.0000 0.0000 0.0000 0.0000 0.0000 0.0000 0.0000 0.0000 0.0000 0.0000 0.0000 0.0000 -75.6094 -17.8337 -22.8662 -87.7491 -4.7322 -4.9216 0.0000 0.0000 0.0000 0.0000 0.0000 0.0000 61.6539 25.1274 -40.9566 -22.2770 -23.4171 -92.9358 0.0000 0.0000 0.0000
49.1713 -106.5683 -0.0166 0.0000 0.0000 0.0000 0.4640 -12.9981 -0.0529 0.0000 0.0000 0.0000 0.0000 0.0000 0.0000 0.0000 0.0000 0.0000 0.0000 0.0000 0.0000 0.0000 0.0000 0.0000 -75.4763 -17.9071 -23.0129 -87.4935 -6.2368 -6.5152 0.0000 0.0000 0.0000 0.0000 0.0000 0.0000 61.4360 25.1923 -41.2198 -20.5376 -21.8440 -93.6130 0.0000 0.0000 0.0000
49.1837 -106.5103 -0.0174 0.0000 0.0000 0.0000 0.4772 -13.1489 -0.0550 0.0000 0.0000 0.0000 0.0000 0.0000 0.0000 0.0000 0.0000 0.0000 0.0000 0.0000 0.0000 0.0000 0.0000 0.0000 -76.1526 -17.0418 -21.6530 -87.9276 -4.2748 -4.4322 0.0000 0.0000 0.0000 0.0000 0.0000 0.0000 59.1184 25.7969 -43.9763 -18.7129 -20.1129 -94.2103 0.0000 0.0000 0.0000
49.1725 -106.2092 -0.0176 0.0000 0.0000 0.0000 0.4553 -13.0223 -0.0520 0.0000 0.0000 0.0000 0.0000 0.0000 0.0000 0.0000 0.0000 0.0000 0.0000 0.0000 0.0000 0.0000 0.0000 0.0000 -75.8750 -17.0915 -21.8217 -87.7843 -4.3860 -4.5588 0.0000 0.0000 0.0000 0.0000 0.0000 0.0000 61.4254 25.1889 -41.2227 -18.9762 -20.5876 -94.7584 0.0000 0.0000 0.0000
49.1752 -106.0757 -0.0176 0.0000 0.0000 0.0000 0.4479 -15.4529 -0.0608 0.0000 0.0000 0.0000 0.0000 0.0000 0.0000 0.0000 0.0000 0.0000 0.0000 0.0000 0.0000 0.0000 0.0000 0.0000 -73.9349 -18.7853 -24.7903 -87.9022 -4.0586 -4.2098 0.0000 0.0000 0.0000 0.0000 0.0000 0.0000 64.5513 24.0756 -37.3134 -16.4282 -18.4000 -96.5811 0.0000 0.0000 0.0000
49.1675 -105.5619 -0.0178 0.0000 0.0000 0.0000 0.4295 -18.0959 -0.0684 0.0000 0.0000 0.0000 0.0000 0.0000 0.0000 0.0000 0.0000 0.0000 0.0000 0.0000 0.0000 0.0000 0.0000 0.0000 -70.8546 -20.6635 -28.7475 -88.1801 -3.8010 -3.9236 0.0000 0.0000 0.0000 0.0000 0.0000 0.0000 67.7721 22.4951 -32.9883 -13.1954 -15.2421 -98.3172 0.0000 0.0000 0.0000
49.2097 -105.1674 -0.0126 0.0000 0.0000 0.0000 0.4717 -17.8044 -0.0739 0.0000 0.0000 0.0000 0.0000 0.0000 0.0000 0.0000 0.0000 0.0000 0.0000 0.0000 0.0000 0.0000 0.0000 0.0000 -75.2625 -15.8300 -20.4444 -75.5484 23.7244 30.3301 0.0000 0.0000 0.0000 0.0000 0.0000 0.0000 70.7173 20.5592 -28.6749 -10.1068 -12.0976 -100.3103 0.0000 0.0000 0.0000
49.1959 -104.6046 -0.0124 0.0000 0.0000 0.0000 0.4576 -18.6642 -0.0752 0.0000 0.0000 0.0000 0.0000 0.0000 0.0000 0.0000 0.0000 0.0000 0.0000 0.0000 0.0000 0.0000 0.0000 0.0000 -76.2914 -13.4826 -17.1179 -73.7072 26.3195 34.6482 0.0000 0.0000 0.0000 0.0000 0.0000 0.0000 75.8094 15.6985 -20.0811 -8.3942 -10.6675 -103.6638 0.0000 0.0000 0.0000
49.2000 -103.6727 -0.0130 0.0000 0.0000 0.0000 0.4669 -15.6661 -0.0642 0.0000 0.0000 0.0000 0.0000 0.0000 0.0000 0.0000 0.0000 0.0000 0.0000 0.0000 0.0000 0.0000 0.0000 0.0000 -79.3425 -5.6231 -6.7775 -34.0161 26.4233 75.0114 0.0000 0.0000 0.0000 0.0000 0.0000 0.0000 76.7056 14.2226 -17.9202 -4.3089 -5.4023 -102.8635 0.0000 0.0000 0.0000
49.0514 -103.6825 -0.0124 0.0000 0.0000 0.0000 0.2937 -15.4737 -0.0399 0.0000 0.0000 0.0000 0.0000 0.0000 0.0000 0.0000 0.0000 0.0000 0.0000 0.0000 0.0000 0.0000 0.0000 0.0000 -78.6196 -7.0550 -8.6111 -26.1004 23.3524 83.4381 0.0000 0.0000 0.0000 0.0000 0.0000 0.0000 77.2744 12.5081 -15.6129 -1.6442 -2.1273 -104.6003 0.0000 0.0000 0.0000
48.8684 -103.0876 -0.0108 0.0000 0.0000 0.0000 0.1005 -14.9170 -0.0132 0.0000 0.0000 0.0000 0.0000 0.0000 0.0000 0.0000 0.0000 0.0000 0.0000 0.0000 0.0000 0.0000 0.0000 0.0000 -78.4850 -6.8979 -8.4398 -4.9341 5.9863 101.0240 0.0000 0.0000 0.0000 0.0000 0.0000 0.0000 80.4263 -1.5041 1.7789 1.4516 2.1233 -111.2853 0.0000 0.0000 0.0000
48.7294 -103.1137 -0.0111 0.0000 0.0000 0.0000 -0.0577 -10.2539 0.0052 0.0000 0.0000 0.0000 0.0000 0.0000 0.0000 0.0000 0.0000 0.0000 0.0000 0.0000 0.0000 0.0000 0.0000 0.0000 -78.8162 -1.0276 -1.2506 13.0637 -14.8922 97.5587 0.0000 0.0000 0.0000 0.0000 0.0000 0.0000 79.7567 -4.1116 4.9203 3.8379 5.3511 -108.7219 0.0000 0.0000 0.0000
48.6427 -103.1397 -0.0149 0.0000 0.0000 0.0000 -0.1131 -11.0679 0.0110 0.0000 0.0000 0.0000 0.0000 0.0000 0.0000 0.0000 0.0000 0.0000 0.0000 0.0000 0.0000 0.0000 0.0000 0.0000 -75.0227 10.4178 13.5453 20.8410 -21.7704 92.5574 0.0000 0.0000 0.0000 0.0000 0.0000 0.0000 79.7382 1.3619 -1.6306 4.1480 5.4679 -105.6496 0.0000 0.0000 0.0000
48.6340 -103.1875 -0.0164 0.0000 0.0000 0.0000 -0.0901 -11.3142 0.0089 0.0000 0.0000 0.0000 0.0000 0.0000 0.0000 0.0000 0.0000 0.0000 0.0000 0.0000 0.0000 0.0000 0.0000 0.0000 -67.9211 18.4225 27.0758 22.2981 -22.6783 90.9940 0.0000 0.0000 0.0000 0.0000 0.0000 0.0000 79.3258 4.0893 -4.9311 3.6990 4.7908 -104.6690 0.0000 0.0000 0.0000
48.6405 -103.1499 -0.0175 0.0000 0.0000 0.0000 -0.0442 -10.6097 0.0041 0.0000 0.0000 0.0000 0.0000 0.0000 0.0000 0.0000 0.0000 0.0000 0.0000 0.0000 0.0000 0.0000 0.0000 0.0000 -62.9176 21.3591 34.2624 26.0116 -25.3841 88.5530 0.0000 0.0000 0.0000 0.0000 0.0000 0.0000 77.1207 10.3161 -12.9211 3.0915 3.9940 -104.5260 0.0000 0.0000 0.0000
48.8239 -103.1135 -0.0203 0.0000 0.0000 0.0000 0.1658 -9.0997 -0.0132 0.0000 0.0000 0.0000 0.0000 0.0000 0.0000 0.0000 0.0000 0.0000 0.0000 0.0000 0.0000 0.0000 0.0000 0.0000 -67.2639 18.6502 27.7326 34.0266 -30.7732 83.9348 0.0000 0.0000 0.0000 0.0000 0.0000 0.0000 76.3712 11.4193 -14.4894 2.9726 3.9216 -105.6845 0.0000 0.0000 0.0000
48.8413 -103.0009 -0.0203 0.0000 0.0000 0.0000 0.2126 -9.4826 -0.0176 0.0000 0.0000 0.0000 0.0000 0.0000 0.0000 0.0000 0.0000 0.0000 0.0000 0.0000 0.0000 0.0000 0.0000 0.0000 -69.2369 16.8431 24.2092 37.8088 -32.8574 81.4569 0.0000 0.0000 0.0000 0.0000 0.0000 0.0000 76.7812 10.3945 -13.0978 3.0895 4.1227 -106.3147 0.0000 0.0000 0.0000
48.8472 -102.9411 -0.0203 0.0000 0.0000 0.0000 0.2713 -9.8668 -0.0234 0.0000 0.0000 0.0000 0.0000 0.0000 0.0000 0.0000 0.0000 0.0000 0.0000 0.0000 0.0000 0.0000 0.0000 0.0000 -66.8567 18.7168 28.0367 35.6709 -31.8340 83.1038 0.0000 0.0000 0.0000 0.0000 0.0000 0.0000 76.4995 10.9113 -13.8157 3.1515 4.1802 -105.9847 0.0000 0.0000 0.0000
48.8435 -102.9499 -0.0199 0.0000 0.0000 0.0000 0.2500 -9.9206 -0.0217 0.0000 0.0000 0.0000 0.0000 0.0000 0.0000 0.0000 0.0000 0.0000 0.0000 0.0000 0.0000 0.0000 0.0000 0.0000 -67.9587 17.8243 26.1954 38.0030 -33.2648 81.8830 0.0000 0.0000 0.0000 0.0000 0.0000 0.0000 76.7376 10.3994 -13.1140 3.4195 4.5674 -106.3706 0.0000 0.0000 0.0000
48.8193 -102.8041 -0.0208 0.0000 0.0000 0.0000 0.2334 -10.4444 -0.0213 0.0000 0.0000 0.0000 0.0000 0.0000 0.0000 0.0000 0.0000 0.0000 0.0000 0.0000 0.0000 0.0000 0.0000 0.0000 -65.7984 19.4474 29.6726 35.0196 -31.9616 84.4632 0.0000 0.0000 0.0000 0.0000 0.0000 0.0000 76.7735 10.4848 -13.2130 3.7887 5.0951 -106.7468 0.0000 0.0000 0.0000
48.7903 -102.6570 -0.0207 0.0000 0.0000 0.0000 0.2054 -10.3301 -0.0186 0.0000 0.0000 0.0000 0.0000 0.0000 0.0000 0.0000 0.0000 0.0000 0.0000 0.0000 0.0000 0.0000 0.0000 0.0000 -67.1978 18.4747 27.5102 33.1362 -31.2704 86.5001 0.0000 0.0000 0.0000 0.0000 0.0000 0.0000 78.6291 5.9654 -7.2813 4.7529 6.4809 -107.5159 0.0000 0.0000 0.0000
48.7205 -102.4890 -0.0205 0.0000 0.0000 0.0000 0.1592 -10.0268 -0.0140 0.0000 0.0000 0.0000 0.0000 0.0000 0.0000 0.0000 0.0000 0.0000 0.0000 0.0000 0.0000 0.0000 0.0000 0.0000 -66.9825 18.6789 27.9171 31.1819 -30.2826 88.2403 0.0000 0.0000 0.0000 0.0000 0.0000 0.0000 79.2231 4.9003 -5.9194 5.2627 7.1414 -107.2578 0.0000 0.0000 0.0000
48.6803 -102.4760 -0.0209 0.0000 0.0000 0.0000 0.1155 -10.1147 -0.0102 0.0000 0.0000 0.0000 0.0000 0.0000 0.0000 0.0000 0.0000 0.0000 0.0000 0.0000 0.0000 0.0000 0.0000 0.0000 -66.4452 19.2629 29.0527 30.5069 -30.1486 89.2905 0.0000 0.0000 0.0000 0.0000 0.0000 0.0000 79.4707 4.9275 -5.9262 5.6295 7.6463 -107.3132 0.0000 0.0000 0.0000
48.6781 -102.4313 -0.0232 0.0000 0.0000 0.0000 0.1128 -10.0103 -0.0099 0.0000 0.0000 0.0000 0.0000 0.0000 0.0000 0.0000 0.0000 0.0000 0.0000 0.0000 0.0000 0.0000 0.0000 0.0000 -68.7080 17.9161 25.9726 31.5926 -31.1124 89.0770 0.0000 0.0000 0.0000 0.0000 0.0000 0.0000 80.3432 0.5663 -0.6708 7.7337 10.8575 -109.1564 0.0000 0.0000 0.0000
48.6652 -102.4481 -0.0216 0.0000 0.0000 0.0000 0.0977 -9.6546 -0.0082 0.0000 0.0000 0.0000 0.0000 0.0000 0.0000 0.0000 0.0000 0.0000 0.0000 0.0000 0.0000 0.0000 0.0000 0.0000 -70.2598 16.9796 23.9557 32.8485 -31.9325 88.2902 0.0000 0.0000 0.0000 0.0000 0.0000 0.0000 80.5624 -0.1624 0.1916 12.3261 18.0951 -111.7149 0.0000 0.0000 0.0000
48.6610 -102.3435 -0.0212 0.0000 0.0000 0.0000 0.0768 -10.3761 -0.0070 0.0000 0.0000 0.0000 0.0000 0.0000 0.0000 0.0000 0.0000 0.0000 0.0000 0.0000 0.0000 0.0000 0.0000 0.0000 -70.9746 16.8624 23.4889 30.3552 -30.3794 90.0477 0.0000 0.0000 0.0000 0.0000 0.0000 0.0000 80.7651 0.9217 -1.0836 11.6796 16.4818 -109.5414 0.0000 0.0000 0.0000
48.6817 -102.2509 -0.0209 0.0000 0.0000 0.0000 0.0964 -9.6099 -0.0081 0.0000 0.0000 0.0000 0.0000 0.0000 0.0000 0.0000 0.0000 0.0000 0.0000 0.0000 0.0000 0.0000 0.0000 0.0000 -71.0315 17.2370 23.9789 26.6719 -27.8669 92.6076 0.0000 0.0000 0.0000 0.0000 0.0000 0.0000 80.9006 2.9831 -3.4986 11.0515 15.3839 -108.7731 0.0000 0.0000 0.0000
48.7163 -102.1893 -0.0204 0.0000 0.0000 0.0000 0.1229 -9.5956 -0.0103 0.0000 0.0000 0.0000 0.0000 0.0000 0.0000 0.0000 0.0000 0.0000 0.0000 0.0000 0.0000 0.0000 0.0000 0.0000 -71.5070 17.0041 23.4588 25.4364 -26.9024 93.3231 0.0000 0.0000 0.0000 0.0000 0.0000 0.0000 81.0955 3.5601 -4.1608 11.0594 15.2801 -108.3622 0.0000 0.0000 0.0000
48.6924 -102.2049 -0.0187 0.0000 0.0000 0.0000 0.0901 -8.8142 -0.0069 0.0000 0.0000 0.0000 0.0000 0.0000 0.0000 0.0000 0.0000 0.0000 0.0000 0.0000 0.0000 0.0000 0.0000 0.0000 -72.4189 16.1188 21.8920 25.5253 -27.0870 93.5226 0.0000 0.0000 0.0000 0.0000 0.0000 0.0000 81.5313 2.8021 -3.2499 12.5815 17.8597 -109.8953 0.0000 0.0000 0.0000
48.6851 -102.2122 -0.0187 0.0000 0.0000 0.0000 0.0601 -8.5461 -0.0045 0.0000 0.0000 0.0000 0.0000 0.0000 0.0000 0.0000 0.0000 0.0000 0.0000 0.0000 0.0000 0.0000 0.0000 0.0000 -72.4928 16.1771 21.9413 26.3879 -27.7959 93.0910 0.0000 0.0000 0.0000 0.0000 0.0000 0.0000 81.6713 3.2693 -3.7824 11.8483 16.7321 -109.5869 0.0000 0.0000 0.0000
48.7463 -102.2606 -0.0189 0.0000 0.0000 0.0000 0.1249 -6.3742 -0.0070 0.0000 0.0000 0.0000 0.0000 0.0000 0.0000 0.0000 0.0000 0.0000 0.0000 0.0000 0.0000 0.0000 0.0000 0.0000 -72.6999 15.9652 21.5771 27.7894 -28.9007 92.3404 0.0000 0.0000 0.0000 0.0000 0.0000 0.0000 82.0096 2.1855 -2.5136 12.6937 18.0860 -110.1028 0.0000 0.0000 0.0000
48.7486 -102.4359 -0.0187 0.0000 0.0000 0.0000 0.1167 -8.6058 -0.0088 0.0000 0.0000 0.0000 0.0000 0.0000 0.0000 0.0000 0.0000 0.0000 0.0000 0.0000 0.0000 0.0000 0.0000 0.0000 -73.6254 14.8842 19.8001 30.0548 -30.3402 90.5673 0.0000 0.0000 0.0000 0.0000 0.0000 0.0000 82.1223 -0.5360 0.6153 11.5001 16.1649 -109.3208 0.0000 0.0000 0.0000
48.7345 -102.4703 -0.0186 0.0000 0.0000 0.0000 0.0914 -8.7643 -0.0070 0.0000 0.0000 0.0000 0.0000 0.0000 0.0000 0.0000 0.0000 0.0000 0.0000 0.0000 0.0000 0.0000 0.0000 0.0000 -73.5613 14.9779 19.9465 30.6257 -30.5893 89.9285 0.0000 0.0000 0.0000 0.0000 0.0000 0.0000 82.1322 0.3328 -0.3819 10.8694 15.1987 -109.0148 0.0000 0.0000 0.0000
48.7542 -102.4640 -0.0201 0.0000 0.0000 0.0000 0.0988 -6.9171 -0.0060 0.0000 0.0000 0.0000 0.0000 0.0000 0.0000 0.0000 0.0000 0.0000 0.0000 0.0000 0.0000 0.0000 0.0000 0.0000 -73.6645 14.9240 19.8387 31.8696 -31.3807 89.0677 0.0000 0.0000 0.0000 0.0000 0.0000 0.0000 82.2604 1.5376 -1.7606 10.1328 14.2171 -109.1813 0.0000 0.0000 0.0000
48.7601 -102.4647 -0.0194 0.0000 0.0000 0.0000 0.1094 -7.0264 -0.0067 0.0000 0.0000 0.0000 0.0000 0.0000 0.0000 0.0000 0.0000 0.0000 0.0000 0.0000 0.0000 0.0000 0.0000 0.0000 -73.8374 14.6726 19.4474 32.7583 -31.7674 88.1439 0.0000 0.0000 0.0000 0.0000 0.0000 0.0000 82.2641 2.2975 -2.6305 9.1894 12.9328 -109.3233 0.0000 0.0000 0.0000
48.7538 -102.4580 -0.0193 0.0000 0.0000 0.0000 0.0944 -7.3057 -0.0060 0.0000 0.0000 0.0000 0.0000 0.0000 0.0000 0.0000 0.0000 0.0000 0.0000 0.0000 0.0000 0.0000 0.0000 0.0000 -73.7705 14.7374 19.5558 35.1061 -33.3242 86.8320 0.0000 0.0000 0.0000 0.0000 0.0000 0.0000 82.2884 2.1658 -2.4787 8.6877 12.3386 -109.8063 0.0000 0.0000 0.0000
48.7487 -102.4457 -0.0192 0.0000 0.0000 0.0000 0.0890 -7.2400 -0.0056 0.0000 0.0000 0.0000 0.0000 0.0000 0.0000 0.0000 0.0000 0.0000 0.0000 0.0000 0.0000 0.0000 0.0000 0.0000 -73.3446 15.2673 20.4070 33.4606 -32.2701 87.8064 0.0000 0.0000 0.0000 0.0000 0.0000 0.0000 82.3501 1.9790 -2.2625 7.8475 11.0095 -109.1200 0.0000 0.0000 0.0000
48.7259 -102.2624 -0.0193 0.0000 0.0000 0.0000 0.0599 -6.2495 -0.0033 0.0000 0.0000 0.0000 0.0000 0.0000 0.0000 0.0000 0.0000 0.0000 0.0000 0.0000 0.0000 0.0000 0.0000 0.0000 -74.0850 14.3446 18.9323 32.0729 -31.3330 88.5922 0.0000 0.0000 0.0000 0.0000 0.0000 0.0000 82.3431 1.9771 -2.2606 7.3643 10.2283 -108.5628 0.0000 0.0000 0.0000
48.7621 -102.2624 -0.0198 0.0000 0.0000 0.0000 0.0962 -5.9351 -0.0050 0.0000 0.0000 0.0000 0.0000 0.0000 0.0000 0.0000 0.0000 0.0000 0.0000 0.0000 0.0000 0.0000 0.0000 0.0000 -73.5285 15.0650 20.0732 31.7361 -31.1023 88.7843 0.0000 0.0000 0.0000 0.0000 0.0000 0.0000 82.2803 2.7057 -3.0971 7.1403 9.9951 -108.9848 0.0000 0.0000 0.0000
48.7480 -102.1598 -0.0197 0.0000 0.0000 0.0000 0.0827 -7.4424 -0.0054 0.0000 0.0000 0.0000 0.0000 0.0000 0.0000 0.0000 0.0000 0.0000 0.0000 0.0000 0.0000 0.0000 0.0000 0.0000 -74.5621 13.7285 17.9716 32.4745 -31.5420 88.2410 0.0000 0.0000 0.0000 0.0000 0.0000 0.0000 82.3950 1.3355 -1.5257 7.2293 10.1489 -109.1439 0.0000 0.0000 0.0000
48.7788 -102.1615 -0.0200 0.0000 0.0000 0.0000 0.1167 -7.7371 -0.0079 0.0000 0.0000 0.0000 0.0000 0.0000 0.0000 0.0000 0.0000 0.0000 0.0000 0.0000 0.0000 0.0000 0.0000 0.0000 -73.9163 14.6330 19.3681 32.5464 -31.6016 88.2209 0.0000 0.0000 0.0000 0.0000 0.0000 0.0000 82.2796 2.4612 -2.8172 7.2836 10.2778 -109.4240 0.0000 0.0000 0.0000
48.7689 -102.1578 -0.0199 0.0000 0.0000 0.0000 0.1082 -7.8775 -0.0074 0.0000 0.0000 0.0000 0.0000 0.0000 0.0000 0.0000 0.0000 0.0000 0.0000 0.0000 0.0000 0.0000 0.0000 0.0000 -74.5264 13.8305 18.1157 32.5431 -31.8343 88.6695 0.0000 0.0000 0.0000 0.0000 0.0000 0.0000 82.2136 3.0954 -3.5473 6.7900 9.1951 -107.1668 0.0000 0.0000 0.0000
48.7776 -102.2496 -0.0195 0.0000 0.0000 0.0000 0.1179 -7.8509 -0.0081 0.0000 0.0000 0.0000 0.0000 0.0000 0.0000 0.0000 0.0000 0.0000 0.0000 0.0000 0.0000 0.0000 0.0000 0.0000 -75.4205 12.4997 16.1239 33.2739 -32.6183 88.7946 0.0000 0.0000 0.0000 0.0000 0.0000 0.0000 82.3749 1.2910 -1.4753 8.6238 12.1880 -109.5385 0.0000 0.0000 0.0000
48.7677 -102.3562 -0.0184 0.0000 0.0000 0.0000 0.1049 -9.1181 -0.0084 0.0000 0.0000 0.0000 0.0000 0.0000 0.0000 0.0000 0.0000 0.0000 0.0000 0.0000 0.0000 0.0000 0.0000 0.0000 -75.1222 13.0172 16.8770 29.6005 -30.6195 92.0311 0.0000 0.0000 0.0000 0.0000 0.0000 0.0000 82.3822 -0.8739 0.9985 10.0899 14.1132 -109.0105 0.0000 0.0000 0.0000
48.7966 -102.5506 -0.0174 0.0000 0.0000 0.0000 0.1410 -13.0295 -0.0161 0.0000 0.0000 0.0000 0.0000 0.0000 0.0000 0.0000 0.0000 0.0000 0.0000 0.0000 0.0000 0.0000 0.0000 0.0000 -75.2815 12.8688 16.6385 22.6103 -25.5031 97.0865 0.0000 0.0000 0.0000 0.0000 0.0000 0.0000 82.3093 -1.6149 1.8476 12.2342 16.7374 -107.8523 0.0000 0.0000 0.0000
48.7652 -102.5712 -0.0163 0.0000 0.0000 0.0000 0.1296 -16.2060 -0.0184 0.0000 0.0000 0.0000 0.0000 0.0000 0.0000 0.0000 0.0000 0.0000 0.0000 0.0000 0.0000 0.0000 0.0000 0.0000 -76.2925 11.4309 14.5243 14.8609 -18.2624 101.8886 0.0000 0.0000 0.0000 0.0000 0.0000 0.0000 82.4072 0.1283 -0.1465 13.0905 17.2752 -105.8725 0.0000 0.0000 0.0000
48.9693 -102.6257 -0.0155 0.0000 0.0000 0.0000 0.2862 -18.1579 -0.0457 0.0000 0.0000 0.0000 0.0000 0.0000 0.0000 0.0000 0.0000 0.0000 0.0000 0.0000 0.0000 0.0000 0.0000 0.0000 -77.8641 9.3978 11.6196 5.0389 -6.6340 105.5890 0.0000 0.0000 0.0000 0.0000 0.0000 0.0000 82.3646 -0.6146 0.7025 16.5925 21.0149 -103.6520 0.0000 0.0000 0.0000
49.2654 -103.1634 -0.0136 0.0000 0.0000 0.0000 0.5664 -16.9600 -0.0844 0.0000 0.0000 0.0000 0.0000 0.0000 0.0000 0.0000 0.0000 0.0000 0.0000 0.0000 0.0000 0.0000 0.0000 0.0000 -79.7476 4.3688 5.2288 -6.1766 8.0672 105.1593 0.0000 0.0000 0.0000 0.0000 0.0000 0.0000 81.8653 4.7370 -5.4612 15.3049 18.6036 -101.2741 0.0000 0.0000 0.0000
49.2131 -103.3813 -0.0146 0.0000 0.0000 0.0000 0.4652 -18.9485 -0.0776 0.0000 0.0000 0.0000 0.0000 0.0000 0.0000 0.0000 0.0000 0.0000 0.0000 0.0000 0.0000 0.0000 0.0000 0.0000 -79.5192 6.5823 7.9078 -15.3322 17.3538 97.1745 0.0000 0.0000 0.0000 0.0000 0.0000 0.0000 79.0044 12.2474 -14.8296 12.5956 14.8769 -99.5841 0.0000 0.0000 0.0000
49.2148 -103.6535 -0.0107 0.0000 0.0000 0.0000 0.4336 -17.1405 -0.0653 0.0000 0.0000 0.0000 0.0000 0.0000 0.0000 0.0000 0.0000 0.0000 0.0000 0.0000 0.0000 0.0000 0.0000 0.0000 -79.8049 6.2467 7.4672 -23.0223 22.9918 89.9220 0.0000 0.0000 0.0000 0.0000 0.0000 0.0000 77.5463 14.3901 -17.8635 10.2381 11.6151 -97.2550 0.0000 0.0000 0.0000
49.1465 -103.9631 -0.0109 0.0000 0.0000 0.0000 0.2970 -20.6734 -0.0542 0.0000 0.0000 0.0000 0.0000 0.0000 0.0000 0.0000 0.0000 0.0000 0.0000 0.0000 0.0000 0.0000 0.0000 0.0000 -80.8443 1.3874 1.6289 -36.3853 29.7056 77.8037 0.0000 0.0000 0.0000 0.0000 0.0000 0.0000 75.3807 17.1568 -22.0955 10.0955 11.4070 -97.0214 0.0000 0.0000 0.0000
49.2511 -104.6842 -0.0092 0.0000 0.0000 0.0000 0.3965 -21.1231 -0.0739 0.0000 0.0000 0.0000 0.0000 0.0000 0.0000 0.0000 0.0000 0.0000 0.0000 0.0000 0.0000 0.0000 0.0000 0.0000 -79.3515 -8.8977 -10.7168 -79.3111 29.0672 34.7345 0.0000 0.0000 0.0000 0.0000 0.0000 0.0000 71.6848 20.4306 -28.0153 6.3070 7.1493 -97.1801 0.0000 0.0000 0.0000
49.2938 -104.8341 -0.0105 0.0000 0.0000 0.0000 0.4667 -20.0663 -0.0826 0.0000 0.0000 0.0000 0.0000 0.0000 0.0000 0.0000 0.0000 0.0000 0.0000 0.0000 0.0000 0.0000 0.0000 0.0000 -73.6372 -17.6678 -23.4566 -93.6505 7.0201 6.5875 0.0000 0.0000 0.0000 0.0000 0.0000 0.0000 68.9178 22.1135 -31.7894 1.2878 1.4698 -97.5539 0.0000 0.0000 0.0000
49.4558 -104.8226 -0.0121 0.0000 0.0000 0.0000 0.6900 -19.4846 -0.1185 0.0000 0.0000 0.0000 0.0000 0.0000 0.0000 0.0000 0.0000 0.0000 0.0000 0.0000 0.0000 0.0000 0.0000 0.0000 -71.7643 -19.3673 -26.5450 -92.2505 4.9055 4.7167 0.0000 0.0000 0.0000 0.0000 0.0000 0.0000 64.6860 24.0842 -37.2359 -3.1101 -3.4631 -96.1505 0.0000 0.0000 0.0000
49.4494 -105.0742 -0.0164 0.0000 0.0000 0.0000 0.7194 -15.9499 -0.1008 0.0000 0.0000 0.0000 0.0000 0.0000 0.0000 0.0000 0.0000 0.0000 0.0000 0.0000 0.0000 0.0000 0.0000 0.0000 -73.2722 -18.1062 -24.1869 -89.7009 -6.4182 -6.4518 0.0000 0.0000 0.0000 0.0000 0.0000 0.0000 64.4121 23.8986 -37.1433 -10.5838 -11.4951 -94.7565 0.0000 0.0000 0.0000
49.5608 -105.0720 -0.0200 0.0000 0.0000 0.0000 0.8208 -9.4303 -0.0677 0.0000 0.0000 0.0000 0.0000 0.0000 0.0000 0.0000 0.0000 0.0000 0.0000 0.0000 0.0000 0.0000 0.0000 0.0000 -73.2239 -18.1959 -24.3260 -85.3269 -15.2530 -16.5334 0.0000 0.0000 0.0000 0.0000 0.0000 0.0000 58.7468 25.2991 -43.4784 -23.5414 -22.8812 -88.3251 0.0000 0.0000 0.0000
49.5680 -105.0770 -0.0211 0.0000 0.0000 0.0000 0.7989 -5.9062 -0.0412 0.0000 0.0000 0.0000 0.0000 0.0000 0.0000 0.0000 0.0000 0.0000 0.0000 0.0000 0.0000 0.0000 0.0000 0.0000 -75.5010 -16.2068 -20.8389 -86.9212 -9.8739 -10.4164 0.0000 0.0000 0.0000 0.0000 0.0000 0.0000 62.7290 23.8235 -38.1783 -31.6874 -27.6487 -81.8559 0.0000 0.0000 0.0000
49.5595 -105.0277 -0.0196 0.0000 0.0000 0.0000 0.6433 -8.0676 -0.0454 0.0000 0.0000 0.0000 0.0000 0.0000 0.0000 0.0000 0.0000 0.0000 0.0000 0.0000 0.0000 0.0000 0.0000 0.0000 -76.2453 -15.5568 -19.7490 -86.6670 -8.6677 -9.1850 0.0000 0.0000 0.0000 0.0000 0.0000 0.0000 58.5841 24.6633 -42.5809 -36.7825 -29.7302 -77.2016 0.0000 0.0000 0.0000
49.6011 -105.0180 -0.0189 0.0000 0.0000 0.0000 0.6346 -9.0975 -0.0505 0.0000 0.0000 0.0000 0.0000 0.0000 0.0000 0.0000 0.0000 0.0000 0.0000 0.0000 0.0000 0.0000 0.0000 0.0000 -75.1669 -17.1350 -22.1509 -82.4393 -15.9060 -18.1217 0.0000 0.0000 0.0000 0.0000 0.0000 0.0000 58.0206 24.5135 -42.7858 -41.8698 -31.6252 -73.0248 0.0000 0.0000 0.0000
49.6240 -105.2763 -0.0198 0.0000 0.0000 0.0000 0.6294 -10.7718 -0.0593 0.0000 0.0000 0.0000 0.0000 0.0000 0.0000 0.0000 0.0000 0.0000 0.0000 0.0000 0.0000 0.0000 0.0000 0.0000 -75.7938 -16.6868 -21.3403 -84.4983 -10.6653 -11.7348 0.0000 0.0000 0.0000 0.0000 0.0000 0.0000 50.4740 25.5415 -51.3626 -41.5911 -31.1942 -72.6347 0.0000 0.0000 0.0000
49.6033 -105.3800 -0.0197 0.0000 0.0000 0.0000 0.5920 -11.0841 -0.0574 0.0000 0.0000 0.0000 0.0000 0.0000 0.0000 0.0000 0.0000 0.0000 0.0000 0.0000 0.0000 0.0000 0.0000 0.0000 -75.2405 -17.3240 -22.3637 -82.1492 -13.7250 -15.7236 0.0000 0.0000 0.0000 0.0000 0.0000 0.0000 45.1911 25.3864 -56.8456 -38.0509 -29.8501 -75.4077 0.0000 0.0000 0.0000
49.5991 -105.3759 -0.0208 0.0000 0.0000 0.0000 0.5505 -10.1803 -0.0490 0.0000 0.0000 0.0000 0.0000 0.0000 0.0000 0.0000 0.0000 0.0000 0.0000 0.0000 0.0000 0.0000 0.0000 0.0000 -74.6100 -17.9388 -23.4070 -81.2557 -14.8175 -17.2366 0.0000 0.0000 0.0000 0.0000 0.0000 0.0000 46.2981 25.2654 -55.3280 -39.7598 -30.6142 -74.2460 0.0000 0.0000 0.0000
49.5973 -105.4116 -0.0200 0.0000 0.0000 0.0000 0.5360 -12.8355 -0.0603 0.0000 0.0000 0.0000 0.0000 0.0000 0.0000 0.0000 0.0000 0.0000 0.0000 0.0000 0.0000 0.0000 0.0000 0.0000 -72.4228 -19.8884 -26.9317 -77.0894 -20.0736 -25.0497 0.0000 0.0000 0.0000 0.0000 0.0000 0.0000 44.8987 25.1471 -56.7221 -40.9202 -31.1758 -73.5743 0.0000 0.0000 0.0000
49.5460 -105.5677 -0.0220 0.0000 0.0000 0.0000 0.4716 -12.5864 -0.0520 0.0000 0.0000 0.0000 0.0000 0.0000 0.0000 0.0000 0.0000 0.0000 0.0000 0.0000 0.0000 0.0000 0.0000 0.0000 -73.5408 -19.0345 -25.2895 -81.2776 -15.6703 -18.2174 0.0000 0.0000 0.0000 0.0000 0.0000 0.0000 44.2597 25.0632 -57.3199 -41.7538 -31.7472 -73.4140 0.0000 0.0000 0.0000
49.5251 -105.6777 -0.0219 0.0000 0.0000 0.0000 0.4329 -12.5872 -0.0477 0.0000 0.0000 0.0000 0.0000 0.0000 0.0000 0.0000 0.0000 0.0000 0.0000 0.0000 0.0000 0.0000 0.0000 0.0000 -72.1827 -20.1410 -27.3836 -78.8707 -18.8132 -22.7777 0.0000 0.0000 0.0000 0.0000 0.0000 0.0000 44.8736 25.0542 -56.5689 -41.0812 -31.6679 -74.2455 0.0000 0.0000 0.0000
49.4548 -105.7106 -0.0227 0.0000 0.0000 0.0000 0.3615 -14.5128 -0.0460 0.0000 0.0000 0.0000 0.0000 0.0000 0.0000 0.0000 0.0000 0.0000 0.0000 0.0000 0.0000 0.0000 0.0000 0.0000 -69.8386 -21.7554 -30.7808 -79.4050 -18.3463 -22.0123 0.0000 0.0000 0.0000 0.0000 0.0000 0.0000 39.3523 24.3804 -62.2754 -35.2789 -29.3514 -78.9512 0.0000 0.0000 0.0000
49.3632 -106.0037 -0.0220 0.0000 0.0000 0.0000 0.2623 -13.9726 -0.0321 0.0000 0.0000 0.0000 0.0000 0.0000 0.0000 0.0000 0.0000 0.0000 0.0000 0.0000 0.0000 0.0000 0.0000 0.0000 -69.5056 -21.9647 -31.2534 -76.5740 -21.0135 -26.4430 0.0000 0.0000 0.0000 0.0000 0.0000 0.0000 43.8035 24.9671 -57.6818 -39.2962 -31.2519 -76.1496 0.0000 0.0000 0.0000
49.3849 -106.4796 -0.0204 0.0000 0.0000 0.0000 0.2815 -15.2813 -0.0378 0.0000 0.0000 0.0000 0.0000 0.0000 0.0000 0.0000 0.0000 0.0000 0.0000 0.0000 0.0000 0.0000 0.0000 0.0000 -69.1380 -22.2022 -31.7892 -78.6521 -19.4871 -23.6758 0.0000 0.0000 0.0000 0.0000 0.0000 0.0000 43.7701 24.9458 -57.6800 -37.7297 -30.6512 -77.4618 0.0000 0.0000 0.0000
49.2723 -106.4562 -0.0204 0.0000 0.0000 0.0000 0.1802 -15.3236 -0.0242 0.0000 0.0000 0.0000 0.0000 0.0000 0.0000 0.0000 0.0000 0.0000 0.0000 0.0000 0.0000 0.0000 0.0000 0.0000 -70.3394 -21.7515 -30.5041 -80.4854 -17.5827 -20.7110 0.0000 0.0000 0.0000 0.0000 0.0000 0.0000 39.4915 24.4153 -62.1564 -34.9775 -29.3983 -79.5597 0.0000 0.0000 0.0000
49.2804 -106.4946 -0.0196 0.0000 0.0000 0.0000 0.2109 -16.5889 -0.0308 0.0000 0.0000 0.0000 0.0000 0.0000 0.0000 0.0000 0.0000 0.0000 0.0000 0.0000 0.0000 0.0000 0.0000 0.0000 -69.8134 -22.0737 -31.2339 -79.4119 -19.2208 -23.0502 0.0000 0.0000 0.0000 0.0000 0.0000 0.0000 40.7796 24.6590 -60.9153 -36.1575 -30.0174 -78.7939 0.0000 0.0000 0.0000
49.2730 -106.4474 -0.0202 0.0000 0.0000 0.0000 0.2226 -13.2838 -0.0259 0.0000 0.0000 0.0000 0.0000 0.0000 0.0000 0.0000 0.0000 0.0000 0.0000 0.0000 0.0000 0.0000 0.0000 0.0000 -72.2997 -20.5098 -27.8186 -79.9095 -18.5490 -22.0601 0.0000 0.0000 0.0000 0.0000 0.0000 0.0000 41.8618 24.8514 -59.8895 -39.1430 -31.3985 -76.6590 0.0000 0.0000 0.0000
49.2689 -106.3097 -0.0203 0.0000 0.0000 0.0000 0.2531 -14.0815 -0.0313 0.0000 0.0000 0.0000 0.0000 0.0000 0.0000 0.0000 0.0000 0.0000 0.0000 0.0000 0.0000 0.0000 0.0000 0.0000 -71.3823 -21.1288 -29.1087 -79.1245 -19.3414 -23.3091 0.0000 0.0000 0.0000 0.0000 0.0000 0.0000 42.0659 24.9327 -59.7927 -37.8387 -30.7933 -77.5597 0.0000 0.0000 0.0000
49.2522 -106.2925 -0.0203 0.0000 0.0000 0.0000 0.3012 -13.3564 -0.0353 0.0000 0.0000 0.0000 0.0000 0.0000 0.0000 0.0000 0.0000 0.0000 0.0000 0.0000 0.0000 0.0000 0.0000 0.0000 -74.2524 -18.8448 -24.7293 -84.5757 -11.3682 -12.4903 0.0000 0.0000 0.0000 0.0000 0.0000 0.0000 44.1276 25.2073 -57.7661 -40.9644 -32.0378 -75.0931 0.0000 0.0000 0.0000
49.2118 -106.3140 -0.0202 0.0000 0.0000 0.0000 0.2639 -11.2482 -0.0260 0.0000 0.0000 0.0000 0.0000 0.0000 0.0000 0.0000 0.0000 0.0000 0.0000 0.0000 0.0000 0.0000 0.0000 0.0000 -75.6986 -17.5591 -22.4824 -84.9210 -10.6037 -11.5816 0.0000 0.0000 0.0000 0.0000 0.0000 0.0000 43.9343 25.1956 -57.9783 -39.9420 -31.6252 -75.8614 0.0000 0.0000 0.0000
49.1833 -106.3535 -0.0202 0.0000 0.0000 0.0000 0.2448 -11.4674 -0.0246 0.0000 0.0000 0.0000 0.0000 0.0000 0.0000 0.0000 0.0000 0.0000 0.0000 0.0000 0.0000 0.0000 0.0000 0.0000 -71.0188 -21.4332 -29.7090 -79.2766 -19.5357 -23.4794 0.0000 0.0000 0.0000 0.0000 0.0000 0.0000 43.8593 25.2108 -58.1004 -38.9763 -31.2276 -76.5964 0.0000 0.0000 0.0000
49.1416 -106.3707 -0.0200 0.0000 0.0000 0.0000 0.2058 -14.0153 -0.0253 0.0000 0.0000 0.0000 0.0000 0.0000 0.0000 0.0000 0.0000 0.0000 0.0000 0.0000 0.0000 0.0000 0.0000 0.0000 -70.1624 -22.0078 -30.9515 -81.5679 -17.2866 -19.9863 0.0000 0.0000 0.0000 0.0000 0.0000 0.0000 41.7472 24.9871 -60.3178 -36.1941 -29.9765 -78.6529 0.0000 0.0000 0.0000
49.1469 -106.7064 -0.0199 0.0000 0.0000 0.0000 0.2500 -15.1604 -0.0333 0.0000 0.0000 0.0000 0.0000 0.0000 0.0000 0.0000 0.0000 0.0000 0.0000 0.0000 0.0000 0.0000 0.0000 0.0000 -68.5401 -22.9204 -33.1380 -80.9431 -18.2342 -21.3043 0.0000 0.0000 0.0000 0.0000 0.0000 0.0000 43.8958 25.3132 -58.2595 -36.5199 -30.1069 -78.3696 0.0000 0.0000 0.0000
49.1317 -106.6078 -0.0210 0.0000 0.0000 0.0000 0.2727 -16.0963 -0.0386 0.0000 0.0000 0.0000 0.0000 0.0000 0.0000 0.0000 0.0000 0.0000 0.0000 0.0000 0.0000 0.0000 0.0000 0.0000 -68.9107 -22.6947 -32.6060 -83.2051 -15.3350 -17.2432 0.0000 0.0000 0.0000 0.0000 0.0000 0.0000 39.1077 24.6966 -63.2964 -33.5408 -28.6095 -80.4712 0.0000 0.0000 0.0000
49.1097 -106.5745 -0.0208 0.0000 0.0000 0.0000 0.3336 -15.3404 -0.0449 0.0000 0.0000 0.0000 0.0000 0.0000 0.0000 0.0000 0.0000 0.0000 0.0000 0.0000 0.0000 0.0000 0.0000 0.0000 -70.7188 -21.6548 -30.1687 -83.2355 -15.5177 -17.4388 0.0000 0.0000 0.0000 0.0000 0.0000 0.0000 41.7155 25.3050 -61.0115 -37.8751 -30.8838 -77.6743 0.0000 0.0000 0.0000
49.1198 -106.5561 -0.0201 0.0000 0.0000 0.0000 0.4488 -11.2160 -0.0441 0.0000 0.0000 0.0000 0.0000 0.0000 0.0000 0.0000 0.0000 0.0000 0.0000 0.0000 0.0000 0.0000 0.0000 0.0000 -73.1806 -19.8786 -26.5617 -83.1315 -15.4551 -17.4000 0.0000 0.0000 0.0000 0.0000 0.0000 0.0000 46.7289 25.9658 -56.1765 -37.9370 -31.0696 -77.9286 0.0000 0.0000 0.0000
49.1203 -106.5638 -0.0202 0.0000 0.0000 0.0000 0.5162 -5.5749 -0.0251 0.0000 0.0000 0.0000 0.0000 0.0000 0.0000 0.0000 0.0000 0.0000 0.0000 0.0000 0.0000 0.0000 0.0000 0.0000 -77.3226 -15.6211 -19.4580 -85.8256 -10.0791 -10.8372 0.0000 0.0000 0.0000 0.0000 0.0000 0.0000 52.8798 26.0132 -49.8309 -40.3736 -32.2831 -76.4185 0.0000 0.0000 0.0000
49.0981 -106.6096 -0.0202 0.0000 0.0000 0.0000 0.5241 -4.8745 -0.0223 0.0000 0.0000 0.0000 0.0000 0.0000 0.0000 0.0000 0.0000 0.0000 0.0000 0.0000 0.0000 0.0000 0.0000 0.0000 -77.5063 -15.3767 -19.0939 -87.3275 -2.7987 -2.9323 0.0000 0.0000 0.0000 0.0000 0.0000 0.0000 55.0903 25.9369 -47.6457 -38.9585 -31.7594 -77.6164 0.0000 0.0000 0.0000
49.0790 -106.6050 -0.0203 0.0000 0.0000 0.0000 0.5754 -6.6030 -0.0332 0.0000 0.0000 0.0000 0.0000 0.0000 0.0000 0.0000 0.0000 0.0000 0.0000 0.0000 0.0000 0.0000 0.0000 0.0000 -78.6209 -13.6400 -16.6202 -87.2897 -3.1527 -3.3054 0.0000 0.0000 0.0000 0.0000 0.0000 0.0000 52.4941 26.4072 -50.8913 -30.9150 -27.6853 -83.4087 0.0000 0.0000 0.0000
49.0442 -106.5247 -0.0209 0.0000 0.0000 0.0000 0.6184 -6.9848 -0.0377 0.0000 0.0000 0.0000 0.0000 0.0000 0.0000 0.0000 0.0000 0.0000 0.0000 0.0000 0.0000 0.0000 0.0000 0.0000 -80.8587 -9.0746 -10.6432 -87.3982 -1.1956 -1.2511 0.0000 0.0000 0.0000 0.0000 0.0000 0.0000 57.3376 26.1512 -46.0295 -37.6139 -31.5012 -79.2602 0.0000 0.0000 0.0000
48.9457 -106.4352 -0.0207 0.0000 0.0000 0.0000 0.5612 -7.8254 -0.0384 0.0000 0.0000 0.0000 0.0000 0.0000 0.0000 0.0000 0.0000 0.0000 0.0000 0.0000 0.0000 0.0000 0.0000 0.0000 -79.8773 -11.0530 -13.1837 -87.2063 -5.5882 -5.8671 0.0000 0.0000 0.0000 0.0000 0.0000 0.0000 54.8809 26.6325 -49.0101 -36.8889 -31.3292 -80.1140 0.0000 0.0000 0.0000
48.9627 -106.2807 -0.0184 0.0000 0.0000 0.0000 0.5948 -7.3570 -0.0382 0.0000 0.0000 0.0000 0.0000 0.0000 0.0000 0.0000 0.0000 0.0000 0.0000 0.0000 0.0000 0.0000 0.0000 0.0000 -75.9417 -16.7422 -21.3548 -85.5076 -11.9011 -12.8650 0.0000 0.0000 0.0000 0.0000 0.0000 0.0000 54.5549 26.8370 -49.6578 -36.3234 -31.1427 -80.6945 0.0000 0.0000 0.0000
48.9500 -106.2639 -0.0184 0.0000 0.0000 0.0000 0.5970 -10.2873 -0.0537 0.0000 0.0000 0.0000 0.0000 0.0000 0.0000 0.0000 0.0000 0.0000 0.0000 0.0000 0.0000 0.0000 0.0000 0.0000 -77.7901 -14.4693 -17.8845 -87.5147 -6.0148 -6.2810 0.0000 0.0000 0.0000 0.0000 0.0000 0.0000 56.3604 26.7636 -47.8869 -36.0317 -31.1196 -81.1385 0.0000 0.0000 0.0000
48.9111 -106.2442 -0.0183 0.0000 0.0000 0.0000 0.5571 -9.9561 -0.0485 0.0000 0.0000 0.0000 0.0000 0.0000 0.0000 0.0000 0.0000 0.0000 0.0000 0.0000 0.0000 0.0000 0.0000 0.0000 -77.8475 -14.3117 -17.6729 -87.8112 -5.1883 -5.3901 0.0000 0.0000 0.0000 0.0000 0.0000 0.0000 56.5289 26.7937 -47.7865 -38.1651 -32.3258 -79.9117 0.0000 0.0000 0.0000
48.8818 -106.1468 -0.0192 0.0000 0.0000 0.0000 0.5352 -9.9593 -0.0466 0.0000 0.0000 0.0000 0.0000 0.0000 0.0000 0.0000 0.0000 0.0000 0.0000 0.0000 0.0000 0.0000 0.0000 0.0000 -76.4017 -16.1734 -20.4692 -87.4436 -6.8263 -7.1371 0.0000 0.0000 0.0000 0.0000 0.0000 0.0000 54.1309 27.0667 -50.4464 -38.5775 -32.5895 -79.7415 0.0000 0.0000 0.0000
48.8707 -106.1319 -0.0198 0.0000 0.0000 0.0000 0.5338 -9.0795 -0.0424 0.0000 0.0000 0.0000 0.0000 0.0000 0.0000 0.0000 0.0000 0.0000 0.0000 0.0000 0.0000 0.0000 0.0000 0.0000 -77.4703 -14.8431 -18.4471 -88.1924 -2.4959 -2.5759 0.0000 0.0000 0.0000 0.0000 0.0000 0.0000 55.3904 26.9834 -49.1287 -38.8693 -32.8054 -79.6759 0.0000 0.0000 0.0000
48.8498 -106.1251 -0.0196 0.0000 0.0000 0.0000 0.5231 -8.8210 -0.0403 0.0000 0.0000 0.0000 0.0000 0.0000 0.0000 0.0000 0.0000 0.0000 0.0000 0.0000 0.0000 0.0000 0.0000 0.0000 -78.0723 -13.9211 -17.1253 -88.3936 0.3139 0.3228 0.0000 0.0000 0.0000 0.0000 0.0000 0.0000 57.0335 26.7785 -47.3166 -41.8203 -34.1015 -77.5108 0.0000 0.0000 0.0000
48.8420 -106.1547 -0.0196 0.0000 0.0000 0.0000 0.5232 -8.7442 -0.0400 0.0000 0.0000 0.0000 0.0000 0.0000 0.0000 0.0000 0.0000 0.0000 0.0000 0.0000 0.0000 0.0000 0.0000 0.0000 -77.8841 -14.2416 -17.5755 -88.3831 0.3298 0.3392 0.0000 0.0000 0.0000 0.0000 0.0000 0.0000 55.8956 26.9410 -48.5975 -43.0285 -34.5269 -76.5009 0.0000 0.0000 0.0000
48.8284 -106.1852 -0.0190 0.0000 0.0000 0.0000 0.5115 -11.4449 -0.0513 0.0000 0.0000 0.0000 0.0000 0.0000 0.0000 0.0000 0.0000 0.0000 0.0000 0.0000 0.0000 0.0000 0.0000 0.0000 -77.2605 -15.1624 -18.9110 -88.3899 -1.8539 -1.9067 0.0000 0.0000 0.0000 0.0000 0.0000 0.0000 55.3049 27.0071 -49.2470 -40.2393 -33.3542 -78.5504 0.0000 0.0000 0.0000
48.8152 -106.1997 -0.0188 0.0000 0.0000 0.0000 0.5002 -13.9345 -0.0611 0.0000 0.0000 0.0000 0.0000 0.0000 0.0000 0.0000 0.0000 0.0000 0.0000 0.0000 0.0000 0.0000 0.0000 0.0000 -76.6117 -16.0391 -20.2257 -88.4231 -2.4502 -2.5186 0.0000 0.0000 0.0000 0.0000 0.0000 0.0000 53.2989 27.1722 -51.4274 -36.1331 -31.3457 -81.3991 0.0000 0.0000 0.0000
48.8003 -106.2044 -0.0189 0.0000 0.0000 0.0000 0.4854 -13.5260 -0.0576 0.0000 0.0000 0.0000 0.0000 0.0000 0.0000 0.0000 0.0000 0.0000 0.0000 0.0000 0.0000 0.0000 0.0000 0.0000 -77.9783 -14.2610 -17.5702 -88.5117 -1.2800 -1.3137 0.0000 0.0000 0.0000 0.0000 0.0000 0.0000 54.0001 27.1230 -50.6665 -35.7760 -31.1583 -81.6434 0.0000 0.0000 0.0000
48.7744 -106.2074 -0.0190 0.0000 0.0000 0.0000 0.4579 -13.6662 -0.0549 0.0000 0.0000 0.0000 0.0000 0.0000 0.0000 0.0000 0.0000 0.0000 0.0000 0.0000 0.0000 0.0000 0.0000 0.0000 -79.0710 -12.5788 -15.2115 -88.2875 4.0998 4.2241 0.0000 0.0000 0.0000 0.0000 0.0000 0.0000 52.6772 27.2027 -52.0914 -35.9849 -31.2401 -81.4472 0.0000 0.0000 0.0000
48.7388 -106.2106 -0.0186 0.0000 0.0000 0.0000 0.4240 -15.3861 -0.0573 0.0000 0.0000 0.0000 0.0000 0.0000 0.0000 0.0000 0.0000 0.0000 0.0000 0.0000 0.0000 0.0000 0.0000 0.0000 -77.9755 -14.3953 -17.7357 -88.6141 -1.0221 -1.0472 0.0000 0.0000 0.0000 0.0000 0.0000 0.0000 54.3025 27.0965 -50.3339 -37.5327 -32.0172 -80.3562 0.0000 0.0000 0.0000
48.7046 -106.2310 -0.0188 0.0000 0.0000 0.0000 0.3881 -15.7178 -0.0536 0.0000 0.0000 0.0000 0.0000 0.0000 0.0000 0.0000 0.0000 0.0000 0.0000 0.0000 0.0000 0.0000 0.0000 0.0000 -77.4305 -15.2000 -18.9011 -88.6274 -1.9077 -1.9539 0.0000 0.0000 0.0000 0.0000 0.0000 0.0000 54.4507 27.0796 -50.1650 -38.8379 -32.6235 -79.3940 0.0000 0.0000 0.0000
48.6680 -106.2658 -0.0188 0.0000 0.0000 0.0000 0.3501 -14.8747 -0.0457 0.0000 0.0000 0.0000 0.0000 0.0000 0.0000 0.0000 0.0000 0.0000 0.0000 0.0000 0.0000 0.0000 0.0000 0.0000 -76.9617 -15.7193 -19.7039 -88.2341 -5.4064 -5.5754 0.0000 0.0000 0.0000 0.0000 0.0000 0.0000 54.3559 27.0863 -50.2660 -39.2774 -32.8796 -79.1738 0.0000 0.0000 0.0000
48.6370 -106.2905 -0.0188 0.0000 0.0000 0.0000 0.3226 -14.5315 -0.0411 0.0000 0.0000 0.0000 0.0000 0.0000 0.0000 0.0000 0.0000 0.0000 0.0000 0.0000 0.0000 0.0000 0.0000 0.0000 -77.1355 -15.4903 -19.3596 -88.1924 -5.6413 -5.8218 0.0000 0.0000 0.0000 0.0000 0.0000 0.0000 54.0787 27.1096 -50.5687 -39.4462 -32.9783 -79.0908 0.0000 0.0000 0.0000
48.6192 -106.3408 -0.0189 0.0000 0.0000 0.0000 0.3115 -13.5199 -0.0369 0.0000 0.0000 0.0000 0.0000 0.0000 0.0000 0.0000 0.0000 0.0000 0.0000 0.0000 0.0000 0.0000 0.0000 0.0000 -78.2530 -13.9382 -17.0918 -88.3778 -4.8335 -4.9721 0.0000 0.0000 0.0000 0.0000 0.0000 0.0000 53.8804 27.1325 -50.7973 -38.8374 -32.7423 -79.6112 0.0000 0.0000 0.0000
48.5858 -106.4305 -0.0193 0.0000 0.0000 0.0000 0.2702 -13.2004 -0.0313 0.0000 0.0000 0.0000 0.0000 0.0000 0.0000 0.0000 0.0000 0.0000 0.0000 0.0000 0.0000 0.0000 0.0000 0.0000 -78.1842 -14.0725 -17.2765 -88.4214 -4.6430 -4.7726 0.0000 0.0000 0.0000 0.0000 0.0000 0.0000 54.5650 27.0263 -49.9676 -37.7308 -32.4535 -80.8433 0.0000 0.0000 0.0000
48.5918 -106.4912 -0.0190 0.0000 0.0000 0.0000 0.2476 -12.8008 -0.0278 0.0000 0.0000 0.0000 0.0000 0.0000 0.0000 0.0000 0.0000 0.0000 0.0000 0.0000 0.0000 0.0000 0.0000 0.0000 -77.6942 -14.7684 -18.2828 -88.2432 -5.7271 -5.9051 0.0000 0.0000 0.0000 0.0000 0.0000 0.0000 55.2190 26.8750 -49.1053 -32.0903 -29.8776 -85.7041 0.0000 0.0000 0.0000
48.6156 -106.4591 -0.0190 0.0000 0.0000 0.0000 0.2705 -11.7722 -0.0279 0.0000 0.0000 0.0000 0.0000 0.0000 0.0000 0.0000 0.0000 0.0000 0.0000 0.0000 0.0000 0.0000 0.0000 0.0000 -77.5995 -14.4941 -17.9750 -88.8368 -0.3163 -0.3228 0.0000 0.0000 0.0000 0.0000 0.0000 0.0000 55.7102 26.6941 -48.3555 -24.6614 -25.3699 -91.6754 0.0000 0.0000 0.0000
48.5889 -106.4170 -0.0188 0.0000 0.0000 0.0000 0.2468 -14.4724 -0.0313 0.0000 0.0000 0.0000 0.0000 0.0000 0.0000 0.0000 0.0000 0.0000 0.0000 0.0000 0.0000 0.0000 0.0000 0.0000 -75.0379 -17.5987 -22.7957 -87.7357 -7.3125 -7.6065 0.0000 0.0000 0.0000 0.0000 0.0000 0.0000 56.9318 26.4319 -46.8386 -15.9139 -18.0464 -97.2919 0.0000 0.0000 0.0000
48.4457 -106.6561 -0.0175 0.0000 0.0000 0.0000 0.0904 -15.3692 -0.0122 0.0000 0.0000 0.0000 0.0000 0.0000 0.0000 0.0000 0.0000 0.0000 0.0000 0.0000 0.0000 0.0000 0.0000 0.0000 -73.3266 -19.4090 -25.8771 -87.5630 -7.5835 -7.9121 0.0000 0.0000 0.0000 0.0000 0.0000 0.0000 64.3739 24.2097 -37.6326 -7.6661 -9.4718 -102.0730 0.0000 0.0000 0.0000
48.3826 -106.5880 -0.0138 0.0000 0.0000 0.0000 0.0169 -20.8124 -0.0031 0.0000 0.0000 0.0000 0.0000 0.0000 0.0000 0.0000 0.0000 0.0000 0.0000 0.0000 0.0000 0.0000 0.0000 0.0000 -76.1258 -16.8543 -21.4271 -87.6778 6.1068 6.3589 0.0000 0.0000 0.0000 0.0000 0.0000 0.0000 72.6972 19.2822 -25.9976 1.4113 1.7662 -102.7492 0.0000 0.0000 0.0000
48.6875 -109.1340 -0.0125 0.0000 0.0000 0.0000 0.3187 -18.6268 -0.0523 0.0000 0.0000 0.0000 0.0000 0.0000 0.0000 0.0000 0.0000 0.0000 0.0000 0.0000 0.0000 0.0000 0.0000 0.0000 -78.5511 -13.4888 -16.4569 -62.5683 28.2140 44.9394 0.0000 0.0000 0.0000 0.0000 0.0000 0.0000 77.9065 13.1293 -16.2030 11.3155 13.2935 -99.2614 0.0000 0.0000 0.0000
48.8182 -108.0219 -0.0137 0.0000 0.0000 0.0000 0.4545 -20.3605 -0.0816 0.0000 0.0000 0.0000 0.0000 0.0000 0.0000 0.0000 0.0000 0.0000 0.0000 0.0000 0.0000 0.0000 0.0000 0.0000 -81.0325 -9.2452 -10.8099 -77.2917 20.1889 25.1038 0.0000 0.0000 0.0000 0.0000 0.0000 0.0000 79.0895 11.3087 -13.6760 30.8157 30.1910 -88.7692 0.0000 0.0000 0.0000
48.8501 -107.6410 -0.0193 0.0000 0.0000 0.0000 0.4954 -22.0327 -0.0964 0.0000 0.0000 0.0000 0.0000 0.0000 0.0000 0.0000 0.0000 0.0000 0.0000 0.0000 0.0000 0.0000 0.0000 0.0000 -82.1910 -7.2080 -8.2606 -71.9785 24.5087 33.3006 0.0000 0.0000 0.0000 0.0000 0.0000 0.0000 82.2387 2.5865 -2.9628 59.8038 37.9239 -61.7138 0.0000 0.0000 0.0000
48.8260 -107.5974 -0.0221 0.0000 0.0000 0.0000 0.4706 -21.0919 -0.0876 0.0000 0.0000 0.0000 0.0000 0.0000 0.0000 0.0000 0.0000 0.0000 0.0000 0.0000 0.0000 0.0000 0.0000 0.0000 -81.6403 -9.5057 -10.9961 -78.4259 20.4813 24.9689 0.0000 0.0000 0.0000 0.0000 0.0000 0.0000 82.6536 -4.1883 4.7624 91.1079 27.0183 -26.5193 0.0000 0.0000 0.0000
48.6612 -107.6645 -0.0239 0.0000 0.0000 0.0000 0.3160 -22.2818 -0.0622 0.0000 0.0000 0.0000 0.0000 0.0000 0.0000 0.0000 0.0000 0.0000 0.0000 0.0000 0.0000 0.0000 0.0000 0.0000 -81.4924 -10.0546 -11.6602 -79.7197 19.3414 23.0707 0.0000 0.0000 0.0000 0.0000 0.0000 0.0000 81.5003 -9.2493 10.7262 90.5412 23.3735 -23.1597 0.0000 0.0000 0.0000
48.4264 -107.6900 -0.0252 0.0000 0.0000 0.0000 0.0758 -20.8394 -0.0139 0.0000 0.0000 0.0000 0.0000 0.0000 0.0000 0.0000 0.0000 0.0000 0.0000 0.0000 0.0000 0.0000 0.0000 0.0000 -82.0034 -8.8225 -10.1421 -77.4882 21.3335 26.4198 0.0000 0.0000 0.0000 0.0000 0.0000 0.0000 79.2663 -13.9664 16.8246 88.1007 22.1836 -22.9119 0.0000 0.0000 0.0000
48.2911 -108.4741 -0.0254 0.0000 0.0000 0.0000 -0.0557 -20.4810 0.0101 0.0000 0.0000 0.0000 0.0000 0.0000 0.0000 0.0000 0.0000 0.0000 0.0000 0.0000 0.0000 0.0000 0.0000 0.0000 -81.6053 -9.8017 -11.3449 -77.5397 21.5036 26.6042 0.0000 0.0000 0.0000 0.0000 0.0000 0.0000 81.8776 -8.8027 10.1416 78.9647 26.3424 -31.7160 0.0000 0.0000 0.0000
48.2149 -110.6226 -0.0243 0.0000 0.0000 0.0000 -0.0874 -19.9606 0.0154 0.0000 0.0000 0.0000 0.0000 0.0000 0.0000 0.0000 0.0000 0.0000 0.0000 0.0000 0.0000 0.0000 0.0000 0.0000 -80.7488 -11.6797 -13.7179 -81.5028 17.8320 20.6367 0.0000 0.0000 0.0000 0.0000 0.0000 0.0000 79.2147 -14.4442 17.4132 86.1189 20.6975 -22.1146 0.0000 0.0000 0.0000
48.1968 -110.4486 -0.0273 0.0000 0.0000 0.0000 -0.0599 -21.8202 0.0115 0.0000 0.0000 0.0000 0.0000 0.0000 0.0000 0.0000 0.0000 0.0000 0.0000 0.0000 0.0000 0.0000 0.0000 0.0000 -82.5262 -7.7897 -8.8743 -77.9583 21.1785 26.0183 0.0000 0.0000 0.0000 0.0000 0.0000 0.0000 81.9005 -10.0308 11.5498 80.3949 24.2708 -28.5546 0.0000 0.0000 0.0000
48.1986 -110.1882 -0.0265 0.0000 0.0000 0.0000 -0.0015 -22.6968 0.0003 0.0000 0.0000 0.0000 0.0000 0.0000 0.0000 0.0000 0.0000 0.0000 0.0000 0.0000 0.0000 0.0000 0.0000 0.0000 -82.0122 -9.3739 -10.7734 -86.0395 10.2169 10.9445 0.0000 0.0000 0.0000 0.0000 0.0000 0.0000 82.4331 -9.7908 11.1692 77.9336 25.3685 -31.1005 0.0000 0.0000 0.0000
48.1943 -109.9171 -0.0270 0.0000 0.0000 0.0000 0.0492 -22.6450 -0.0099 0.0000 0.0000 0.0000 0.0000 0.0000 0.0000 0.0000 0.0000 0.0000 0.0000 0.0000 0.0000 0.0000 0.0000 0.0000 -81.9385 -9.9143 -11.4082 -82.0924 16.7255 19.1660 0.0000 0.0000 0.0000 0.0000 0.0000 0.0000 83.1090 -8.1881 9.2330 81.5668 22.2163 -25.6437 0.0000 0.0000 0.0000
48.2385 -109.7858 -0.0254 0.0000 0.0000 0.0000 0.1419 -23.4488 -0.0295 0.0000 0.0000 0.0000 0.0000 0.0000 0.0000 0.0000 0.0000 0.0000 0.0000 0.0000 0.0000 0.0000 0.0000 0.0000 -80.2246 -13.3875 -15.8618 -86.6597 7.7047 8.1660 0.0000 0.0000 0.0000 0.0000 0.0000 0.0000 84.2306 -4.9867 5.5151 84.6063 19.5313 -21.4196 0.0000 0.0000 0.0000
48.2459 -109.7175 -0.0277 0.0000 0.0000 0.0000 0.1943 -22.0919 -0.0379 0.0000 0.0000 0.0000 0.0000 0.0000 0.0000 0.0000 0.0000 0.0000 0.0000 0.0000 0.0000 0.0000 0.0000 0.0000 -81.3906 -11.6901 -13.5767 -84.1119 13.4211 14.8609 0.0000 0.0000 0.0000 0.0000 0.0000 0.0000 83.0815 -9.2760 10.4633 84.8810 19.7260 -21.5307 0.0000 0.0000 0.0000
48.2641 -109.6398 -0.0277 0.0000 0.0000 0.0000 0.2654 -22.4365 -0.0526 0.0000 0.0000 0.0000 0.0000 0.0000 0.0000 0.0000 0.0000 0.0000 0.0000 0.0000 0.0000 0.0000 0.0000 0.0000 -81.7896 -11.0798 -12.7800 -81.2883 17.4468 20.2683 0.0000 0.0000 0.0000 0.0000 0.0000 0.0000 83.6433 -8.0403 8.9821 82.3264 22.8629 -26.0446 0.0000 0.0000 0.0000
48.2644 -109.4600 -0.0267 0.0000 0.0000 0.0000 0.3168 -22.3348 -0.0625 0.0000 0.0000 0.0000 0.0000 0.0000 0.0000 0.0000 0.0000 0.0000 0.0000 0.0000 0.0000 0.0000 0.0000 0.0000 -82.9518 -8.2860 -9.3691 -79.6670 18.9585 22.6382 0.0000 0.0000 0.0000 0.0000 0.0000 0.0000 83.4405 -8.7940 9.8581 84.0168 21.6052 -23.9226 0.0000 0.0000 0.0000
48.2730 -109.5848 -0.0259 0.0000 0.0000 0.0000 0.3659 -22.9500 -0.0743 0.0000 0.0000 0.0000 0.0000 0.0000 0.0000 0.0000 0.0000 0.0000 0.0000 0.0000 0.0000 0.0000 0.0000 0.0000 -82.5280 -9.5141 -10.8359 -82.6292 15.6118 17.7293 0.0000 0.0000 0.0000 0.0000 0.0000 0.0000 83.9146 -7.8554 8.7342 85.2864 19.8202 -21.4837 0.0000 0.0000 0.0000
48.2550 -109.4693 -0.0282 0.0000 0.0000 0.0000 0.3722 -21.9122 -0.0720 0.0000 0.0000 0.0000 0.0000 0.0000 0.0000 0.0000 0.0000 0.0000 0.0000 0.0000 0.0000 0.0000 0.0000 0.0000 -83.0626 -7.8934 -8.9082 -80.6171 18.1129 21.2830 0.0000 0.0000 0.0000 0.0000 0.0000 0.0000 83.2768 -9.6728 10.8733 85.9327 19.2411 -20.6285 0.0000 0.0000 0.0000
48.2097 -109.4328 -0.0261 0.0000 0.0000 0.0000 0.3501 -23.0777 -0.0715 0.0000 0.0000 0.0000 0.0000 0.0000 0.0000 0.0000 0.0000 0.0000 0.0000 0.0000 0.0000 0.0000 0.0000 0.0000 -80.4892 -13.4545 -15.8674 -84.0063 13.4533 14.9239 0.0000 0.0000 0.0000 0.0000 0.0000 0.0000 84.2157 -6.9131 7.6467 85.7416 19.5318 -21.0078 0.0000 0.0000 0.0000
48.1621 -109.4157 -0.0264 0.0000 0.0000 0.0000 0.3267 -22.7414 -0.0657 0.0000 0.0000 0.0000 0.0000 0.0000 0.0000 0.0000 0.0000 0.0000 0.0000 0.0000 0.0000 0.0000 0.0000 0.0000 -79.2959 -15.1713 -18.2593 -86.2607 8.2960 8.8537 0.0000 0.0000 0.0000 0.0000 0.0000 0.0000 84.5049 -5.7993 6.3828 86.4348 18.9503 -20.1436 0.0000 0.0000 0.0000
48.1473 -109.4349 -0.0266 0.0000 0.0000 0.0000 0.3262 -23.0341 -0.0665 0.0000 0.0000 0.0000 0.0000 0.0000 0.0000 0.0000 0.0000 0.0000 0.0000 0.0000 0.0000 0.0000 0.0000 0.0000 -79.3240 -15.1025 -18.1680 -85.1361 11.2388 12.2286 0.0000 0.0000 0.0000 0.0000 0.0000 0.0000 84.7252 -4.9689 5.4481 84.1373 21.4640 -23.7182 0.0000 0.0000 0.0000
48.1114 -109.4829 -0.0275 0.0000 0.0000 0.0000 0.2913 -21.9212 -0.0564 0.0000 0.0000 0.0000 0.0000 0.0000 0.0000 0.0000 0.0000 0.0000 0.0000 0.0000 0.0000 0.0000 0.0000 0.0000 -82.5146 -9.2730 -10.5643 -79.6950 19.1299 22.8302 0.0000 0.0000 0.0000 0.0000 0.0000 0.0000 83.4363 -9.4459 10.5890 86.2604 19.3313 -20.6090 0.0000 0.0000 0.0000
48.0414 -109.4986 -0.0265 0.0000 0.0000 0.0000 0.2343 -23.4683 -0.0487 0.0000 0.0000 0.0000 0.0000 0.0000 0.0000 0.0000 0.0000 0.0000 0.0000 0.0000 0.0000 0.0000 0.0000 0.0000 -82.3856 -9.7931 -11.1811 -81.9236 17.1053 19.6565 0.0000 0.0000 0.0000 0.0000 0.0000 0.0000 84.4751 -6.2264 6.8563 84.6325 21.2064 -23.2379 0.0000 0.0000 0.0000
48.0277 -109.7312 -0.0248 0.0000 0.0000 0.0000 0.2312 -23.6329 -0.0484 0.0000 0.0000 0.0000 0.0000 0.0000 0.0000 0.0000 0.0000 0.0000 0.0000 0.0000 0.0000 0.0000 0.0000 0.0000 -82.1559 -10.3880 -11.9070 -81.8047 17.0463 19.6293 0.0000 0.0000 0.0000 0.0000 0.0000 0.0000 84.3485 -6.8095 7.5147 83.8007 21.2196 -23.5847 0.0000 0.0000 0.0000
48.0174 -109.7815 -0.0262 0.0000 0.0000 0.0000 0.2198 -22.8815 -0.0445 0.0000 0.0000 0.0000 0.0000 0.0000 0.0000 0.0000 0.0000 0.0000 0.0000 0.0000 0.0000 0.0000 0.0000 0.0000 -82.5687 -9.7640 -11.1122 -81.0557 17.9607 20.9459 0.0000 0.0000 0.0000 0.0000 0.0000 0.0000 83.7979 -8.4939 9.4628 81.3519 22.6989 -26.2920 0.0000 0.0000 0.0000
48.0206 -109.7957 -0.0272 0.0000 0.0000 0.0000 0.2390 -22.0530 -0.0466 0.0000 0.0000 0.0000 0.0000 0.0000 0.0000 0.0000 0.0000 0.0000 0.0000 0.0000 0.0000 0.0000 0.0000 0.0000 -82.0779 -10.9033 -12.5136 -83.5727 14.4638 16.1631 0.0000 0.0000 0.0000 0.0000 0.0000 0.0000 83.9797 -7.9685 8.8497 83.0702 22.6622 -25.4932 0.0000 0.0000 0.0000
48.0234 -109.7183 -0.0284 0.0000 0.0000 0.0000 0.2699 -22.2357 -0.0530 0.0000 0.0000 0.0000 0.0000 0.0000 0.0000 0.0000 0.0000 0.0000 0.0000 0.0000 0.0000 0.0000 0.0000 0.0000 -83.1176 -8.1739 -9.2155 -80.4687 18.4636 21.7480 0.0000 0.0000 0.0000 0.0000 0.0000 0.0000 83.6210 -8.9162 9.9635 83.9025 22.1255 -24.5432 0.0000 0.0000 0.0000
48.0246 -110.0283 -0.0273 0.0000 0.0000 0.0000 0.3095 -21.6523 -0.0592 0.0000 0.0000 0.0000 0.0000 0.0000 0.0000 0.0000 0.0000 0.0000 0.0000 0.0000 0.0000 0.0000 0.0000 0.0000 -82.8634 -8.7031 -9.8554 -80.3587 18.5408 21.8800 0.0000 0.0000 0.0000 0.0000 0.0000 0.0000 83.4347 -9.4319 10.5735 84.4023 21.8979 -24.0862 0.0000 0.0000 0.0000
48.0164 -109.9942 -0.0281 0.0000 0.0000 0.0000 0.3106 -22.0192 -0.0604 0.0000 0.0000 0.0000 0.0000 0.0000 0.0000 0.0000 0.0000 0.0000 0.0000 0.0000 0.0000 0.0000 0.0000 0.0000 -82.9128 -8.6085 -9.7399 -80.8747 17.7663 20.7855 0.0000 0.0000 0.0000 0.0000 0.0000 0.0000 83.5371 -9.3004 10.4077 84.5472 20.2738 -22.2528 0.0000 0.0000 0.0000
48.0286 -109.9969 -0.0278 0.0000 0.0000 0.0000 0.3464 -21.2454 -0.0650 0.0000 0.0000 0.0000 0.0000 0.0000 0.0000 0.0000 0.0000 0.0000 0.0000 0.0000 0.0000 0.0000 0.0000 0.0000 -81.5731 -11.6205 -13.4530 -83.4230 14.2090 15.9204 0.0000 0.0000 0.0000 0.0000 0.0000 0.0000 83.7599 -8.7106 9.7104 83.4235 20.5374 -22.9781 0.0000 0.0000 0.0000
48.0243 -109.8691 -0.0278 0.0000 0.0000 0.0000 0.3482 -21.5862 -0.0664 0.0000 0.0000 0.0000 0.0000 0.0000 0.0000 0.0000 0.0000 0.0000 0.0000 0.0000 0.0000 0.0000 0.0000 0.0000 -83.7362 -5.6666 -6.3213 -76.5270 21.9570 27.6361 0.0000 0.0000 0.0000 0.0000 0.0000 0.0000 83.5671 -9.0256 10.0952 82.7214 21.9838 -24.8825 0.0000 0.0000 0.0000
48.0102 -109.9406 -0.0292 0.0000 0.0000 0.0000 0.3519 -20.6338 -0.0641 0.0000 0.0000 0.0000 0.0000 0.0000 0.0000 0.0000 0.0000 0.0000 0.0000 0.0000 0.0000 0.0000 0.0000 0.0000 -80.4120 -13.7832 -16.2755 -85.7046 9.8199 10.5809 0.0000 0.0000 0.0000 0.0000 0.0000 0.0000 84.0054 -7.9102 8.7810 84.8629 20.3841 -22.2530 0.0000 0.0000 0.0000
48.0055 -109.8361 -0.0278 0.0000 0.0000 0.0000 0.3678 -21.2358 -0.0689 0.0000 0.0000 0.0000 0.0000 0.0000 0.0000 0.0000 0.0000 0.0000 0.0000 0.0000 0.0000 0.0000 0.0000 0.0000 -81.6376 -11.5822 -13.3937 -83.9365 13.3854 14.8667 0.0000 0.0000 0.0000 0.0000 0.0000 0.0000 82.6266 -11.2912 12.8343 86.0989 17.7993 -19.0322 0.0000 0.0000 0.0000
47.9309 -111.3270 -0.0272 0.0000 0.0000 0.0000 0.2992 -20.0429 -0.0529 0.0000 0.0000 0.0000 0.0000 0.0000 0.0000 0.0000 0.0000 0.0000 0.0000 0.0000 0.0000 0.0000 0.0000 0.0000 -82.4520 -9.8244 -11.2038 -82.5644 15.5039 17.6270 0.0000 0.0000 0.0000 0.0000 0.0000 0.0000 83.2543 -9.9303 11.1667 85.7048 20.1020 -21.6327 0.0000 0.0000 0.0000
47.9311 -110.9310 -0.0264 0.0000 0.0000 0.0000 0.3175 -22.6974 -0.0637 0.0000 0.0000 0.0000 0.0000 0.0000 0.0000 0.0000 0.0000 0.0000 0.0000 0.0000 0.0000 0.0000 0.0000 0.0000 -83.3552 -7.1387 -8.0158 -76.5562 21.8639 27.5067 0.0000 0.0000 0.0000 0.0000 0.0000 0.0000 82.6772 -11.1037 12.6104 84.6382 21.3696 -23.4137 0.0000 0.0000 0.0000
47.9311 -110.9160 -0.0280 0.0000 0.0000 0.0000 0.3286 -20.9086 -0.0606 0.0000 0.0000 0.0000 0.0000 0.0000 0.0000 0.0000 0.0000 0.0000 0.0000 0.0000 0.0000 0.0000 0.0000 0.0000 -83.1927 -7.6175 -8.5775 -79.8223 18.8969 22.5047 0.0000 0.0000 0.0000 0.0000 0.0000 0.0000 83.9639 -7.7942 8.6587 87.8796 19.0104 -19.7135 0.0000 0.0000 0.0000
47.9300 -110.4968 -0.0276 0.0000 0.0000 0.0000 0.3383 -20.9390 -0.0625 0.0000 0.0000 0.0000 0.0000 0.0000 0.0000 0.0000 0.0000 0.0000 0.0000 0.0000 0.0000 0.0000 0.0000 0.0000 -83.5360 -6.3545 -7.1133 -79.5885 19.1296 22.8719 0.0000 0.0000 0.0000 0.0000 0.0000 0.0000 83.6078 -8.7867 9.8213 87.2639 19.7977 -20.7459 0.0000 0.0000 0.0000
47.9135 -110.5035 -0.0266 0.0000 0.0000 0.0000 0.3269 -20.1543 -0.0581 0.0000 0.0000 0.0000 0.0000 0.0000 0.0000 0.0000 0.0000 0.0000 0.0000 0.0000 0.0000 0.0000 0.0000 0.0000 -83.5931 -6.0641 -6.7815 -79.6015 19.0120 22.7272 0.0000 0.0000 0.0000 0.0000 0.0000 0.0000 83.7923 -8.2196 9.1584 87.4302 19.8954 -20.7889 0.0000 0.0000 0.0000
47.9131 -110.4905 -0.0266 0.0000 0.0000 0.0000 0.3402 -20.2180 -0.0606 0.0000 0.0000 0.0000 0.0000 0.0000 0.0000 0.0000 0.0000 0.0000 0.0000 0.0000 0.0000 0.0000 0.0000 0.0000 -83.7389 -5.6685 -6.3231 -78.3492 20.1975 24.6591 0.0000 0.0000 0.0000 0.0000 0.0000 0.0000 82.9218 -10.5473 11.9285 84.8198 20.3206 -22.2004 0.0000 0.0000 0.0000
47.9207 -110.5725 -0.0268 0.0000 0.0000 0.0000 0.3530 -20.9832 -0.0654 0.0000 0.0000 0.0000 0.0000 0.0000 0.0000 0.0000 0.0000 0.0000 0.0000 0.0000 0.0000 0.0000 0.0000 0.0000 -82.7617 -9.0554 -10.2721 -81.4299 16.8813 19.5667 0.0000 0.0000 0.0000 0.0000 0.0000 0.0000 84.4240 -6.2899 6.9323 81.2855 23.8905 -27.6901 0.0000 0.0000 0.0000
