HIERARCHY
ROOT mixamorig:Hips
{
  OFFSET 0.000000 0.000000 0.000000
  CHANNELS 6 Xposition Yposition Zposition Zrotation Xrotation Yrotation
  JOINT mixamorig:Spine
  {
    OFFSET 0.000000 9.878500 1.258800
    CHANNELS 3 Zrotation Xrotation Yrotation
    JOINT mixamorig:Spine1
    {
      OFFSET 0.000000 11.272100 0.038100
      CHANNELS 3 Zrotation Xrotation Yrotation
      JOINT mixamorig:Spine2
      {
        OFFSET 0.000000 10.749001 -0.597600
        CHANNELS 3 Zrotation Xrotation Yrotation
        JOINT mixamorig:Neck
        {
          OFFSET 0.000000 12.015200 -1.691700
          CHANNELS 3 Zrotation Xrotation Yrotation
          JOINT mixamorig:Head
          {
            OFFSET 0.000000 8.810500 2.213900
            CHANNELS 3 Zrotation Xrotation Yrotation
            End Site
            {
              OFFSET 0.000000 18.232300 3.738000
            }
          }
        }
        JOINT mixamorig:LeftShoulder
        {
          OFFSET 6.002800 8.887900 -2.628900
          CHANNELS 3 Zrotation Xrotation Yrotation
          JOINT mixamorig:LeftArm
          {
            OFFSET 12.046300 0.000000 0.000000
            CHANNELS 3 Zrotation Xrotation Yrotation
            JOINT mixamorig:LeftForeArm
            {
              OFFSET 27.876501 0.000000 0.000000
              CHANNELS 3 Zrotation Xrotation Yrotation
              JOINT mixamorig:LeftHand
              {
                OFFSET 25.438500 0.000000 0.000000
                CHANNELS 3 Zrotation Xrotation Yrotation
                End Site
                {
                  OFFSET 10.0 0.0 0.0
                }
              }
            }
          }
        }
        JOINT mixamorig:RightShoulder
        {
          OFFSET -6.002800 8.887900 -2.628900
          CHANNELS 3 Zrotation Xrotation Yrotation
          JOINT mixamorig:RightArm
          {
            OFFSET -12.046300 0.000000 0.000000
            CHANNELS 3 Zrotation Xrotation Yrotation
            JOINT mixamorig:RightForeArm
            {
              OFFSET -27.876501 0.000000 0.000000
              CHANNELS 3 Zrotation Xrotation Yrotation
              JOINT mixamorig:RightHand
              {
                OFFSET -25.438500 0.000000 0.000000
                CHANNELS 3 Zrotation Xrotation Yrotation
                End Site
                {
                  OFFSET -10.0 0.0 0.0
                }
              }
            }
          }
        }
      }
    }
  }
}
MOTION
Frames: 237
Frame Time: 0.033333
51.6103 -118.0238 -0.0232 0.0000 0.0000 0.0000 -0.0714 -23.5814 0.0149 0.0000 0.0000 0.0000 0.0000 0.0000 0.0000 0.0000 0.0000 0.0000 0.0000 0.0000 0.0000 0.0000 0.0000 0.0000 -83.5580 -0.1594 -0.1784 -64.8768 28.8452 44.0611 0.0000 0.0000 0.0000 0.0000 0.0000 0.0000 84.8800 -1.4049 1.5363 75.0022 30.4068 -39.0029 0.0000 0.0000 0.0000
51.6187 -118.0959 -0.0239 0.0000 0.0000 0.0000 -0.0637 -18.7914 0.0105 0.0000 0.0000 0.0000 0.0000 0.0000 0.0000 0.0000 0.0000 0.0000 0.0000 0.0000 0.0000 0.0000 0.0000 0.0000 -82.6755 -7.3263 -8.3249 -72.6613 26.5847 35.6197 0.0000 0.0000 0.0000 0.0000 0.0000 0.0000 84.7868 -2.0945 2.2942 81.0095 27.4141 -31.8709 0.0000 0.0000 0.0000
51.6116 -118.6047 -0.0254 0.0000 0.0000 0.0000 -0.0700 -18.4691 0.0114 0.0000 0.0000 0.0000 0.0000 0.0000 0.0000 0.0000 0.0000 0.0000 0.0000 0.0000 0.0000 0.0000 0.0000 0.0000 -83.5233 -4.3615 -4.8840 -67.8975 28.8597 41.8354 0.0000 0.0000 0.0000 0.0000 0.0000 0.0000 84.8023 -1.6750 1.8342 80.7371 27.1502 -31.7129 0.0000 0.0000 0.0000
51.5954 -119.2997 -0.0275 0.0000 0.0000 0.0000 -0.0859 -16.8118 0.0127 0.0000 0.0000 0.0000 0.0000 0.0000 0.0000 0.0000 0.0000 0.0000 0.0000 0.0000 0.0000 0.0000 0.0000 0.0000 -83.7188 -4.0779 -4.5509 -70.0085 28.0970 39.3241 0.0000 0.0000 0.0000 0.0000 0.0000 0.0000 83.7033 -7.4840 8.3524 85.3368 23.3181 -25.2365 0.0000 0.0000 0.0000
51.6063 -120.0780 -0.0286 0.0000 0.0000 0.0000 -0.0723 -17.0303 0.0108 0.0000 0.0000 0.0000 0.0000 0.0000 0.0000 0.0000 0.0000 0.0000 0.0000 0.0000 0.0000 0.0000 0.0000 0.0000 -83.7775 -4.7029 -5.2429 -70.8114 27.6663 38.2138 0.0000 0.0000 0.0000 0.0000 0.0000 0.0000 84.5926 -3.4193 3.7581 82.8743 24.3379 -27.4544 0.0000 0.0000 0.0000
51.6068 -121.1663 -0.0295 0.0000 0.0000 0.0000 -0.0716 -17.3823 0.0109 0.0000 0.0000 0.0000 0.0000 0.0000 0.0000 0.0000 0.0000 0.0000 0.0000 0.0000 0.0000 0.0000 0.0000 0.0000 -84.1916 -3.7014 -4.0967 -70.6979 27.8012 38.4682 0.0000 0.0000 0.0000 0.0000 0.0000 0.0000 84.6360 -3.0878 3.3911 79.7294 26.4168 -31.3964 0.0000 0.0000 0.0000
51.5882 -121.4490 -0.0314 0.0000 0.0000 0.0000 -0.0876 -18.4760 0.0143 0.0000 0.0000 0.0000 0.0000 0.0000 0.0000 0.0000 0.0000 0.0000 0.0000 0.0000 0.0000 0.0000 0.0000 0.0000 -83.7770 -6.8937 -7.6840 -74.8851 26.2440 33.8636 0.0000 0.0000 0.0000 0.0000 0.0000 0.0000 84.1324 -5.4710 6.0610 80.4779 26.1067 -30.6437 0.0000 0.0000 0.0000
51.5966 -121.5832 -0.0319 0.0000 0.0000 0.0000 -0.0753 -18.9368 0.0126 0.0000 0.0000 0.0000 0.0000 0.0000 0.0000 0.0000 0.0000 0.0000 0.0000 0.0000 0.0000 0.0000 0.0000 0.0000 -83.9116 -6.8154 -7.5789 -71.5692 27.6351 37.6802 0.0000 0.0000 0.0000 0.0000 0.0000 0.0000 84.4307 -3.3223 3.6618 77.5557 27.6534 -34.0650 0.0000 0.0000 0.0000
51.6077 -121.5595 -0.0314 0.0000 0.0000 0.0000 -0.0619 -19.8011 0.0108 0.0000 0.0000 0.0000 0.0000 0.0000 0.0000 0.0000 0.0000 0.0000 0.0000 0.0000 0.0000 0.0000 0.0000 0.0000 -83.5891 -8.3529 -9.3399 -74.1184 26.3136 34.3981 0.0000 0.0000 0.0000 0.0000 0.0000 0.0000 83.9170 -6.1248 6.8107 80.5065 26.0051 -30.5113 0.0000 0.0000 0.0000
51.6187 -121.4954 -0.0311 0.0000 0.0000 0.0000 -0.0440 -19.2776 0.0075 0.0000 0.0000 0.0000 0.0000 0.0000 0.0000 0.0000 0.0000 0.0000 0.0000 0.0000 0.0000 0.0000 0.0000 0.0000 -83.7766 -8.0098 -8.9272 -73.2218 26.4972 35.1666 0.0000 0.0000 0.0000 0.0000 0.0000 0.0000 83.1972 -8.6344 9.7207 84.7587 22.7247 -24.8399 0.0000 0.0000 0.0000
51.6086 -121.4544 -0.0303 0.0000 0.0000 0.0000 -0.0524 -18.9927 0.0088 0.0000 0.0000 0.0000 0.0000 0.0000 0.0000 0.0000 0.0000 0.0000 0.0000 0.0000 0.0000 0.0000 0.0000 0.0000 -83.7236 -8.2122 -9.1611 -78.2023 23.6913 28.9420 0.0000 0.0000 0.0000 0.0000 0.0000 0.0000 82.8896 -9.3694 10.6041 85.9426 21.6559 -23.2047 0.0000 0.0000 0.0000
51.6109 -121.5613 -0.0283 0.0000 0.0000 0.0000 -0.0388 -17.2789 0.0059 0.0000 0.0000 0.0000 0.0000 0.0000 0.0000 0.0000 0.0000 0.0000 0.0000 0.0000 0.0000 0.0000 0.0000 0.0000 -83.9794 -7.4944 -8.3236 -77.1957 24.3566 30.2579 0.0000 0.0000 0.0000 0.0000 0.0000 0.0000 81.7562 -11.8866 13.7164 86.6819 20.4740 -21.6673 0.0000 0.0000 0.0000
51.5997 -121.5791 -0.0286 0.0000 0.0000 0.0000 -0.0371 -18.9089 0.0062 0.0000 0.0000 0.0000 0.0000 0.0000 0.0000 0.0000 0.0000 0.0000 0.0000 0.0000 0.0000 0.0000 0.0000 0.0000 -83.8584 -8.0559 -8.9657 -78.6179 23.3030 28.2726 0.0000 0.0000 0.0000 0.0000 0.0000 0.0000 81.1876 -12.8951 15.0254 82.1164 24.6018 -28.1077 0.0000 0.0000 0.0000
51.5977 -121.6255 -0.0275 0.0000 0.0000 0.0000 -0.0231 -17.3216 0.0035 0.0000 0.0000 0.0000 0.0000 0.0000 0.0000 0.0000 0.0000 0.0000 0.0000 0.0000 0.0000 0.0000 0.0000 0.0000 -84.3210 -6.7559 -7.4591 -78.8771 23.0277 27.8193 0.0000 0.0000 0.0000 0.0000 0.0000 0.0000 81.8338 -11.6892 13.4709 86.6155 20.3007 -21.5088 0.0000 0.0000 0.0000
51.5986 -121.7462 -0.0290 0.0000 0.0000 0.0000 -0.0051 -18.9198 0.0009 0.0000 0.0000 0.0000 0.0000 0.0000 0.0000 0.0000 0.0000 0.0000 0.0000 0.0000 0.0000 0.0000 0.0000 0.0000 -83.9228 -8.1174 -9.0239 -77.3669 24.2134 29.9950 0.0000 0.0000 0.0000 0.0000 0.0000 0.0000 84.3932 -2.9419 3.2447 78.2399 27.0015 -32.8957 0.0000 0.0000 0.0000
51.5279 -121.8738 -0.0294 0.0000 0.0000 0.0000 -0.0495 -18.8634 0.0082 0.0000 0.0000 0.0000 0.0000 0.0000 0.0000 0.0000 0.0000 0.0000 0.0000 0.0000 0.0000 0.0000 0.0000 0.0000 -84.2631 -7.0765 -7.8208 -78.4183 23.5065 28.6136 0.0000 0.0000 0.0000 0.0000 0.0000 0.0000 84.1415 -4.7467 5.2580 82.1172 24.3596 -27.8331 0.0000 0.0000 0.0000
51.4843 -121.9371 -0.0293 0.0000 0.0000 0.0000 -0.0537 -19.2034 0.0091 0.0000 0.0000 0.0000 0.0000 0.0000 0.0000 0.0000 0.0000 0.0000 0.0000 0.0000 0.0000 0.0000 0.0000 0.0000 -83.0584 -10.2775 -11.5962 -82.1354 20.6053 23.5674 0.0000 0.0000 0.0000 0.0000 0.0000 0.0000 83.8218 -5.8890 6.5595 82.4432 24.3353 -27.6525 0.0000 0.0000 0.0000
51.5302 -121.9832 -0.0293 0.0000 0.0000 0.0000 0.0095 -17.1424 -0.0014 0.0000 0.0000 0.0000 0.0000 0.0000 0.0000 0.0000 0.0000 0.0000 0.0000 0.0000 0.0000 0.0000 0.0000 0.0000 -81.5404 -13.2376 -15.3286 -84.7939 16.5076 18.0553 0.0000 0.0000 0.0000 0.0000 0.0000 0.0000 84.1520 -3.8792 4.2964 84.1534 22.7470 -25.1211 0.0000 0.0000 0.0000
51.4660 -122.0104 -0.0305 0.0000 0.0000 0.0000 -0.0035 -17.6894 0.0005 0.0000 0.0000 0.0000 0.0000 0.0000 0.0000 0.0000 0.0000 0.0000 0.0000 0.0000 0.0000 0.0000 0.0000 0.0000 -82.8410 -10.5616 -11.9615 -75.8083 23.9332 30.4559 0.0000 0.0000 0.0000 0.0000 0.0000 0.0000 83.3631 -7.2217 8.1080 84.2350 22.8798 -25.2319 0.0000 0.0000 0.0000
51.3697 -121.9612 -0.0261 0.0000 0.0000 0.0000 -0.0625 -17.6892 0.0097 0.0000 0.0000 0.0000 0.0000 0.0000 0.0000 0.0000 0.0000 0.0000 0.0000 0.0000 0.0000 0.0000 0.0000 0.0000 -84.9538 -2.6042 -2.8442 -71.7412 26.6041 36.2118 0.0000 0.0000 0.0000 0.0000 0.0000 0.0000 76.5311 -18.3497 23.1445 92.4693 12.2371 -11.7245 0.0000 0.0000 0.0000
51.4566 -122.0589 -0.0264 0.0000 0.0000 0.0000 0.0374 -17.6062 -0.0058 0.0000 0.0000 0.0000 0.0000 0.0000 0.0000 0.0000 0.0000 0.0000 0.0000 0.0000 0.0000 0.0000 0.0000 0.0000 -84.7184 -4.2212 -4.6290 -71.9301 26.2557 35.6360 0.0000 0.0000 0.0000 0.0000 0.0000 0.0000 82.3673 -9.0035 10.2841 78.3493 27.0799 -32.9287 0.0000 0.0000 0.0000
51.2121 -121.9676 -0.0288 0.0000 0.0000 0.0000 -0.1504 -16.0468 0.0212 0.0000 0.0000 0.0000 0.0000 0.0000 0.0000 0.0000 0.0000 0.0000 0.0000 0.0000 0.0000 0.0000 0.0000 0.0000 -84.1145 -6.6778 -7.3997 -76.5909 23.0148 28.9151 0.0000 0.0000 0.0000 0.0000 0.0000 0.0000 79.3499 -14.5758 17.5296 89.9640 16.5646 -16.5749 0.0000 0.0000 0.0000
51.2277 -121.8775 -0.0291 0.0000 0.0000 0.0000 -0.1178 -18.4543 0.0191 0.0000 0.0000 0.0000 0.0000 0.0000 0.0000 0.0000 0.0000 0.0000 0.0000 0.0000 0.0000 0.0000 0.0000 0.0000 -84.6402 -3.9955 -4.3875 -73.2309 25.3672 33.7001 0.0000 0.0000 0.0000 0.0000 0.0000 0.0000 83.0181 -6.6805 7.5462 83.8768 23.3432 -25.8968 0.0000 0.0000 0.0000
51.2274 -121.9526 -0.0268 0.0000 0.0000 0.0000 -0.1057 -16.7025 0.0155 0.0000 0.0000 0.0000 0.0000 0.0000 0.0000 0.0000 0.0000 0.0000 0.0000 0.0000 0.0000 0.0000 0.0000 0.0000 -84.6721 -3.8151 -4.1871 -72.8636 25.4526 34.0249 0.0000 0.0000 0.0000 0.0000 0.0000 0.0000 78.2636 -15.9170 19.5001 90.6668 15.4831 -15.3061 0.0000 0.0000 0.0000
51.1692 -121.9908 -0.0282 0.0000 0.0000 0.0000 -0.1535 -18.7519 0.0253 0.0000 0.0000 0.0000 0.0000 0.0000 0.0000 0.0000 0.0000 0.0000 0.0000 0.0000 0.0000 0.0000 0.0000 0.0000 -84.1668 -6.3971 -7.0822 -77.6032 22.7847 28.1368 0.0000 0.0000 0.0000 0.0000 0.0000 0.0000 79.7477 -13.3991 16.0085 79.0204 26.6099 -32.0027 0.0000 0.0000 0.0000
51.2888 -121.9818 -0.0272 0.0000 0.0000 0.0000 -0.0440 -19.4125 0.0075 0.0000 0.0000 0.0000 0.0000 0.0000 0.0000 0.0000 0.0000 0.0000 0.0000 0.0000 0.0000 0.0000 0.0000 0.0000 -83.8807 -7.3470 -8.1741 -77.7182 22.6815 27.9560 0.0000 0.0000 0.0000 0.0000 0.0000 0.0000 81.9688 -7.5457 8.6810 76.4748 28.8454 -36.1510 0.0000 0.0000 0.0000
51.3118 -120.3059 -0.0200 0.0000 0.0000 0.0000 -0.0228 -15.0487 0.0030 0.0000 0.0000 0.0000 0.0000 0.0000 0.0000 0.0000 0.0000 0.0000 0.0000 0.0000 0.0000 0.0000 0.0000 0.0000 -84.7425 -2.3304 -2.5546 -70.8608 27.1485 37.4915 0.0000 0.0000 0.0000 0.0000 0.0000 0.0000 63.6888 24.7963 -38.9815 11.4594 11.5180 -90.2946 0.0000 0.0000 0.0000
51.3386 -118.4785 -0.0196 0.0000 0.0000 0.0000 -0.0062 -8.5439 0.0005 0.0000 0.0000 0.0000 0.0000 0.0000 0.0000 0.0000 0.0000 0.0000 0.0000 0.0000 0.0000 0.0000 0.0000 0.0000 -84.2192 -5.3427 -5.9100 -79.4643 22.3745 26.7691 0.0000 0.0000 0.0000 0.0000 0.0000 0.0000 57.5563 26.1211 -45.7939 2.6667 2.7210 -91.1556 0.0000 0.0000 0.0000
51.0517 -117.3641 -0.0166 0.0000 0.0000 0.0000 -0.2317 -10.1805 0.0206 0.0000 0.0000 0.0000 0.0000 0.0000 0.0000 0.0000 0.0000 0.0000 0.0000 0.0000 0.0000 0.0000 0.0000 0.0000 -84.3197 -4.1675 -4.6022 -73.3965 25.8857 34.2737 0.0000 0.0000 0.0000 0.0000 0.0000 0.0000 55.3753 26.1121 -47.6845 -3.4477 -3.4693 -90.3574 0.0000 0.0000 0.0000
50.8735 -115.7242 -0.0191 0.0000 0.0000 0.0000 -0.4701 -9.5659 0.0393 0.0000 0.0000 0.0000 0.0000 0.0000 0.0000 0.0000 0.0000 0.0000 0.0000 0.0000 0.0000 0.0000 0.0000 0.0000 -81.6998 -12.0483 -13.9162 -89.2819 3.4306 3.4739 0.0000 0.0000 0.0000 0.0000 0.0000 0.0000 59.5265 24.3911 -41.4071 -10.7658 -10.6576 -89.4179 0.0000 0.0000 0.0000
50.7380 -115.0566 -0.0179 0.0000 0.0000 0.0000 -0.6258 -3.1824 0.0174 0.0000 0.0000 0.0000 0.0000 0.0000 0.0000 0.0000 0.0000 0.0000 0.0000 0.0000 0.0000 0.0000 0.0000 0.0000 -80.0181 -14.3961 -17.1135 -89.4596 0.3798 0.3834 0.0000 0.0000 0.0000 0.0000 0.0000 0.0000 64.5578 22.0410 -34.2709 -15.2698 -14.7752 -88.0919 0.0000 0.0000 0.0000
50.7361 -114.0964 -0.0204 0.0000 0.0000 0.0000 -0.6416 -5.8942 0.0330 0.0000 0.0000 0.0000 0.0000 0.0000 0.0000 0.0000 0.0000 0.0000 0.0000 0.0000 0.0000 0.0000 0.0000 0.0000 -80.7825 -12.8087 -15.0311 -88.8882 3.5456 3.6151 0.0000 0.0000 0.0000 0.0000 0.0000 0.0000 63.0722 22.1351 -35.3589 -21.5196 -20.0534 -85.8703 0.0000 0.0000 0.0000
50.7166 -114.5473 -0.0203 0.0000 0.0000 0.0000 -0.7056 -6.8043 0.0420 0.0000 0.0000 0.0000 0.0000 0.0000 0.0000 0.0000 0.0000 0.0000 0.0000 0.0000 0.0000 0.0000 0.0000 0.0000 -81.1890 -11.9454 -13.9215 -88.4989 5.8867 6.0427 0.0000 0.0000 0.0000 0.0000 0.0000 0.0000 58.9081 23.2243 -39.9915 -23.5526 -21.7742 -85.3873 0.0000 0.0000 0.0000
50.5787 -114.9036 -0.0219 0.0000 0.0000 0.0000 -0.8786 -8.4023 0.0645 0.0000 0.0000 0.0000 0.0000 0.0000 0.0000 0.0000 0.0000 0.0000 0.0000 0.0000 0.0000 0.0000 0.0000 0.0000 -81.4932 -11.4977 -13.3299 -88.2116 7.4536 7.6892 0.0000 0.0000 0.0000 0.0000 0.0000 0.0000 54.8695 23.8906 -44.3450 -27.6396 -24.4972 -82.8593 0.0000 0.0000 0.0000
50.5503 -115.1477 -0.0245 0.0000 0.0000 0.0000 -0.9353 -7.7792 0.0636 0.0000 0.0000 0.0000 0.0000 0.0000 0.0000 0.0000 0.0000 0.0000 0.0000 0.0000 0.0000 0.0000 0.0000 0.0000 -83.4093 -6.3262 -7.0974 -82.2445 18.4780 21.1084 0.0000 0.0000 0.0000 0.0000 0.0000 0.0000 53.2522 23.9303 -45.8290 -26.3211 -23.6778 -83.7520 0.0000 0.0000 0.0000
50.5221 -115.3495 -0.0262 0.0000 0.0000 0.0000 -0.9629 -9.7705 0.0823 0.0000 0.0000 0.0000 0.0000 0.0000 0.0000 0.0000 0.0000 0.0000 0.0000 0.0000 0.0000 0.0000 0.0000 0.0000 -83.1925 -7.0427 -7.9308 -84.5143 15.0573 16.5526 0.0000 0.0000 0.0000 0.0000 0.0000 0.0000 46.6201 24.4617 -53.4136 -24.2468 -22.2405 -84.9198 0.0000 0.0000 0.0000
50.4978 -115.4474 -0.0256 0.0000 0.0000 0.0000 -0.9848 -17.5055 0.1516 0.0000 0.0000 0.0000 0.0000 0.0000 0.0000 0.0000 0.0000 0.0000 0.0000 0.0000 0.0000 0.0000 0.0000 0.0000 -81.0700 -12.2771 -14.3368 -88.6871 6.8326 6.9906 0.0000 0.0000 0.0000 0.0000 0.0000 0.0000 51.7886 24.1183 -47.5065 -27.5223 -24.4726 -83.0519 0.0000 0.0000 0.0000
50.4410 -115.4775 -0.0259 0.0000 0.0000 0.0000 -1.0318 -13.6964 0.1239 0.0000 0.0000 0.0000 0.0000 0.0000 0.0000 0.0000 0.0000 0.0000 0.0000 0.0000 0.0000 0.0000 0.0000 0.0000 -79.3497 -15.0042 -18.0423 -89.4254 -0.9005 -0.9096 0.0000 0.0000 0.0000 0.0000 0.0000 0.0000 50.6614 24.2157 -48.7601 -28.3564 -25.0622 -82.6817 0.0000 0.0000 0.0000
50.3993 -115.5728 -0.0269 0.0000 0.0000 0.0000 -1.0678 -13.0999 0.1226 0.0000 0.0000 0.0000 0.0000 0.0000 0.0000 0.0000 0.0000 0.0000 0.0000 0.0000 0.0000 0.0000 0.0000 0.0000 -81.6187 -11.2188 -12.9787 -88.4453 7.9669 8.1853 0.0000 0.0000 0.0000 0.0000 0.0000 0.0000 52.2069 24.0659 -47.0222 -25.7677 -23.3954 -84.3024 0.0000 0.0000 0.0000
50.3101 -115.6390 -0.0267 0.0000 0.0000 0.0000 -1.1349 -13.6781 0.1361 0.0000 0.0000 0.0000 0.0000 0.0000 0.0000 0.0000 0.0000 0.0000 0.0000 0.0000 0.0000 0.0000 0.0000 0.0000 -81.6838 -11.0823 -12.8065 -89.2241 0.2128 0.2157 0.0000 0.0000 0.0000 0.0000 0.0000 0.0000 52.2016 24.1289 -47.1401 -27.0066 -24.2275 -83.5795 0.0000 0.0000 0.0000
50.2094 -115.6793 -0.0267 0.0000 0.0000 0.0000 -1.2186 -15.6652 0.1676 0.0000 0.0000 0.0000 0.0000 0.0000 0.0000 0.0000 0.0000 0.0000 0.0000 0.0000 0.0000 0.0000 0.0000 0.0000 -80.3519 -13.5034 -15.9631 -89.1508 0.6519 0.6617 0.0000 0.0000 0.0000 0.0000 0.0000 0.0000 50.9229 24.3532 -48.7580 -24.5510 -22.5481 -84.9906 0.0000 0.0000 0.0000
50.2002 -115.7312 -0.0265 0.0000 0.0000 0.0000 -1.1963 -15.3810 0.1615 0.0000 0.0000 0.0000 0.0000 0.0000 0.0000 0.0000 0.0000 0.0000 0.0000 0.0000 0.0000 0.0000 0.0000 0.0000 -79.2088 -15.0290 -18.1165 -88.9977 0.4523 0.4603 0.0000 0.0000 0.0000 0.0000 0.0000 0.0000 52.0355 24.2503 -47.5126 -24.4992 -22.5103 -85.0163 0.0000 0.0000 0.0000
50.1791 -115.9473 -0.0261 0.0000 0.0000 0.0000 -1.1940 -15.1085 0.1583 0.0000 0.0000 0.0000 0.0000 0.0000 0.0000 0.0000 0.0000 0.0000 0.0000 0.0000 0.0000 0.0000 0.0000 0.0000 -78.4292 -15.6697 -19.1435 -88.4632 -5.4217 -5.5689 0.0000 0.0000 0.0000 0.0000 0.0000 0.0000 53.9036 23.9249 -45.2417 -25.3359 -23.1278 -84.6244 0.0000 0.0000 0.0000
50.1797 -115.9889 -0.0269 0.0000 0.0000 0.0000 -1.1838 -13.5400 0.1405 0.0000 0.0000 0.0000 0.0000 0.0000 0.0000 0.0000 0.0000 0.0000 0.0000 0.0000 0.0000 0.0000 0.0000 0.0000 -78.8842 -14.8214 -17.9692 -89.0436 -1.3625 -1.3854 0.0000 0.0000 0.0000 0.0000 0.0000 0.0000 55.4238 23.5824 -43.3468 -27.5462 -24.6253 -83.3654 0.0000 0.0000 0.0000
50.1620 -115.9767 -0.0266 0.0000 0.0000 0.0000 -1.1512 -15.3582 0.1552 0.0000 0.0000 0.0000 0.0000 0.0000 0.0000 0.0000 0.0000 0.0000 0.0000 0.0000 0.0000 0.0000 0.0000 0.0000 -76.5697 -16.9310 -21.3567 -89.1790 -3.9308 -3.9875 0.0000 0.0000 0.0000 0.0000 0.0000 0.0000 53.1619 24.0795 -46.1741 -25.5496 -23.2635 -84.4721 0.0000 0.0000 0.0000
50.1716 -115.9335 -0.0266 0.0000 0.0000 0.0000 -1.0735 -15.4806 0.1459 0.0000 0.0000 0.0000 0.0000 0.0000 0.0000 0.0000 0.0000 0.0000 0.0000 0.0000 0.0000 0.0000 0.0000 0.0000 -75.3305 -17.7193 -22.8325 -88.7906 -7.1570 -7.3093 0.0000 0.0000 0.0000 0.0000 0.0000 0.0000 53.4537 24.0912 -45.9326 -26.6272 -23.9757 -83.8027 0.0000 0.0000 0.0000
50.1543 -115.2507 -0.0259 0.0000 0.0000 0.0000 -1.0608 -17.1304 0.1598 0.0000 0.0000 0.0000 0.0000 0.0000 0.0000 0.0000 0.0000 0.0000 0.0000 0.0000 0.0000 0.0000 0.0000 0.0000 -75.4535 -17.0622 -21.9467 -89.3990 -5.8092 -5.8703 0.0000 0.0000 0.0000 0.0000 0.0000 0.0000 51.4813 24.4106 -48.3252 -25.5149 -23.2169 -84.4346 0.0000 0.0000 0.0000
50.1156 -115.1118 -0.0255 0.0000 0.0000 0.0000 -1.0529 -18.1580 0.1683 0.0000 0.0000 0.0000 0.0000 0.0000 0.0000 0.0000 0.0000 0.0000 0.0000 0.0000 0.0000 0.0000 0.0000 0.0000 -72.9891 -18.7011 -25.0959 -90.0292 -12.9385 -12.9319 0.0000 0.0000 0.0000 0.0000 0.0000 0.0000 54.0281 24.0366 -45.3277 -26.6003 -23.9445 -83.7858 0.0000 0.0000 0.0000
50.2608 -114.5993 -0.0256 0.0000 0.0000 0.0000 -0.8831 -16.5679 0.1286 0.0000 0.0000 0.0000 0.0000 0.0000 0.0000 0.0000 0.0000 0.0000 0.0000 0.0000 0.0000 0.0000 0.0000 0.0000 -72.3938 -18.5965 -25.2219 -99.8126 -3.8985 -3.2825 0.0000 0.0000 0.0000 0.0000 0.0000 0.0000 55.6571 23.6875 -43.3326 -27.2645 -24.3885 -83.4061 0.0000 0.0000 0.0000
50.3755 -114.4873 -0.0238 0.0000 0.0000 0.0000 -0.7179 -15.6169 0.0984 0.0000 0.0000 0.0000 0.0000 0.0000 0.0000 0.0000 0.0000 0.0000 0.0000 0.0000 0.0000 0.0000 0.0000 0.0000 -79.6899 4.6205 5.5356 -14.2479 14.4777 90.9265 0.0000 0.0000 0.0000 0.0000 0.0000 0.0000 56.4754 23.4712 -42.2948 -25.4604 -23.2703 -84.6956 0.0000 0.0000 0.0000
50.4349 -109.9043 -0.0219 0.0000 0.0000 0.0000 -0.6987 -15.9830 0.0981 0.0000 0.0000 0.0000 0.0000 0.0000 0.0000 0.0000 0.0000 0.0000 0.0000 0.0000 0.0000 0.0000 0.0000 0.0000 -75.2980 12.9833 16.7808 1.4549 -1.5774 94.6265 0.0000 0.0000 0.0000 0.0000 0.0000 0.0000 57.7417 23.0884 -40.6547 -26.3717 -24.0050 -84.4438 0.0000 0.0000 0.0000
50.0930 -108.6832 -0.0208 0.0000 0.0000 0.0000 -1.0381 -13.4076 0.1220 0.0000 0.0000 0.0000 0.0000 0.0000 0.0000 0.0000 0.0000 0.0000 0.0000 0.0000 0.0000 0.0000 0.0000 0.0000 -71.9993 16.5445 22.6324 8.1489 -8.8146 94.5113 0.0000 0.0000 0.0000 0.0000 0.0000 0.0000 61.1705 21.8772 -36.2146 -25.8561 -23.7984 -85.1027 0.0000 0.0000 0.0000
50.0560 -107.3507 -0.0226 0.0000 0.0000 0.0000 -0.9171 -13.9260 0.1120 0.0000 0.0000 0.0000 0.0000 0.0000 0.0000 0.0000 0.0000 0.0000 0.0000 0.0000 0.0000 0.0000 0.0000 0.0000 -74.8985 10.8696 14.1617 23.6687 -23.9541 90.7069 0.0000 0.0000 0.0000 0.0000 0.0000 0.0000 63.1396 21.0772 -33.6879 -32.4823 -28.1003 -81.3310 0.0000 0.0000 0.0000
50.0405 -106.5495 -0.0230 0.0000 0.0000 0.0000 -0.8115 -17.3767 0.1240 0.0000 0.0000 0.0000 0.0000 0.0000 0.0000 0.0000 0.0000 0.0000 0.0000 0.0000 0.0000 0.0000 0.0000 0.0000 -65.8794 19.2978 29.4064 21.0714 -21.5185 91.2309 0.0000 0.0000 0.0000 0.0000 0.0000 0.0000 64.7508 20.1900 -31.3704 -28.8708 -26.0531 -83.8964 0.0000 0.0000 0.0000
50.0390 -106.4296 -0.0237 0.0000 0.0000 0.0000 -0.6827 -16.5393 0.0992 0.0000 0.0000 0.0000 0.0000 0.0000 0.0000 0.0000 0.0000 0.0000 0.0000 0.0000 0.0000 0.0000 0.0000 0.0000 -64.8790 19.4891 30.2402 22.5403 -22.6062 90.1717 0.0000 0.0000 0.0000 0.0000 0.0000 0.0000 62.0717 21.6137 -35.2017 -29.9464 -26.9417 -83.6987 0.0000 0.0000 0.0000
50.0608 -106.0930 -0.0241 0.0000 0.0000 0.0000 -0.6134 -18.0365 0.0973 0.0000 0.0000 0.0000 0.0000 0.0000 0.0000 0.0000 0.0000 0.0000 0.0000 0.0000 0.0000 0.0000 0.0000 0.0000 -62.2528 20.7515 33.7353 26.1492 -25.6338 88.8197 0.0000 0.0000 0.0000 0.0000 0.0000 0.0000 59.0955 22.8540 -39.2487 -31.3930 -28.1297 -83.4341 0.0000 0.0000 0.0000
50.2112 -106.2266 -0.0251 0.0000 0.0000 0.0000 -0.3951 -18.2691 0.0635 0.0000 0.0000 0.0000 0.0000 0.0000 0.0000 0.0000 0.0000 0.0000 0.0000 0.0000 0.0000 0.0000 0.0000 0.0000 -63.5262 19.9417 31.7036 30.7584 -29.2092 86.9009 0.0000 0.0000 0.0000 0.0000 0.0000 0.0000 60.7573 22.3420 -37.2356 -33.3788 -29.6663 -82.9095 0.0000 0.0000 0.0000
50.2387 -106.1806 -0.0263 0.0000 0.0000 0.0000 -0.1341 -13.9190 0.0164 0.0000 0.0000 0.0000 0.0000 0.0000 0.0000 0.0000 0.0000 0.0000 0.0000 0.0000 0.0000 0.0000 0.0000 0.0000 -64.2403 19.4770 30.5798 37.5756 -33.3577 82.7420 0.0000 0.0000 0.0000 0.0000 0.0000 0.0000 61.2966 22.6467 -37.3446 -34.9698 -30.9776 -82.6763 0.0000 0.0000 0.0000
50.2631 -106.2575 -0.0262 0.0000 0.0000 0.0000 -0.0066 -11.5818 0.0007 0.0000 0.0000 0.0000 0.0000 0.0000 0.0000 0.0000 0.0000 0.0000 0.0000 0.0000 0.0000 0.0000 0.0000 0.0000 -62.4672 20.5704 33.3182 40.4928 -35.2863 81.5407 0.0000 0.0000 0.0000 0.0000 0.0000 0.0000 60.4444 23.3754 -39.1014 -33.0201 -30.4159 -85.0502 0.0000 0.0000 0.0000
50.3284 -106.2307 -0.0267 0.0000 0.0000 0.0000 0.0823 -12.5819 -0.0091 0.0000 0.0000 0.0000 0.0000 0.0000 0.0000 0.0000 0.0000 0.0000 0.0000 0.0000 0.0000 0.0000 0.0000 0.0000 -63.5208 19.9246 31.6805 34.6558 -32.4317 85.9768 0.0000 0.0000 0.0000 0.0000 0.0000 0.0000 60.4929 23.6332 -39.4755 -32.4719 -30.5585 -86.3410 0.0000 0.0000 0.0000
50.3383 -106.1334 -0.0269 0.0000 0.0000 0.0000 0.0906 -13.0886 -0.0104 0.0000 0.0000 0.0000 0.0000 0.0000 0.0000 0.0000 0.0000 0.0000 0.0000 0.0000 0.0000 0.0000 0.0000 0.0000 -67.5843 17.2478 25.5371 50.9262 -39.6644 74.2797 0.0000 0.0000 0.0000 0.0000 0.0000 0.0000 62.0208 23.4313 -38.0675 -33.3308 -31.4351 -86.4617 0.0000 0.0000 0.0000
50.3753 -106.1065 -0.0270 0.0000 0.0000 0.0000 0.1299 -12.9535 -0.0147 0.0000 0.0000 0.0000 0.0000 0.0000 0.0000 0.0000 0.0000 0.0000 0.0000 0.0000 0.0000 0.0000 0.0000 0.0000 -66.6335 18.4203 27.7148 43.9916 -37.2560 79.6887 0.0000 0.0000 0.0000 0.0000 0.0000 0.0000 61.2031 23.8798 -39.3478 -31.1926 -30.3826 -88.4177 0.0000 0.0000 0.0000
50.3765 -105.9625 -0.0271 0.0000 0.0000 0.0000 0.1046 -12.5722 -0.0115 0.0000 0.0000 0.0000 0.0000 0.0000 0.0000 0.0000 0.0000 0.0000 0.0000 0.0000 0.0000 0.0000 0.0000 0.0000 -66.6495 18.8030 28.2695 44.9511 -37.6137 78.9211 0.0000 0.0000 0.0000 0.0000 0.0000 0.0000 60.4184 24.2827 -40.5590 -29.6492 -29.5508 -89.8008 0.0000 0.0000 0.0000
50.4616 -106.0151 -0.0266 0.0000 0.0000 0.0000 0.1894 -12.9147 -0.0214 0.0000 0.0000 0.0000 0.0000 0.0000 0.0000 0.0000 0.0000 0.0000 0.0000 0.0000 0.0000 0.0000 0.0000 0.0000 -66.5078 19.2881 29.0566 46.8338 -38.2380 77.3488 0.0000 0.0000 0.0000 0.0000 0.0000 0.0000 60.3698 24.3365 -40.6805 -31.1055 -30.9364 -89.6718 0.0000 0.0000 0.0000
50.4599 -106.0263 -0.0268 0.0000 0.0000 0.0000 0.1852 -12.9344 -0.0210 0.0000 0.0000 0.0000 0.0000 0.0000 0.0000 0.0000 0.0000 0.0000 0.0000 0.0000 0.0000 0.0000 0.0000 0.0000 -70.0314 16.4803 23.3572 57.4577 -41.1509 68.8097 0.0000 0.0000 0.0000 0.0000 0.0000 0.0000 60.7606 24.3671 -40.4370 -31.4366 -31.1298 -89.4091 0.0000 0.0000 0.0000
50.4809 -106.0000 -0.0265 0.0000 0.0000 0.0000 0.2082 -12.6344 -0.0230 0.0000 0.0000 0.0000 0.0000 0.0000 0.0000 0.0000 0.0000 0.0000 0.0000 0.0000 0.0000 0.0000 0.0000 0.0000 -68.2801 18.2832 26.7007 43.1095 -36.6804 80.0068 0.0000 0.0000 0.0000 0.0000 0.0000 0.0000 60.4772 24.4448 -40.7711 -30.0949 -30.1596 -90.1289 0.0000 0.0000 0.0000
50.4745 -106.0227 -0.0271 0.0000 0.0000 0.0000 0.1992 -13.2765 -0.0232 0.0000 0.0000 0.0000 0.0000 0.0000 0.0000 0.0000 0.0000 0.0000 0.0000 0.0000 0.0000 0.0000 0.0000 0.0000 -68.5544 18.1051 26.3145 46.3636 -37.9368 77.5039 0.0000 0.0000 0.0000 0.0000 0.0000 0.0000 58.4390 24.9800 -43.2102 -29.0129 -29.3876 -90.7680 0.0000 0.0000 0.0000
50.4805 -105.8856 -0.0269 0.0000 0.0000 0.0000 0.2114 -13.2630 -0.0246 0.0000 0.0000 0.0000 0.0000 0.0000 0.0000 0.0000 0.0000 0.0000 0.0000 0.0000 0.0000 0.0000 0.0000 0.0000 -68.5281 18.1292 26.3614 46.5026 -37.9134 77.2795 0.0000 0.0000 0.0000 0.0000 0.0000 0.0000 59.3936 24.7501 -42.0847 -30.9366 -30.8022 -89.7381 0.0000 0.0000 0.0000
50.4563 -105.8257 -0.0268 0.0000 0.0000 0.0000 0.2003 -13.3645 -0.0235 0.0000 0.0000 0.0000 0.0000 0.0000 0.0000 0.0000 0.0000 0.0000 0.0000 0.0000 0.0000 0.0000 0.0000 0.0000 -68.3893 18.2064 26.5381 46.3809 -37.8540 77.3490 0.0000 0.0000 0.0000 0.0000 0.0000 0.0000 59.7527 24.6502 -41.6472 -30.8756 -30.7511 -89.7569 0.0000 0.0000 0.0000
50.4542 -105.8362 -0.0264 0.0000 0.0000 0.0000 0.2238 -13.6318 -0.0268 0.0000 0.0000 0.0000 0.0000 0.0000 0.0000 0.0000 0.0000 0.0000 0.0000 0.0000 0.0000 0.0000 0.0000 0.0000 -66.7701 19.4086 29.0945 41.6782 -35.9156 80.8263 0.0000 0.0000 0.0000 0.0000 0.0000 0.0000 60.3934 24.5023 -40.9249 -30.1936 -30.2578 -90.1275 0.0000 0.0000 0.0000
50.4484 -105.7554 -0.0264 0.0000 0.0000 0.0000 0.2465 -12.2624 -0.0265 0.0000 0.0000 0.0000 0.0000 0.0000 0.0000 0.0000 0.0000 0.0000 0.0000 0.0000 0.0000 0.0000 0.0000 0.0000 -65.2030 20.3733 31.3858 38.7195 -34.3859 82.7350 0.0000 0.0000 0.0000 0.0000 0.0000 0.0000 59.6677 24.7364 -41.8502 -28.7153 -29.1271 -90.8515 0.0000 0.0000 0.0000
50.4302 -105.7399 -0.0265 0.0000 0.0000 0.0000 0.2428 -14.0566 -0.0299 0.0000 0.0000 0.0000 0.0000 0.0000 0.0000 0.0000 0.0000 0.0000 0.0000 0.0000 0.0000 0.0000 0.0000 0.0000 -67.0762 19.1593 28.5702 39.7967 -34.9268 81.9907 0.0000 0.0000 0.0000 0.0000 0.0000 0.0000 60.8009 24.4069 -40.4696 -28.9301 -29.2367 -90.6308 0.0000 0.0000 0.0000
50.3943 -105.7157 -0.0258 0.0000 0.0000 0.0000 0.2220 -14.1645 -0.0276 0.0000 0.0000 0.0000 0.0000 0.0000 0.0000 0.0000 0.0000 0.0000 0.0000 0.0000 0.0000 0.0000 0.0000 0.0000 -66.2912 19.6965 29.7739 37.6368 -33.8103 83.4548 0.0000 0.0000 0.0000 0.0000 0.0000 0.0000 61.0906 24.3254 -40.1274 -28.4214 -28.7588 -90.7051 0.0000 0.0000 0.0000
50.3913 -105.7186 -0.0256 0.0000 0.0000 0.0000 0.2377 -14.7657 -0.0308 0.0000 0.0000 0.0000 0.0000 0.0000 0.0000 0.0000 0.0000 0.0000 0.0000 0.0000 0.0000 0.0000 0.0000 0.0000 -67.0199 19.1934 28.6491 39.5502 -34.7923 82.1398 0.0000 0.0000 0.0000 0.0000 0.0000 0.0000 61.6704 24.1632 -39.4520 -28.4631 -28.7061 -90.5078 0.0000 0.0000 0.0000
50.3885 -105.6616 -0.0257 0.0000 0.0000 0.0000 0.2708 -13.9041 -0.0330 0.0000 0.0000 0.0000 0.0000 0.0000 0.0000 0.0000 0.0000 0.0000 0.0000 0.0000 0.0000 0.0000 0.0000 0.0000 -66.0523 19.8188 30.0846 39.4525 -34.7285 82.1813 0.0000 0.0000 0.0000 0.0000 0.0000 0.0000 62.7467 23.7981 -38.1271 -28.4397 -28.6726 -90.4872 0.0000 0.0000 0.0000
50.3841 -105.6586 -0.0257 0.0000 0.0000 0.0000 0.2815 -13.4570 -0.0332 0.0000 0.0000 0.0000 0.0000 0.0000 0.0000 0.0000 0.0000 0.0000 0.0000 0.0000 0.0000 0.0000 0.0000 0.0000 -65.9980 19.8728 30.1943 39.8809 -34.9212 81.8508 0.0000 0.0000 0.0000 0.0000 0.0000 0.0000 62.8505 23.7242 -37.9422 -27.6374 -27.9667 -90.7059 0.0000 0.0000 0.0000
50.3825 -105.6404 -0.0257 0.0000 0.0000 0.0000 0.3077 -13.9995 -0.0378 0.0000 0.0000 0.0000 0.0000 0.0000 0.0000 0.0000 0.0000 0.0000 0.0000 0.0000 0.0000 0.0000 0.0000 0.0000 -64.5998 20.7455 32.2964 36.4047 -33.0626 84.1401 0.0000 0.0000 0.0000 0.0000 0.0000 0.0000 62.8096 23.7597 -38.0248 -26.2037 -26.7570 -91.2409 0.0000 0.0000 0.0000
50.3699 -105.6407 -0.0254 0.0000 0.0000 0.0000 0.2999 -17.8157 -0.0470 0.0000 0.0000 0.0000 0.0000 0.0000 0.0000 0.0000 0.0000 0.0000 0.0000 0.0000 0.0000 0.0000 0.0000 0.0000 -65.0943 20.4639 31.5841 38.1737 -33.9886 82.9044 0.0000 0.0000 0.0000 0.0000 0.0000 0.0000 61.9037 24.0882 -39.1681 -25.8789 -26.4646 -91.3278 0.0000 0.0000 0.0000
50.3684 -105.6450 -0.0252 0.0000 0.0000 0.0000 0.2986 -18.8406 -0.0495 0.0000 0.0000 0.0000 0.0000 0.0000 0.0000 0.0000 0.0000 0.0000 0.0000 0.0000 0.0000 0.0000 0.0000 0.0000 -62.3609 21.8892 35.4425 34.1234 -31.6934 85.5299 0.0000 0.0000 0.0000 0.0000 0.0000 0.0000 60.7941 24.4591 -40.5567 -24.8159 -25.5426 -91.7077 0.0000 0.0000 0.0000
50.3677 -105.6526 -0.0251 0.0000 0.0000 0.0000 0.3023 -18.0018 -0.0479 0.0000 0.0000 0.0000 0.0000 0.0000 0.0000 0.0000 0.0000 0.0000 0.0000 0.0000 0.0000 0.0000 0.0000 0.0000 -63.2219 21.4714 34.2434 34.5188 -31.9387 85.2946 0.0000 0.0000 0.0000 0.0000 0.0000 0.0000 61.1473 24.3601 -40.1400 -24.9255 -25.6819 -91.7696 0.0000 0.0000 0.0000
50.3626 -105.6448 -0.0254 0.0000 0.0000 0.0000 0.2977 -15.6346 -0.0409 0.0000 0.0000 0.0000 0.0000 0.0000 0.0000 0.0000 0.0000 0.0000 0.0000 0.0000 0.0000 0.0000 0.0000 0.0000 -66.0330 19.8541 30.1475 39.2490 -34.5223 82.1397 0.0000 0.0000 0.0000 0.0000 0.0000 0.0000 61.7974 24.1517 -39.3426 -24.5835 -25.3936 -91.9177 0.0000 0.0000 0.0000
50.3658 -105.6381 -0.0245 0.0000 0.0000 0.0000 0.3218 -15.8113 -0.0447 0.0000 0.0000 0.0000 0.0000 0.0000 0.0000 0.0000 0.0000 0.0000 0.0000 0.0000 0.0000 0.0000 0.0000 0.0000 -64.8009 20.5640 31.9046 33.9324 -31.5496 85.5967 0.0000 0.0000 0.0000 0.0000 0.0000 0.0000 62.0108 24.1019 -39.1126 -24.0273 -24.8903 -92.0843 0.0000 0.0000 0.0000
50.3509 -105.6301 -0.0253 0.0000 0.0000 0.0000 0.3071 -9.9086 -0.0266 0.0000 0.0000 0.0000 0.0000 0.0000 0.0000 0.0000 0.0000 0.0000 0.0000 0.0000 0.0000 0.0000 0.0000 0.0000 -67.0578 19.0975 28.4895 39.1588 -34.4245 82.1097 0.0000 0.0000 0.0000 0.0000 0.0000 0.0000 61.9444 24.1232 -39.1931 -24.3704 -25.2127 -92.0085 0.0000 0.0000 0.0000
50.3655 -105.6462 -0.0254 0.0000 0.0000 0.0000 0.3257 -13.2066 -0.0377 0.0000 0.0000 0.0000 0.0000 0.0000 0.0000 0.0000 0.0000 0.0000 0.0000 0.0000 0.0000 0.0000 0.0000 0.0000 -65.4436 20.1450 30.9078 37.6667 -33.6824 83.1775 0.0000 0.0000 0.0000 0.0000 0.0000 0.0000 63.5000 23.5395 -37.2173 -24.5396 -25.3821 -91.9964 0.0000 0.0000 0.0000
50.3554 -105.6390 -0.0256 0.0000 0.0000 0.0000 0.3154 -10.6613 -0.0294 0.0000 0.0000 0.0000 0.0000 0.0000 0.0000 0.0000 0.0000 0.0000 0.0000 0.0000 0.0000 0.0000 0.0000 0.0000 -68.5426 17.9062 26.0362 43.1160 -36.2613 79.3039 0.0000 0.0000 0.0000 0.0000 0.0000 0.0000 65.6228 22.6056 -34.4472 -26.9706 -27.4254 -90.9951 0.0000 0.0000 0.0000
50.3719 -105.6843 -0.0256 0.0000 0.0000 0.0000 0.3377 -11.4963 -0.0340 0.0000 0.0000 0.0000 0.0000 0.0000 0.0000 0.0000 0.0000 0.0000 0.0000 0.0000 0.0000 0.0000 0.0000 0.0000 -68.7798 17.6851 25.6102 43.8893 -36.5941 78.7513 0.0000 0.0000 0.0000 0.0000 0.0000 0.0000 63.3194 23.6424 -37.4959 -25.8917 -26.5081 -91.3959 0.0000 0.0000 0.0000
50.3579 -105.6791 -0.0263 0.0000 0.0000 0.0000 0.3153 -11.0134 -0.0304 0.0000 0.0000 0.0000 0.0000 0.0000 0.0000 0.0000 0.0000 0.0000 0.0000 0.0000 0.0000 0.0000 0.0000 0.0000 -67.2448 18.9140 28.1261 39.4237 -34.5326 81.8846 0.0000 0.0000 0.0000 0.0000 0.0000 0.0000 63.6970 23.4895 -37.0090 -25.3408 -26.0459 -91.6262 0.0000 0.0000 0.0000
50.3743 -105.8068 -0.0262 0.0000 0.0000 0.0000 0.3186 -14.1634 -0.0396 0.0000 0.0000 0.0000 0.0000 0.0000 0.0000 0.0000 0.0000 0.0000 0.0000 0.0000 0.0000 0.0000 0.0000 0.0000 -66.4836 19.4375 29.2891 38.9908 -34.2718 82.1058 0.0000 0.0000 0.0000 0.0000 0.0000 0.0000 64.0862 23.3325 -36.5131 -26.2005 -26.6358 -90.9784 0.0000 0.0000 0.0000
50.3761 -105.8134 -0.0243 0.0000 0.0000 0.0000 0.3143 -18.9955 -0.0526 0.0000 0.0000 0.0000 0.0000 0.0000 0.0000 0.0000 0.0000 0.0000 0.0000 0.0000 0.0000 0.0000 0.0000 0.0000 -63.4457 21.2048 33.6941 32.2842 -30.4078 86.3945 0.0000 0.0000 0.0000 0.0000 0.0000 0.0000 62.3118 24.0366 -38.7979 -25.1823 -25.4932 -90.7266 0.0000 0.0000 0.0000
50.3800 -105.8147 -0.0222 0.0000 0.0000 0.0000 0.3079 -19.2934 -0.0523 0.0000 0.0000 0.0000 0.0000 0.0000 0.0000 0.0000 0.0000 0.0000 0.0000 0.0000 0.0000 0.0000 0.0000 0.0000 -61.5987 22.0848 36.2541 29.7800 -28.5673 87.5127 0.0000 0.0000 0.0000 0.0000 0.0000 0.0000 60.8977 24.4638 -40.4870 -27.0912 -26.0024 -87.5641 0.0000 0.0000 0.0000
50.3819 -105.7429 -0.0224 0.0000 0.0000 0.0000 0.2454 -19.7616 -0.0427 0.0000 0.0000 0.0000 0.0000 0.0000 0.0000 0.0000 0.0000 0.0000 0.0000 0.0000 0.0000 0.0000 0.0000 0.0000 -60.8082 22.3981 37.2896 30.1586 -28.6888 87.0090 0.0000 0.0000 0.0000 0.0000 0.0000 0.0000 58.6181 24.6714 -42.5672 -30.2649 -27.2342 -83.7060 0.0000 0.0000 0.0000
50.4271 -105.7229 -0.0230 0.0000 0.0000 0.0000 -0.0853 -18.0606 0.0136 0.0000 0.0000 0.0000 0.0000 0.0000 0.0000 0.0000 0.0000 0.0000 0.0000 0.0000 0.0000 0.0000 0.0000 0.0000 -66.9823 19.0275 28.4264 38.9981 -33.7006 81.0834 0.0000 0.0000 0.0000 0.0000 0.0000 0.0000 61.9160 22.2772 -36.3425 -36.7652 -30.3822 -78.5025 0.0000 0.0000 0.0000
50.4216 -105.7412 -0.0229 0.0000 0.0000 0.0000 -0.3223 -14.8262 0.0419 0.0000 0.0000 0.0000 0.0000 0.0000 0.0000 0.0000 0.0000 0.0000 0.0000 0.0000 0.0000 0.0000 0.0000 0.0000 -67.5192 18.6352 27.5825 36.0956 -31.8684 82.4498 0.0000 0.0000 0.0000 0.0000 0.0000 0.0000 60.0921 21.6047 -36.5121 -38.0824 -30.6288 -76.8592 0.0000 0.0000 0.0000
50.4273 -105.2321 -0.0239 0.0000 0.0000 0.0000 -0.5326 -14.3519 0.0671 0.0000 0.0000 0.0000 0.0000 0.0000 0.0000 0.0000 0.0000 0.0000 0.0000 0.0000 0.0000 0.0000 0.0000 0.0000 -66.1883 19.6950 29.8276 35.1125 -31.2936 83.0362 0.0000 0.0000 0.0000 0.0000 0.0000 0.0000 55.8730 21.7910 -39.9005 -37.4604 -30.2204 -77.0629 0.0000 0.0000 0.0000
50.4758 -104.6336 -0.0243 0.0000 0.0000 0.0000 -0.5427 -13.7704 0.0655 0.0000 0.0000 0.0000 0.0000 0.0000 0.0000 0.0000 0.0000 0.0000 0.0000 0.0000 0.0000 0.0000 0.0000 0.0000 -68.2113 18.2827 26.7334 39.7098 -33.4712 79.5683 0.0000 0.0000 0.0000 0.0000 0.0000 0.0000 54.8870 20.9946 -39.2726 -40.6708 -31.3699 -74.3003 0.0000 0.0000 0.0000
50.4770 -104.7836 -0.0244 0.0000 0.0000 0.0000 -0.5947 -13.8172 0.0721 0.0000 0.0000 0.0000 0.0000 0.0000 0.0000 0.0000 0.0000 0.0000 0.0000 0.0000 0.0000 0.0000 0.0000 0.0000 -67.7621 18.7101 27.5693 36.6017 -31.9748 81.8032 0.0000 0.0000 0.0000 0.0000 0.0000 0.0000 53.5123 20.5105 -39.4812 -42.6771 -31.9503 -72.4681 0.0000 0.0000 0.0000
50.5244 -104.7974 -0.0274 0.0000 0.0000 0.0000 -0.6153 -12.8731 0.0694 0.0000 0.0000 0.0000 0.0000 0.0000 0.0000 0.0000 0.0000 0.0000 0.0000 0.0000 0.0000 0.0000 0.0000 0.0000 -71.0779 15.7001 21.8490 46.5463 -36.2506 74.5462 0.0000 0.0000 0.0000 0.0000 0.0000 0.0000 56.5796 18.3670 -33.4385 -51.4191 -34.1129 -65.0130 0.0000 0.0000 0.0000
50.5023 -105.0106 -0.0273 0.0000 0.0000 0.0000 -0.6527 -12.9866 0.0743 0.0000 0.0000 0.0000 0.0000 0.0000 0.0000 0.0000 0.0000 0.0000 0.0000 0.0000 0.0000 0.0000 0.0000 0.0000 -69.4826 17.2973 24.7415 42.6336 -34.6855 77.3388 0.0000 0.0000 0.0000 0.0000 0.0000 0.0000 54.8313 18.8259 -35.4489 -47.4602 -33.4939 -68.7841 0.0000 0.0000 0.0000
50.4720 -105.0557 -0.0293 0.0000 0.0000 0.0000 -0.7080 -11.9657 0.0742 0.0000 0.0000 0.0000 0.0000 0.0000 0.0000 0.0000 0.0000 0.0000 0.0000 0.0000 0.0000 0.0000 0.0000 0.0000 -70.8172 16.0846 22.4828 44.8677 -35.3921 75.3946 0.0000 0.0000 0.0000 0.0000 0.0000 0.0000 55.1387 18.2206 -34.1474 -48.4411 -33.9467 -68.3137 0.0000 0.0000 0.0000
50.4358 -105.1589 -0.0293 0.0000 0.0000 0.0000 -0.7527 -12.2174 0.0806 0.0000 0.0000 0.0000 0.0000 0.0000 0.0000 0.0000 0.0000 0.0000 0.0000 0.0000 0.0000 0.0000 0.0000 0.0000 -64.8855 20.7313 32.1066 29.0077 -27.1959 86.1551 0.0000 0.0000 0.0000 0.0000 0.0000 0.0000 52.6024 18.9694 -37.3524 -35.1024 -29.3734 -79.2960 0.0000 0.0000 0.0000
50.3691 -105.1710 -0.0292 0.0000 0.0000 0.0000 -0.7780 -17.5733 0.1203 0.0000 0.0000 0.0000 0.0000 0.0000 0.0000 0.0000 0.0000 0.0000 0.0000 0.0000 0.0000 0.0000 0.0000 0.0000 -64.6719 20.8625 32.4300 31.5426 -28.8788 84.7104 0.0000 0.0000 0.0000 0.0000 0.0000 0.0000 51.9288 19.2451 -38.3923 -32.7066 -28.5351 -81.8260 0.0000 0.0000 0.0000
50.3549 -105.5963 -0.0292 0.0000 0.0000 0.0000 -0.7967 -17.0570 0.1195 0.0000 0.0000 0.0000 0.0000 0.0000 0.0000 0.0000 0.0000 0.0000 0.0000 0.0000 0.0000 0.0000 0.0000 0.0000 -65.9163 20.1804 30.6947 33.1401 -29.8262 83.6619 0.0000 0.0000 0.0000 0.0000 0.0000 0.0000 52.4974 19.1486 -37.7676 -33.6570 -28.8888 -80.8370 0.0000 0.0000 0.0000
50.3518 -105.8846 -0.0297 0.0000 0.0000 0.0000 -0.8406 -8.5035 0.0625 0.0000 0.0000 0.0000 0.0000 0.0000 0.0000 0.0000 0.0000 0.0000 0.0000 0.0000 0.0000 0.0000 0.0000 0.0000 -73.0340 13.5745 18.2635 46.4814 -35.9225 74.0960 0.0000 0.0000 0.0000 0.0000 0.0000 0.0000 55.4433 17.6819 -32.9763 -36.5389 -30.4533 -79.0119 0.0000 0.0000 0.0000
50.3535 -106.0325 -0.0312 0.0000 0.0000 0.0000 -0.8798 -1.1530 0.0089 0.0000 0.0000 0.0000 0.0000 0.0000 0.0000 0.0000 0.0000 0.0000 0.0000 0.0000 0.0000 0.0000 0.0000 0.0000 -64.1954 21.1329 33.1243 50.2772 -37.0505 71.0596 0.0000 0.0000 0.0000 0.0000 0.0000 0.0000 50.4251 19.7630 -40.6062 -31.2265 -27.7416 -82.9295 0.0000 0.0000 0.0000
50.3525 -106.0979 -0.0314 0.0000 0.0000 0.0000 -0.9779 -3.1275 0.0267 0.0000 0.0000 0.0000 0.0000 0.0000 0.0000 0.0000 0.0000 0.0000 0.0000 0.0000 0.0000 0.0000 0.0000 0.0000 -65.5346 20.4366 31.2905 39.1874 -33.0170 79.5619 0.0000 0.0000 0.0000 0.0000 0.0000 0.0000 52.9893 18.7864 -36.7192 -29.0941 -26.6276 -84.7262 0.0000 0.0000 0.0000
50.4502 -106.1195 -0.0297 0.0000 0.0000 0.0000 -0.9211 -3.4518 0.0278 0.0000 0.0000 0.0000 0.0000 0.0000 0.0000 0.0000 0.0000 0.0000 0.0000 0.0000 0.0000 0.0000 0.0000 0.0000 -63.7441 21.3831 33.7817 32.8261 -29.6673 83.9168 0.0000 0.0000 0.0000 0.0000 0.0000 0.0000 51.9783 19.2230 -38.3117 -26.9845 -25.4656 -86.5638 0.0000 0.0000 0.0000
50.4832 -106.1352 -0.0295 0.0000 0.0000 0.0000 -0.9188 -4.8449 0.0389 0.0000 0.0000 0.0000 0.0000 0.0000 0.0000 0.0000 0.0000 0.0000 0.0000 0.0000 0.0000 0.0000 0.0000 0.0000 -63.1723 21.6628 34.5689 29.3109 -27.4469 86.0800 0.0000 0.0000 0.0000 0.0000 0.0000 0.0000 53.5665 18.7762 -36.2720 -25.6364 -24.5340 -87.4003 0.0000 0.0000 0.0000
50.4918 -106.1613 -0.0295 0.0000 0.0000 0.0000 -0.9410 -4.0733 0.0335 0.0000 0.0000 0.0000 0.0000 0.0000 0.0000 0.0000 0.0000 0.0000 0.0000 0.0000 0.0000 0.0000 0.0000 0.0000 -61.9229 22.2791 36.3408 26.9660 -25.7894 87.3522 0.0000 0.0000 0.0000 0.0000 0.0000 0.0000 53.3587 19.0225 -36.8794 -24.2880 -23.5289 -88.1272 0.0000 0.0000 0.0000
50.5194 -106.1643 -0.0294 0.0000 0.0000 0.0000 -0.9227 -4.9534 0.0399 0.0000 0.0000 0.0000 0.0000 0.0000 0.0000 0.0000 0.0000 0.0000 0.0000 0.0000 0.0000 0.0000 0.0000 0.0000 -60.2503 22.9198 38.5151 28.0636 -26.5871 86.7844 0.0000 0.0000 0.0000 0.0000 0.0000 0.0000 53.8213 18.9812 -36.4602 -22.9569 -22.4517 -88.6911 0.0000 0.0000 0.0000
50.5401 -106.1664 -0.0294 0.0000 0.0000 0.0000 -0.9136 -5.5017 0.0439 0.0000 0.0000 0.0000 0.0000 0.0000 0.0000 0.0000 0.0000 0.0000 0.0000 0.0000 0.0000 0.0000 0.0000 0.0000 -63.6582 21.4231 33.8960 31.9759 -29.2049 84.5595 0.0000 0.0000 0.0000 0.0000 0.0000 0.0000 55.3208 18.3784 -34.3053 -24.8827 -23.9514 -87.7476 0.0000 0.0000 0.0000
50.5574 -106.1809 -0.0292 0.0000 0.0000 0.0000 -0.9083 -4.9445 0.0392 0.0000 0.0000 0.0000 0.0000 0.0000 0.0000 0.0000 0.0000 0.0000 0.0000 0.0000 0.0000 0.0000 0.0000 0.0000 -64.3096 21.0749 32.9675 32.1856 -29.3343 84.4300 0.0000 0.0000 0.0000 0.0000 0.0000 0.0000 55.8846 18.1961 -33.5993 -26.0349 -24.8183 -87.1671 0.0000 0.0000 0.0000
50.5905 -106.1795 -0.0290 0.0000 0.0000 0.0000 -0.8817 -5.2017 0.0401 0.0000 0.0000 0.0000 0.0000 0.0000 0.0000 0.0000 0.0000 0.0000 0.0000 0.0000 0.0000 0.0000 0.0000 0.0000 -65.3328 20.4933 31.4906 33.4032 -30.0784 83.6874 0.0000 0.0000 0.0000 0.0000 0.0000 0.0000 56.4708 17.9757 -32.8240 -26.5844 -25.2073 -86.8477 0.0000 0.0000 0.0000
50.6751 -106.1643 -0.0287 0.0000 0.0000 0.0000 -0.7947 -7.0157 0.0487 0.0000 0.0000 0.0000 0.0000 0.0000 0.0000 0.0000 0.0000 0.0000 0.0000 0.0000 0.0000 0.0000 0.0000 0.0000 -63.6393 21.4224 33.9068 30.6312 -28.3475 85.3638 0.0000 0.0000 0.0000 0.0000 0.0000 0.0000 57.3436 17.5604 -31.5443 -25.8484 -24.6496 -87.1902 0.0000 0.0000 0.0000
50.7344 -106.1651 -0.0286 0.0000 0.0000 0.0000 -0.7269 -7.6578 0.0486 0.0000 0.0000 0.0000 0.0000 0.0000 0.0000 0.0000 0.0000 0.0000 0.0000 0.0000 0.0000 0.0000 0.0000 0.0000 -63.8467 21.3032 33.5965 30.5532 -28.2896 85.3947 0.0000 0.0000 0.0000 0.0000 0.0000 0.0000 57.6360 17.5064 -31.2702 -24.9642 -24.0570 -87.8136 0.0000 0.0000 0.0000
50.7424 -106.2360 -0.0282 0.0000 0.0000 0.0000 -0.7171 -7.5023 0.0470 0.0000 0.0000 0.0000 0.0000 0.0000 0.0000 0.0000 0.0000 0.0000 0.0000 0.0000 0.0000 0.0000 0.0000 0.0000 -63.9002 21.2704 33.5136 29.8128 -27.8026 85.8304 0.0000 0.0000 0.0000 0.0000 0.0000 0.0000 57.4471 17.6892 -31.7029 -25.0733 -24.1403 -87.7596 0.0000 0.0000 0.0000
50.7368 -106.2420 -0.0292 0.0000 0.0000 0.0000 -0.7417 -5.7672 0.0374 0.0000 0.0000 0.0000 0.0000 0.0000 0.0000 0.0000 0.0000 0.0000 0.0000 0.0000 0.0000 0.0000 0.0000 0.0000 -67.0555 19.3659 28.8818 36.1141 -31.6020 81.9169 0.0000 0.0000 0.0000 0.0000 0.0000 0.0000 57.4147 17.8479 -31.9976 -26.6484 -25.2868 -86.8912 0.0000 0.0000 0.0000
50.7281 -106.2427 -0.0293 0.0000 0.0000 0.0000 -0.7660 -4.7029 0.0315 0.0000 0.0000 0.0000 0.0000 0.0000 0.0000 0.0000 0.0000 0.0000 0.0000 0.0000 0.0000 0.0000 0.0000 0.0000 -65.1948 20.6010 31.7311 32.2621 -29.3892 84.3986 0.0000 0.0000 0.0000 0.0000 0.0000 0.0000 56.4295 18.4420 -33.6693 -25.0176 -24.0830 -87.7510 0.0000 0.0000 0.0000
50.7243 -106.2801 -0.0292 0.0000 0.0000 0.0000 -0.7730 -3.6709 0.0248 0.0000 0.0000 0.0000 0.0000 0.0000 0.0000 0.0000 0.0000 0.0000 0.0000 0.0000 0.0000 0.0000 0.0000 0.0000 -64.1720 21.1718 33.1976 32.3303 -29.4146 84.3231 0.0000 0.0000 0.0000 0.0000 0.0000 0.0000 56.2848 18.5301 -33.9205 -24.8679 -23.9703 -87.8292 0.0000 0.0000 0.0000
50.7307 -106.2667 -0.0292 0.0000 0.0000 0.0000 -0.7803 -4.8605 0.0331 0.0000 0.0000 0.0000 0.0000 0.0000 0.0000 0.0000 0.0000 0.0000 0.0000 0.0000 0.0000 0.0000 0.0000 0.0000 -62.8653 21.8227 35.0118 30.4350 -28.2246 85.4900 0.0000 0.0000 0.0000 0.0000 0.0000 0.0000 54.6592 19.3805 -36.5691 -24.1172 -23.3496 -88.0930 0.0000 0.0000 0.0000
50.7324 -106.4457 -0.0290 0.0000 0.0000 0.0000 -0.7893 -7.0607 0.0487 0.0000 0.0000 0.0000 0.0000 0.0000 0.0000 0.0000 0.0000 0.0000 0.0000 0.0000 0.0000 0.0000 0.0000 0.0000 -62.3533 22.0435 35.6874 29.1055 -27.3360 86.2596 0.0000 0.0000 0.0000 0.0000 0.0000 0.0000 55.1111 19.2475 -36.0041 -24.2750 -23.4827 -88.0429 0.0000 0.0000 0.0000
50.7225 -106.6971 -0.0292 0.0000 0.0000 0.0000 -0.8052 -10.4199 0.0734 0.0000 0.0000 0.0000 0.0000 0.0000 0.0000 0.0000 0.0000 0.0000 0.0000 0.0000 0.0000 0.0000 0.0000 0.0000 -63.2504 21.5732 34.3818 29.2214 -27.4386 86.2446 0.0000 0.0000 0.0000 0.0000 0.0000 0.0000 56.6563 18.6414 -33.8668 -23.9557 -23.3867 -88.5830 0.0000 0.0000 0.0000
50.6844 -106.6916 -0.0283 0.0000 0.0000 0.0000 -0.8176 -12.9312 0.0927 0.0000 0.0000 0.0000 0.0000 0.0000 0.0000 0.0000 0.0000 0.0000 0.0000 0.0000 0.0000 0.0000 0.0000 0.0000 -61.5113 22.3281 36.6958 26.6583 -25.6136 87.6287 0.0000 0.0000 0.0000 0.0000 0.0000 0.0000 54.5427 19.9642 -37.7022 -22.0762 -22.1162 -90.1064 0.0000 0.0000 0.0000
50.6420 -106.5986 -0.0273 0.0000 0.0000 0.0000 -0.7834 -13.9250 0.0957 0.0000 0.0000 0.0000 0.0000 0.0000 0.0000 0.0000 0.0000 0.0000 0.0000 0.0000 0.0000 0.0000 0.0000 0.0000 -62.5346 21.8316 35.2397 28.1734 -26.7194 86.8463 0.0000 0.0000 0.0000 0.0000 0.0000 0.0000 54.7129 20.4639 -38.4654 -22.6568 -23.1792 -91.3414 0.0000 0.0000 0.0000
50.6457 -106.5461 -0.0274 0.0000 0.0000 0.0000 -0.7250 -12.6330 0.0803 0.0000 0.0000 0.0000 0.0000 0.0000 0.0000 0.0000 0.0000 0.0000 0.0000 0.0000 0.0000 0.0000 0.0000 0.0000 -62.8327 21.6619 34.7844 29.4133 -27.6087 86.2208 0.0000 0.0000 0.0000 0.0000 0.0000 0.0000 54.1331 21.1574 -40.1534 -23.3733 -24.3228 -92.3480 0.0000 0.0000 0.0000
50.6538 -106.5793 -0.0271 0.0000 0.0000 0.0000 -0.5832 -13.5700 0.0694 0.0000 0.0000 0.0000 0.0000 0.0000 0.0000 0.0000 0.0000 0.0000 0.0000 0.0000 0.0000 0.0000 0.0000 0.0000 -62.6956 21.7508 35.0102 28.6103 -27.0904 86.7475 0.0000 0.0000 0.0000 0.0000 0.0000 0.0000 54.8220 21.5045 -40.2230 -23.2542 -24.2239 -92.4084 0.0000 0.0000 0.0000
50.6591 -106.8981 -0.0271 0.0000 0.0000 0.0000 -0.4851 -12.1403 0.0516 0.0000 0.0000 0.0000 0.0000 0.0000 0.0000 0.0000 0.0000 0.0000 0.0000 0.0000 0.0000 0.0000 0.0000 0.0000 -61.1067 22.4548 37.1728 28.5255 -27.1354 87.0232 0.0000 0.0000 0.0000 0.0000 0.0000 0.0000 53.5925 22.4511 -42.9061 -22.0007 -23.5270 -93.9427 0.0000 0.0000 0.0000
50.6623 -107.0710 -0.0247 0.0000 0.0000 0.0000 -0.4141 -12.5505 0.0455 0.0000 0.0000 0.0000 0.0000 0.0000 0.0000 0.0000 0.0000 0.0000 0.0000 0.0000 0.0000 0.0000 0.0000 0.0000 -61.6470 22.2738 36.5185 25.8306 -25.2027 88.5424 0.0000 0.0000 0.0000 0.0000 0.0000 0.0000 53.5698 23.2321 -44.3135 -21.4494 -23.1313 -94.4320 0.0000 0.0000 0.0000
50.6879 -107.1357 -0.0228 0.0000 0.0000 0.0000 -0.3940 -11.5727 0.0399 0.0000 0.0000 0.0000 0.0000 0.0000 0.0000 0.0000 0.0000 0.0000 0.0000 0.0000 0.0000 0.0000 0.0000 0.0000 -63.5144 21.4835 34.0782 27.0183 -26.1750 88.1165 0.0000 0.0000 0.0000 0.0000 0.0000 0.0000 55.1602 23.4455 -43.3314 -21.9012 -23.8627 -95.0410 0.0000 0.0000 0.0000
50.7379 -107.1625 -0.0230 0.0000 0.0000 0.0000 -0.3428 -12.6071 0.0379 0.0000 0.0000 0.0000 0.0000 0.0000 0.0000 0.0000 0.0000 0.0000 0.0000 0.0000 0.0000 0.0000 0.0000 0.0000 -63.9423 21.2662 33.4814 27.5063 -26.6032 88.0147 0.0000 0.0000 0.0000 0.0000 0.0000 0.0000 55.6130 23.9009 -43.7336 -22.9279 -25.0215 -95.1487 0.0000 0.0000 0.0000
50.7445 -107.1762 -0.0227 0.0000 0.0000 0.0000 -0.3373 -12.9554 0.0383 0.0000 0.0000 0.0000 0.0000 0.0000 0.0000 0.0000 0.0000 0.0000 0.0000 0.0000 0.0000 0.0000 0.0000 0.0000 -65.0509 20.6662 31.9123 28.8009 -27.6298 87.5233 0.0000 0.0000 0.0000 0.0000 0.0000 0.0000 57.1558 24.1362 -42.8596 -23.0455 -25.2234 -95.3224 0.0000 0.0000 0.0000
50.7606 -107.4051 -0.0216 0.0000 0.0000 0.0000 -0.3211 -13.6953 0.0386 0.0000 0.0000 0.0000 0.0000 0.0000 0.0000 0.0000 0.0000 0.0000 0.0000 0.0000 0.0000 0.0000 0.0000 0.0000 -65.6166 20.3566 31.1249 28.0775 -27.1708 88.0448 0.0000 0.0000 0.0000 0.0000 0.0000 0.0000 58.5441 24.2804 -41.9906 -22.8669 -25.1959 -95.7140 0.0000 0.0000 0.0000
50.7592 -107.4019 -0.0208 0.0000 0.0000 0.0000 -0.3212 -13.3605 0.0376 0.0000 0.0000 0.0000 0.0000 0.0000 0.0000 0.0000 0.0000 0.0000 0.0000 0.0000 0.0000 0.0000 0.0000 0.0000 -65.7093 20.3028 30.9925 27.7221 -26.9337 88.2828 0.0000 0.0000 0.0000 0.0000 0.0000 0.0000 58.6436 24.6657 -42.5377 -22.5949 -25.0552 -96.0843 0.0000 0.0000 0.0000
50.7901 -107.1827 -0.0210 0.0000 0.0000 0.0000 -0.3007 -11.9832 0.0316 0.0000 0.0000 0.0000 0.0000 0.0000 0.0000 0.0000 0.0000 0.0000 0.0000 0.0000 0.0000 0.0000 0.0000 0.0000 -64.4896 21.0086 32.7589 27.4560 -26.7148 88.3722 0.0000 0.0000 0.0000 0.0000 0.0000 0.0000 58.4121 24.9257 -43.1438 -21.7038 -24.3535 -96.7651 0.0000 0.0000 0.0000
50.8109 -107.1664 -0.0214 0.0000 0.0000 0.0000 -0.2789 -11.9252 0.0291 0.0000 0.0000 0.0000 0.0000 0.0000 0.0000 0.0000 0.0000 0.0000 0.0000 0.0000 0.0000 0.0000 0.0000 0.0000 -65.7422 20.2785 30.9379 29.4678 -28.1640 87.2957 0.0000 0.0000 0.0000 0.0000 0.0000 0.0000 59.8872 24.5521 -41.3879 -22.4622 -25.3355 -97.0829 0.0000 0.0000 0.0000
50.8375 -107.2071 -0.0215 0.0000 0.0000 0.0000 -0.2552 -11.8473 0.0265 0.0000 0.0000 0.0000 0.0000 0.0000 0.0000 0.0000 0.0000 0.0000 0.0000 0.0000 0.0000 0.0000 0.0000 0.0000 -65.8819 20.1759 30.7073 29.3057 -28.0940 87.4773 0.0000 0.0000 0.0000 0.0000 0.0000 0.0000 60.2375 24.3614 -40.8194 -21.2157 -24.2080 -97.7374 0.0000 0.0000 0.0000
50.8445 -107.1915 -0.0222 0.0000 0.0000 0.0000 -0.2567 -11.2929 0.0254 0.0000 0.0000 0.0000 0.0000 0.0000 0.0000 0.0000 0.0000 0.0000 0.0000 0.0000 0.0000 0.0000 0.0000 0.0000 -65.5504 20.3713 31.1844 28.2843 -27.3682 88.0377 0.0000 0.0000 0.0000 0.0000 0.0000 0.0000 60.0571 24.3766 -40.9797 -20.1066 -23.1886 -98.3389 0.0000 0.0000 0.0000
50.8453 -107.1207 -0.0217 0.0000 0.0000 0.0000 -0.2560 -11.4825 0.0257 0.0000 0.0000 0.0000 0.0000 0.0000 0.0000 0.0000 0.0000 0.0000 0.0000 0.0000 0.0000 0.0000 0.0000 0.0000 -65.6116 20.3364 31.0978 26.6065 -26.0669 88.7838 0.0000 0.0000 0.0000 0.0000 0.0000 0.0000 60.0452 24.3179 -40.8954 -18.7697 -21.8828 -98.9427 0.0000 0.0000 0.0000
50.8417 -106.9913 -0.0218 0.0000 0.0000 0.0000 -0.2610 -11.9684 0.0274 0.0000 0.0000 0.0000 0.0000 0.0000 0.0000 0.0000 0.0000 0.0000 0.0000 0.0000 0.0000 0.0000 0.0000 0.0000 -65.9271 20.1770 30.6838 27.2949 -26.5829 88.4284 0.0000 0.0000 0.0000 0.0000 0.0000 0.0000 60.1840 24.2122 -40.6228 -18.5881 -21.7876 -99.2497 0.0000 0.0000 0.0000
50.8396 -106.9641 -0.0234 0.0000 0.0000 0.0000 -0.2668 -12.1724 0.0284 0.0000 0.0000 0.0000 0.0000 0.0000 0.0000 0.0000 0.0000 0.0000 0.0000 0.0000 0.0000 0.0000 0.0000 0.0000 -64.7302 20.9364 32.5065 27.2284 -26.5188 88.4302 0.0000 0.0000 0.0000 0.0000 0.0000 0.0000 59.3328 24.4215 -41.6051 -18.2168 -21.3719 -99.2950 0.0000 0.0000 0.0000
50.8352 -106.8327 -0.0233 0.0000 0.0000 0.0000 -0.2719 -13.3591 0.0318 0.0000 0.0000 0.0000 0.0000 0.0000 0.0000 0.0000 0.0000 0.0000 0.0000 0.0000 0.0000 0.0000 0.0000 0.0000 -65.3648 20.6187 31.6591 27.6969 -26.8704 88.1973 0.0000 0.0000 0.0000 0.0000 0.0000 0.0000 60.2349 24.1126 -40.4268 -18.6544 -21.9314 -99.4261 0.0000 0.0000 0.0000
50.8353 -106.8332 -0.0231 0.0000 0.0000 0.0000 -0.2759 -13.7266 0.0332 0.0000 0.0000 0.0000 0.0000 0.0000 0.0000 0.0000 0.0000 0.0000 0.0000 0.0000 0.0000 0.0000 0.0000 0.0000 -65.6118 20.5183 31.3679 28.1899 -27.2338 87.9441 0.0000 0.0000 0.0000 0.0000 0.0000 0.0000 60.3803 24.0343 -40.1943 -19.0711 -22.5032 -99.6462 0.0000 0.0000 0.0000
50.8365 -106.8025 -0.0228 0.0000 0.0000 0.0000 -0.2725 -14.3020 0.0342 0.0000 0.0000 0.0000 0.0000 0.0000 0.0000 0.0000 0.0000 0.0000 0.0000 0.0000 0.0000 0.0000 0.0000 0.0000 -66.4792 19.9896 30.1024 31.4310 -29.4983 86.1896 0.0000 0.0000 0.0000 0.0000 0.0000 0.0000 60.9369 23.8970 -39.5681 -19.3085 -22.8471 -99.8138 0.0000 0.0000 0.0000
50.8511 -106.7937 -0.0225 0.0000 0.0000 0.0000 -0.2504 -12.4648 0.0273 0.0000 0.0000 0.0000 0.0000 0.0000 0.0000 0.0000 0.0000 0.0000 0.0000 0.0000 0.0000 0.0000 0.0000 0.0000 -66.9674 19.7021 29.4182 30.2311 -28.6884 86.8641 0.0000 0.0000 0.0000 0.0000 0.0000 0.0000 61.1029 24.0222 -39.6437 -19.1250 -22.6100 -99.7583 0.0000 0.0000 0.0000
50.8520 -106.6826 -0.0223 0.0000 0.0000 0.0000 -0.2480 -13.1527 0.0286 0.0000 0.0000 0.0000 0.0000 0.0000 0.0000 0.0000 0.0000 0.0000 0.0000 0.0000 0.0000 0.0000 0.0000 0.0000 -68.8725 18.3128 26.4582 35.5632 -32.0931 83.7739 0.0000 0.0000 0.0000 0.0000 0.0000 0.0000 61.7238 23.9218 -39.0387 -19.9581 -23.6305 -99.8652 0.0000 0.0000 0.0000
50.8717 -106.5392 -0.0224 0.0000 0.0000 0.0000 -0.2415 -12.9845 0.0275 0.0000 0.0000 0.0000 0.0000 0.0000 0.0000 0.0000 0.0000 0.0000 0.0000 0.0000 0.0000 0.0000 0.0000 0.0000 -68.5912 18.5824 26.9769 32.6953 -30.4566 85.7269 0.0000 0.0000 0.0000 0.0000 0.0000 0.0000 61.5915 24.0259 -39.2956 -19.4672 -23.1205 -100.0327 0.0000 0.0000 0.0000
50.9019 -106.2056 -0.0224 0.0000 0.0000 0.0000 -0.2275 -12.6869 0.0253 0.0000 0.0000 0.0000 0.0000 0.0000 0.0000 0.0000 0.0000 0.0000 0.0000 0.0000 0.0000 0.0000 0.0000 0.0000 -69.5349 17.8292 25.4656 35.4096 -32.0463 83.9492 0.0000 0.0000 0.0000 0.0000 0.0000 0.0000 62.8206 23.5476 -37.6928 -19.7109 -23.5473 -100.3777 0.0000 0.0000 0.0000
50.9042 -106.0976 -0.0225 0.0000 0.0000 0.0000 -0.2396 -13.9591 0.0293 0.0000 0.0000 0.0000 0.0000 0.0000 0.0000 0.0000 0.0000 0.0000 0.0000 0.0000 0.0000 0.0000 0.0000 0.0000 -68.2383 18.9276 27.6436 37.0271 -32.9320 82.8675 0.0000 0.0000 0.0000 0.0000 0.0000 0.0000 63.5738 23.2315 -36.7013 -20.1262 -24.1074 -100.5426 0.0000 0.0000 0.0000
50.8962 -106.0896 -0.0237 0.0000 0.0000 0.0000 -0.2465 -13.8088 0.0299 0.0000 0.0000 0.0000 0.0000 0.0000 0.0000 0.0000 0.0000 0.0000 0.0000 0.0000 0.0000 0.0000 0.0000 0.0000 -67.9216 19.1656 28.1446 33.2308 -30.6738 85.1715 0.0000 0.0000 0.0000 0.0000 0.0000 0.0000 64.3520 22.7816 -35.5126 -19.8003 -23.9183 -101.0235 0.0000 0.0000 0.0000
50.9017 -106.0909 -0.0241 0.0000 0.0000 0.0000 -0.2395 -13.2705 0.0279 0.0000 0.0000 0.0000 0.0000 0.0000 0.0000 0.0000 0.0000 0.0000 0.0000 0.0000 0.0000 0.0000 0.0000 0.0000 -68.2121 18.9577 27.6999 34.7654 -31.5874 84.1982 0.0000 0.0000 0.0000 0.0000 0.0000 0.0000 65.1406 22.3440 -34.3602 -19.5605 -23.7668 -101.3545 0.0000 0.0000 0.0000
50.8973 -106.1187 -0.0239 0.0000 0.0000 0.0000 -0.2448 -13.5256 0.0290 0.0000 0.0000 0.0000 0.0000 0.0000 0.0000 0.0000 0.0000 0.0000 0.0000 0.0000 0.0000 0.0000 0.0000 0.0000 -66.5077 20.1200 30.2781 28.3912 -27.4178 87.9204 0.0000 0.0000 0.0000 0.0000 0.0000 0.0000 61.4473 23.8401 -39.1096 -17.1552 -20.7955 -101.1583 0.0000 0.0000 0.0000
50.8881 -106.0617 -0.0230 0.0000 0.0000 0.0000 -0.2722 -14.2312 0.0340 0.0000 0.0000 0.0000 0.0000 0.0000 0.0000 0.0000 0.0000 0.0000 0.0000 0.0000 0.0000 0.0000 0.0000 0.0000 -66.2940 20.2597 30.6011 29.0846 -27.9437 87.6104 0.0000 0.0000 0.0000 0.0000 0.0000 0.0000 61.0046 23.9410 -39.5879 -17.5259 -21.3352 -101.4108 0.0000 0.0000 0.0000
50.8907 -106.0392 -0.0232 0.0000 0.0000 0.0000 -0.2733 -13.6672 0.0327 0.0000 0.0000 0.0000 0.0000 0.0000 0.0000 0.0000 0.0000 0.0000 0.0000 0.0000 0.0000 0.0000 0.0000 0.0000 -66.6576 20.0366 30.0738 30.3512 -28.8242 86.9082 0.0000 0.0000 0.0000 0.0000 0.0000 0.0000 60.8691 23.9750 -39.7403 -17.9209 -21.8936 -101.6251 0.0000 0.0000 0.0000
50.8863 -106.0450 -0.0231 0.0000 0.0000 0.0000 -0.2824 -13.5711 0.0336 0.0000 0.0000 0.0000 0.0000 0.0000 0.0000 0.0000 0.0000 0.0000 0.0000 0.0000 0.0000 0.0000 0.0000 0.0000 -66.7168 20.0398 30.0461 30.5016 -28.9139 86.7971 0.0000 0.0000 0.0000 0.0000 0.0000 0.0000 61.8716 23.6426 -38.5002 -18.2553 -22.3389 -101.7286 0.0000 0.0000 0.0000
50.8888 -105.9534 -0.0234 0.0000 0.0000 0.0000 -0.2853 -13.4934 0.0337 0.0000 0.0000 0.0000 0.0000 0.0000 0.0000 0.0000 0.0000 0.0000 0.0000 0.0000 0.0000 0.0000 0.0000 0.0000 -68.2854 18.9814 27.6970 33.8592 -31.0891 84.8447 0.0000 0.0000 0.0000 0.0000 0.0000 0.0000 62.2258 23.5556 -38.1169 -18.4546 -22.5525 -101.6566 0.0000 0.0000 0.0000
50.8923 -105.9417 -0.0234 0.0000 0.0000 0.0000 -0.2966 -13.2108 0.0343 0.0000 0.0000 0.0000 0.0000 0.0000 0.0000 0.0000 0.0000 0.0000 0.0000 0.0000 0.0000 0.0000 0.0000 0.0000 -68.0277 19.2270 28.1787 31.1227 -29.3308 86.4419 0.0000 0.0000 0.0000 0.0000 0.0000 0.0000 62.1572 23.5760 -38.1964 -18.3144 -22.3665 -101.6150 0.0000 0.0000 0.0000
50.9042 -105.8747 -0.0237 0.0000 0.0000 0.0000 -0.2908 -13.9736 0.0356 0.0000 0.0000 0.0000 0.0000 0.0000 0.0000 0.0000 0.0000 0.0000 0.0000 0.0000 0.0000 0.0000 0.0000 0.0000 -66.8112 20.1044 30.0890 30.6263 -28.9347 86.5952 0.0000 0.0000 0.0000 0.0000 0.0000 0.0000 61.9029 23.6765 -38.5308 -18.3092 -22.3080 -101.4804 0.0000 0.0000 0.0000
50.9023 -105.8995 -0.0240 0.0000 0.0000 0.0000 -0.3146 -13.1248 0.0362 0.0000 0.0000 0.0000 0.0000 0.0000 0.0000 0.0000 0.0000 0.0000 0.0000 0.0000 0.0000 0.0000 0.0000 0.0000 -66.1012 20.6023 31.2136 30.1044 -28.5239 86.7729 0.0000 0.0000 0.0000 0.0000 0.0000 0.0000 62.4587 23.4593 -37.8066 -18.0387 -21.9789 -101.4746 0.0000 0.0000 0.0000
50.9201 -105.8585 -0.0240 0.0000 0.0000 0.0000 -0.2958 -13.6466 0.0354 0.0000 0.0000 0.0000 0.0000 0.0000 0.0000 0.0000 0.0000 0.0000 0.0000 0.0000 0.0000 0.0000 0.0000 0.0000 -65.8235 20.7422 31.5784 30.5883 -28.8070 86.4060 0.0000 0.0000 0.0000 0.0000 0.0000 0.0000 62.1137 23.5746 -38.2246 -18.2041 -22.2394 -101.6317 0.0000 0.0000 0.0000
50.9129 -105.9679 -0.0242 0.0000 0.0000 0.0000 -0.3169 -12.5980 0.0350 0.0000 0.0000 0.0000 0.0000 0.0000 0.0000 0.0000 0.0000 0.0000 0.0000 0.0000 0.0000 0.0000 0.0000 0.0000 -64.6719 21.4158 33.2622 28.0633 -26.9941 87.6869 0.0000 0.0000 0.0000 0.0000 0.0000 0.0000 61.8411 23.6630 -38.5534 -17.7176 -21.6559 -101.6479 0.0000 0.0000 0.0000
50.9317 -105.9542 -0.0249 0.0000 0.0000 0.0000 -0.3118 -12.5772 0.0344 0.0000 0.0000 0.0000 0.0000 0.0000 0.0000 0.0000 0.0000 0.0000 0.0000 0.0000 0.0000 0.0000 0.0000 0.0000 -66.4684 20.3779 30.6777 32.0448 -29.6964 85.4259 0.0000 0.0000 0.0000 0.0000 0.0000 0.0000 62.3392 23.4332 -37.8491 -18.5195 -22.7420 -101.9379 0.0000 0.0000 0.0000
50.9229 -106.0403 -0.0248 0.0000 0.0000 0.0000 -0.3359 -11.1142 0.0327 0.0000 0.0000 0.0000 0.0000 0.0000 0.0000 0.0000 0.0000 0.0000 0.0000 0.0000 0.0000 0.0000 0.0000 0.0000 -66.7384 20.2410 30.3281 30.4623 -28.6368 86.3001 0.0000 0.0000 0.0000 0.0000 0.0000 0.0000 63.2950 23.0544 -36.6183 -17.5244 -21.5027 -101.8648 0.0000 0.0000 0.0000
50.9577 -106.0053 -0.0249 0.0000 0.0000 0.0000 -0.3090 -11.3032 0.0306 0.0000 0.0000 0.0000 0.0000 0.0000 0.0000 0.0000 0.0000 0.0000 0.0000 0.0000 0.0000 0.0000 0.0000 0.0000 -67.3361 19.8445 29.4284 31.4118 -29.2172 85.6544 0.0000 0.0000 0.0000 0.0000 0.0000 0.0000 63.4179 22.9901 -36.4386 -17.6554 -21.7243 -102.0295 0.0000 0.0000 0.0000
50.9566 -106.2792 -0.0248 0.0000 0.0000 0.0000 -0.3208 -11.1494 0.0313 0.0000 0.0000 0.0000 0.0000 0.0000 0.0000 0.0000 0.0000 0.0000 0.0000 0.0000 0.0000 0.0000 0.0000 0.0000 -67.0629 20.0455 29.8666 29.2844 -27.8558 87.0135 0.0000 0.0000 0.0000 0.0000 0.0000 0.0000 63.1861 23.0852 -36.7380 -17.2510 -21.1873 -101.9126 0.0000 0.0000 0.0000
50.9601 -106.2188 -0.0248 0.0000 0.0000 0.0000 -0.3190 -13.1134 0.0367 0.0000 0.0000 0.0000 0.0000 0.0000 0.0000 0.0000 0.0000 0.0000 0.0000 0.0000 0.0000 0.0000 0.0000 0.0000 -65.1255 21.2023 32.6699 27.9402 -26.8915 87.7226 0.0000 0.0000 0.0000 0.0000 0.0000 0.0000 60.8232 23.9588 -39.7485 -16.7989 -20.5356 -101.6323 0.0000 0.0000 0.0000
50.9838 -106.2418 -0.0247 0.0000 0.0000 0.0000 -0.2909 -13.7833 0.0352 0.0000 0.0000 0.0000 0.0000 0.0000 0.0000 0.0000 0.0000 0.0000 0.0000 0.0000 0.0000 0.0000 0.0000 0.0000 -64.4279 21.5634 33.6332 27.7114 -26.7337 87.8630 0.0000 0.0000 0.0000 0.0000 0.0000 0.0000 61.0555 23.8641 -39.4301 -17.1802 -20.7553 -100.9638 0.0000 0.0000 0.0000
50.9587 -106.2572 -0.0244 0.0000 0.0000 0.0000 -0.3098 -15.3409 0.0417 0.0000 0.0000 0.0000 0.0000 0.0000 0.0000 0.0000 0.0000 0.0000 0.0000 0.0000 0.0000 0.0000 0.0000 0.0000 -65.0658 21.1797 32.6717 28.0333 -26.9249 87.5982 0.0000 0.0000 0.0000 0.0000 0.0000 0.0000 62.9367 23.0198 -36.8056 -17.0374 -20.2563 -100.0404 0.0000 0.0000 0.0000
50.9228 -106.3135 -0.0270 0.0000 0.0000 0.0000 -0.3305 -15.2076 0.0441 0.0000 0.0000 0.0000 0.0000 0.0000 0.0000 0.0000 0.0000 0.0000 0.0000 0.0000 0.0000 0.0000 0.0000 0.0000 -65.9695 20.6317 31.3317 27.6079 -26.5854 87.7554 0.0000 0.0000 0.0000 0.0000 0.0000 0.0000 62.8212 22.9230 -36.7348 -17.3517 -20.1625 -98.7235 0.0000 0.0000 0.0000
50.9242 -106.5728 -0.0256 0.0000 0.0000 0.0000 -0.2878 -15.8702 0.0401 0.0000 0.0000 0.0000 0.0000 0.0000 0.0000 0.0000 0.0000 0.0000 0.0000 0.0000 0.0000 0.0000 0.0000 0.0000 -65.1151 21.0923 32.5118 27.1916 -26.2350 87.8723 0.0000 0.0000 0.0000 0.0000 0.0000 0.0000 62.8553 22.6996 -36.3687 -17.7621 -20.1075 -97.2179 0.0000 0.0000 0.0000
50.8895 -107.3199 -0.0254 0.0000 0.0000 0.0000 -0.3173 -15.3935 0.0429 0.0000 0.0000 0.0000 0.0000 0.0000 0.0000 0.0000 0.0000 0.0000 0.0000 0.0000 0.0000 0.0000 0.0000 0.0000 -65.5216 20.6965 31.6844 25.5275 -24.9458 88.6359 0.0000 0.0000 0.0000 0.0000 0.0000 0.0000 62.2038 22.2061 -36.0393 -17.6898 -19.7071 -96.2859 0.0000 0.0000 0.0000
50.7904 -107.3159 -0.0262 0.0000 0.0000 0.0000 -0.4307 -16.5165 0.0625 0.0000 0.0000 0.0000 0.0000 0.0000 0.0000 0.0000 0.0000 0.0000 0.0000 0.0000 0.0000 0.0000 0.0000 0.0000 -64.5629 21.1272 32.8938 23.8558 -23.6197 89.4135 0.0000 0.0000 0.0000 0.0000 0.0000 0.0000 60.5924 22.4437 -37.5124 -18.7474 -20.1034 -94.0755 0.0000 0.0000 0.0000
50.7452 -107.2856 -0.0264 0.0000 0.0000 0.0000 -0.4878 -16.8357 0.0722 0.0000 0.0000 0.0000 0.0000 0.0000 0.0000 0.0000 0.0000 0.0000 0.0000 0.0000 0.0000 0.0000 0.0000 0.0000 -65.1517 20.7931 32.0432 24.7464 -24.1924 88.6626 0.0000 0.0000 0.0000 0.0000 0.0000 0.0000 60.1776 22.1340 -37.3062 -21.4157 -21.8057 -91.0590 0.0000 0.0000 0.0000
50.5826 -107.2703 -0.0277 0.0000 0.0000 0.0000 -0.6806 -12.9765 0.0774 0.0000 0.0000 0.0000 0.0000 0.0000 0.0000 0.0000 0.0000 0.0000 0.0000 0.0000 0.0000 0.0000 0.0000 0.0000 -69.0913 17.9832 25.8881 28.0434 -26.4859 86.6013 0.0000 0.0000 0.0000 0.0000 0.0000 0.0000 62.5794 20.0257 -32.3976 -25.6162 -24.8774 -88.2679 0.0000 0.0000 0.0000
50.5824 -107.2585 -0.0278 0.0000 0.0000 0.0000 -0.6868 -10.4068 0.0625 0.0000 0.0000 0.0000 0.0000 0.0000 0.0000 0.0000 0.0000 0.0000 0.0000 0.0000 0.0000 0.0000 0.0000 0.0000 -72.7092 14.3597 19.4240 37.1630 -31.6408 80.2534 0.0000 0.0000 0.0000 0.0000 0.0000 0.0000 62.9637 18.5971 -29.9384 -32.1261 -28.7990 -83.4454 0.0000 0.0000 0.0000
50.5455 -106.9630 -0.0285 0.0000 0.0000 0.0000 -0.7797 -9.0177 0.0615 0.0000 0.0000 0.0000 0.0000 0.0000 0.0000 0.0000 0.0000 0.0000 0.0000 0.0000 0.0000 0.0000 0.0000 0.0000 -71.1901 16.1130 22.3715 31.3481 -28.2514 83.7757 0.0000 0.0000 0.0000 0.0000 0.0000 0.0000 61.9148 18.3546 -30.1478 -32.9935 -28.6779 -81.5977 0.0000 0.0000 0.0000
50.5377 -106.6376 -0.0284 0.0000 0.0000 0.0000 -0.8275 -9.6421 0.0698 0.0000 0.0000 0.0000 0.0000 0.0000 0.0000 0.0000 0.0000 0.0000 0.0000 0.0000 0.0000 0.0000 0.0000 0.0000 -73.6835 13.0635 17.3773 41.0998 -33.1581 76.9107 0.0000 0.0000 0.0000 0.0000 0.0000 0.0000 61.8026 17.7050 -29.1721 -35.2626 -29.4900 -79.2558 0.0000 0.0000 0.0000
50.5235 -106.6237 -0.0279 0.0000 0.0000 0.0000 -0.8874 -10.1885 0.0791 0.0000 0.0000 0.0000 0.0000 0.0000 0.0000 0.0000 0.0000 0.0000 0.0000 0.0000 0.0000 0.0000 0.0000 0.0000 -73.3009 13.7676 18.4329 38.8356 -32.1208 78.4763 0.0000 0.0000 0.0000 0.0000 0.0000 0.0000 60.0976 18.3461 -31.1937 -34.5143 -28.8591 -79.2697 0.0000 0.0000 0.0000
50.4871 -106.6541 -0.0278 0.0000 0.0000 0.0000 -0.9401 -8.7805 0.0722 0.0000 0.0000 0.0000 0.0000 0.0000 0.0000 0.0000 0.0000 0.0000 0.0000 0.0000 0.0000 0.0000 0.0000 0.0000 -73.6462 13.4060 17.8417 39.1231 -32.1985 78.1715 0.0000 0.0000 0.0000 0.0000 0.0000 0.0000 58.9954 18.6781 -32.4186 -33.6306 -28.2663 -79.6014 0.0000 0.0000 0.0000
50.4860 -106.4941 -0.0278 0.0000 0.0000 0.0000 -0.9420 -8.3371 0.0687 0.0000 0.0000 0.0000 0.0000 0.0000 0.0000 0.0000 0.0000 0.0000 0.0000 0.0000 0.0000 0.0000 0.0000 0.0000 -72.3682 15.0492 20.4726 34.8530 -30.0513 81.0724 0.0000 0.0000 0.0000 0.0000 0.0000 0.0000 58.6850 18.6273 -32.5280 -33.4566 -27.9039 -79.1544 0.0000 0.0000 0.0000
50.4789 -106.3926 -0.0289 0.0000 0.0000 0.0000 -0.9852 -9.0535 0.0780 0.0000 0.0000 0.0000 0.0000 0.0000 0.0000 0.0000 0.0000 0.0000 0.0000 0.0000 0.0000 0.0000 0.0000 0.0000 -71.3403 16.2656 22.5199 31.9046 -28.3985 83.0294 0.0000 0.0000 0.0000 0.0000 0.0000 0.0000 58.7240 18.4780 -32.2522 -30.8170 -26.4706 -80.9541 0.0000 0.0000 0.0000
50.4719 -106.2160 -0.0287 0.0000 0.0000 0.0000 -0.9962 -6.1425 0.0535 0.0000 0.0000 0.0000 0.0000 0.0000 0.0000 0.0000 0.0000 0.0000 0.0000 0.0000 0.0000 0.0000 0.0000 0.0000 -71.0265 16.5825 23.0827 31.3516 -28.0696 83.3863 0.0000 0.0000 0.0000 0.0000 0.0000 0.0000 58.4836 18.6029 -32.6140 -30.7324 -26.4350 -81.0382 0.0000 0.0000 0.0000
50.4627 -106.2158 -0.0286 0.0000 0.0000 0.0000 -1.0033 -6.5142 0.0571 0.0000 0.0000 0.0000 0.0000 0.0000 0.0000 0.0000 0.0000 0.0000 0.0000 0.0000 0.0000 0.0000 0.0000 0.0000 -71.0946 16.4981 22.9386 32.4834 -28.7225 82.6241 0.0000 0.0000 0.0000 0.0000 0.0000 0.0000 58.2701 18.7662 -33.0261 -31.2614 -26.6225 -80.4389 0.0000 0.0000 0.0000
50.4742 -106.2156 -0.0283 0.0000 0.0000 0.0000 -0.9974 -7.1747 0.0625 0.0000 0.0000 0.0000 0.0000 0.0000 0.0000 0.0000 0.0000 0.0000 0.0000 0.0000 0.0000 0.0000 0.0000 0.0000 -71.7581 15.7710 21.6798 32.6526 -28.8381 82.5502 0.0000 0.0000 0.0000 0.0000 0.0000 0.0000 57.8145 18.9887 -33.6996 -31.8295 -26.9450 -80.0739 0.0000 0.0000 0.0000
50.4766 -106.4188 -0.0284 0.0000 0.0000 0.0000 -0.9918 -7.5068 0.0651 0.0000 0.0000 0.0000 0.0000 0.0000 0.0000 0.0000 0.0000 0.0000 0.0000 0.0000 0.0000 0.0000 0.0000 0.0000 -71.2344 16.3259 22.6453 29.3002 -26.7641 84.6081 0.0000 0.0000 0.0000 0.0000 0.0000 0.0000 58.2049 18.8332 -33.1816 -28.9512 -25.2505 -81.8915 0.0000 0.0000 0.0000
50.4357 -106.4042 -0.0284 0.0000 0.0000 0.0000 -1.0266 -7.5879 0.0681 0.0000 0.0000 0.0000 0.0000 0.0000 0.0000 0.0000 0.0000 0.0000 0.0000 0.0000 0.0000 0.0000 0.0000 0.0000 -73.3436 13.8210 18.4897 37.3003 -31.3046 79.3964 0.0000 0.0000 0.0000 0.0000 0.0000 0.0000 58.8257 18.5339 -32.2828 -33.2179 -27.5719 -78.8804 0.0000 0.0000 0.0000
50.4387 -106.3995 -0.0286 0.0000 0.0000 0.0000 -1.0228 -10.9181 0.0978 0.0000 0.0000 0.0000 0.0000 0.0000 0.0000 0.0000 0.0000 0.0000 0.0000 0.0000 0.0000 0.0000 0.0000 0.0000 -74.5701 11.9362 15.6361 36.7025 -30.9846 79.7647 0.0000 0.0000 0.0000 0.0000 0.0000 0.0000 59.5450 18.1456 -31.1931 -34.8068 -28.3265 -77.6754 0.0000 0.0000 0.0000
50.4628 -106.3394 -0.0286 0.0000 0.0000 0.0000 -0.9848 -10.7139 0.0923 0.0000 0.0000 0.0000 0.0000 0.0000 0.0000 0.0000 0.0000 0.0000 0.0000 0.0000 0.0000 0.0000 0.0000 0.0000 -74.1180 12.6114 16.6497 36.2669 -30.7724 80.0790 0.0000 0.0000 0.0000 0.0000 0.0000 0.0000 59.4881 18.2268 -31.3624 -33.5843 -27.7399 -78.5828 0.0000 0.0000 0.0000
50.4666 -106.1819 -0.0288 0.0000 0.0000 0.0000 -0.9802 -11.2341 0.0964 0.0000 0.0000 0.0000 0.0000 0.0000 0.0000 0.0000 0.0000 0.0000 0.0000 0.0000 0.0000 0.0000 0.0000 0.0000 -73.4345 13.6081 18.1774 37.5332 -31.3871 79.1754 0.0000 0.0000 0.0000 0.0000 0.0000 0.0000 59.8319 18.0422 -30.8503 -33.6655 -27.7771 -78.5173 0.0000 0.0000 0.0000
50.4700 -106.1809 -0.0287 0.0000 0.0000 0.0000 -0.9794 -10.4417 0.0895 0.0000 0.0000 0.0000 0.0000 0.0000 0.0000 0.0000 0.0000 0.0000 0.0000 0.0000 0.0000 0.0000 0.0000 0.0000 -73.6299 13.3458 17.7673 38.7115 -31.9307 78.3192 0.0000 0.0000 0.0000 0.0000 0.0000 0.0000 59.3351 18.3368 -31.6386 -33.7688 -27.8393 -78.4656 0.0000 0.0000 0.0000
50.4698 -106.1809 -0.0288 0.0000 0.0000 0.0000 -0.9790 -7.7873 0.0666 0.0000 0.0000 0.0000 0.0000 0.0000 0.0000 0.0000 0.0000 0.0000 0.0000 0.0000 0.0000 0.0000 0.0000 0.0000 -72.4622 14.8532 20.1744 36.6539 -30.9654 79.8079 0.0000 0.0000 0.0000 0.0000 0.0000 0.0000 59.6583 18.1669 -31.1605 -33.2034 -27.5628 -78.8871 0.0000 0.0000 0.0000
50.4734 -106.1710 -0.0288 0.0000 0.0000 0.0000 -0.9711 -7.9444 0.0674 0.0000 0.0000 0.0000 0.0000 0.0000 0.0000 0.0000 0.0000 0.0000 0.0000 0.0000 0.0000 0.0000 0.0000 0.0000 -72.4406 14.8865 20.2271 36.7270 -30.9860 79.7271 0.0000 0.0000 0.0000 0.0000 0.0000 0.0000 59.4533 18.3064 -31.5159 -33.4271 -27.6622 -78.6981 0.0000 0.0000 0.0000
50.4705 -106.1716 -0.0289 0.0000 0.0000 0.0000 -0.9801 -8.8986 0.0763 0.0000 0.0000 0.0000 0.0000 0.0000 0.0000 0.0000 0.0000 0.0000 0.0000 0.0000 0.0000 0.0000 0.0000 0.0000 -72.6968 14.5577 19.6938 36.6351 -30.9378 79.7862 0.0000 0.0000 0.0000 0.0000 0.0000 0.0000 58.7467 18.7124 -32.6322 -34.1379 -28.0252 -78.2071 0.0000 0.0000 0.0000
50.4725 -106.1680 -0.0275 0.0000 0.0000 0.0000 -0.9838 -8.0694 0.0694 0.0000 0.0000 0.0000 0.0000 0.0000 0.0000 0.0000 0.0000 0.0000 0.0000 0.0000 0.0000 0.0000 0.0000 0.0000 -70.3028 17.1411 24.1616 30.5737 -27.5619 83.8076 0.0000 0.0000 0.0000 0.0000 0.0000 0.0000 58.5588 18.8149 -32.9239 -33.1642 -27.5471 -78.9242 0.0000 0.0000 0.0000
50.4713 -106.1741 -0.0275 0.0000 0.0000 0.0000 -0.9856 -8.1112 0.0699 0.0000 0.0000 0.0000 0.0000 0.0000 0.0000 0.0000 0.0000 0.0000 0.0000 0.0000 0.0000 0.0000 0.0000 0.0000 -70.5524 16.8850 23.6990 32.5512 -28.7690 82.5948 0.0000 0.0000 0.0000 0.0000 0.0000 0.0000 58.6609 18.7553 -32.7587 -34.2751 -28.1107 -78.1462 0.0000 0.0000 0.0000
50.4862 -106.1874 -0.0274 0.0000 0.0000 0.0000 -0.9708 -7.2601 0.0616 0.0000 0.0000 0.0000 0.0000 0.0000 0.0000 0.0000 0.0000 0.0000 0.0000 0.0000 0.0000 0.0000 0.0000 0.0000 -72.1373 15.1918 20.7504 36.0329 -30.6788 80.2892 0.0000 0.0000 0.0000 0.0000 0.0000 0.0000 58.9762 18.5711 -32.2513 -33.7110 -27.8340 -78.5564 0.0000 0.0000 0.0000
50.4670 -106.1577 -0.0275 0.0000 0.0000 0.0000 -1.0106 -9.6863 0.0856 0.0000 0.0000 0.0000 0.0000 0.0000 0.0000 0.0000 0.0000 0.0000 0.0000 0.0000 0.0000 0.0000 0.0000 0.0000 -73.2519 13.8092 18.5044 40.3832 -32.7234 77.2019 0.0000 0.0000 0.0000 0.0000 0.0000 0.0000 59.5349 18.2409 -31.3576 -36.3008 -29.0005 -76.5402 0.0000 0.0000 0.0000
50.4759 -106.0671 -0.0274 0.0000 0.0000 0.0000 -1.0037 -11.2392 0.0988 0.0000 0.0000 0.0000 0.0000 0.0000 0.0000 0.0000 0.0000 0.0000 0.0000 0.0000 0.0000 0.0000 0.0000 0.0000 -73.3999 13.6332 18.2220 40.2888 -32.6777 77.2615 0.0000 0.0000 0.0000 0.0000 0.0000 0.0000 59.8226 18.0966 -30.9459 -35.3675 -28.5794 -77.2413 0.0000 0.0000 0.0000
50.4765 -105.9898 -0.0275 0.0000 0.0000 0.0000 -0.9879 -11.1079 0.0961 0.0000 0.0000 0.0000 0.0000 0.0000 0.0000 0.0000 0.0000 0.0000 0.0000 0.0000 0.0000 0.0000 0.0000 0.0000 -73.9328 12.8623 17.0352 39.9911 -32.5866 77.5473 0.0000 0.0000 0.0000 0.0000 0.0000 0.0000 60.1112 18.0234 -30.6543 -35.1240 -28.4748 -77.4391 0.0000 0.0000 0.0000
50.4754 -105.9666 -0.0277 0.0000 0.0000 0.0000 -0.9887 -11.1943 0.0969 0.0000 0.0000 0.0000 0.0000 0.0000 0.0000 0.0000 0.0000 0.0000 0.0000 0.0000 0.0000 0.0000 0.0000 0.0000 -73.0831 14.0701 18.9084 36.8830 -31.1447 79.7734 0.0000 0.0000 0.0000 0.0000 0.0000 0.0000 59.6397 18.3589 -31.4903 -34.5983 -28.3369 -78.0548 0.0000 0.0000 0.0000
50.4737 -105.9675 -0.0277 0.0000 0.0000 0.0000 -0.9809 -12.4681 0.1072 0.0000 0.0000 0.0000 0.0000 0.0000 0.0000 0.0000 0.0000 0.0000 0.0000 0.0000 0.0000 0.0000 0.0000 0.0000 -73.7984 13.1034 17.3943 37.1425 -31.3394 79.7188 0.0000 0.0000 0.0000 0.0000 0.0000 0.0000 59.9864 18.2438 -31.0916 -32.1757 -27.3966 -80.4049 0.0000 0.0000 0.0000
50.4067 -106.0419 -0.0259 0.0000 0.0000 0.0000 -1.0016 -15.8548 0.1395 0.0000 0.0000 0.0000 0.0000 0.0000 0.0000 0.0000 0.0000 0.0000 0.0000 0.0000 0.0000 0.0000 0.0000 0.0000 -71.7757 15.7370 21.6268 29.6649 -27.3343 85.1188 0.0000 0.0000 0.0000 0.0000 0.0000 0.0000 60.7489 18.0500 -30.3258 -24.5786 -23.1667 -86.5125 0.0000 0.0000 0.0000
50.3705 -106.6765 -0.0255 0.0000 0.0000 0.0000 -1.0322 -14.7003 0.1332 0.0000 0.0000 0.0000 0.0000 0.0000 0.0000 0.0000 0.0000 0.0000 0.0000 0.0000 0.0000 0.0000 0.0000 0.0000 -75.9245 9.6543 12.3550 38.4882 -32.3524 79.4482 0.0000 0.0000 0.0000 0.0000 0.0000 0.0000 60.1275 18.7186 -31.7879 -22.9849 -22.2627 -88.1229 0.0000 0.0000 0.0000
49.8903 -107.9074 -0.0224 0.0000 0.0000 0.0000 -1.5485 -15.6365 0.2126 0.0000 0.0000 0.0000 0.0000 0.0000 0.0000 0.0000 0.0000 0.0000 0.0000 0.0000 0.0000 0.0000 0.0000 0.0000 -72.7895 14.9328 20.1630 25.5155 -24.8236 88.3732 0.0000 0.0000 0.0000 0.0000 0.0000 0.0000 59.5205 19.7158 -33.8092 -16.2396 -16.4949 -90.9058 0.0000 0.0000 0.0000
50.0348 -108.1840 -0.0201 0.0000 0.0000 0.0000 -1.4615 -15.9443 0.2047 0.0000 0.0000 0.0000 0.0000 0.0000 0.0000 0.0000 0.0000 0.0000 0.0000 0.0000 0.0000 0.0000 0.0000 0.0000 -74.3996 13.8595 18.1944 20.8167 -21.8018 92.7103 0.0000 0.0000 0.0000 0.0000 0.0000 0.0000 64.9802 17.7346 -27.5307 -9.0580 -9.5585 -93.0933 0.0000 0.0000 0.0000
50.0576 -108.1578 -0.0189 0.0000 0.0000 0.0000 -1.4787 -11.5386 0.1494 0.0000 0.0000 0.0000 0.0000 0.0000 0.0000 0.0000 0.0000 0.0000 0.0000 0.0000 0.0000 0.0000 0.0000 0.0000 -75.7202 13.0994 16.8034 11.2050 -12.6982 97.2010 0.0000 0.0000 0.0000 0.0000 0.0000 0.0000 68.9446 14.1147 -20.4432 0.6388 0.7005 -95.2715 0.0000 0.0000 0.0000
50.0435 -107.8323 -0.0181 0.0000 0.0000 0.0000 -1.5807 -15.5116 0.2153 0.0000 0.0000 0.0000 0.0000 0.0000 0.0000 0.0000 0.0000 0.0000 0.0000 0.0000 0.0000 0.0000 0.0000 0.0000 -73.4818 16.9814 22.6180 2.4965 -2.9126 98.8009 0.0000 0.0000 0.0000 0.0000 0.0000 0.0000 72.1831 10.8993 -14.9117 8.5412 9.1759 -94.1194 0.0000 0.0000 0.0000
50.0568 -109.5008 -0.0173 0.0000 0.0000 0.0000 -1.5336 -10.2525 0.1376 0.0000 0.0000 0.0000 0.0000 0.0000 0.0000 0.0000 0.0000 0.0000 0.0000 0.0000 0.0000 0.0000 0.0000 0.0000 -81.5074 -0.5896 -0.6842 -19.3545 23.6273 101.6203 0.0000 0.0000 0.0000 0.0000 0.0000 0.0000 65.3239 -19.6772 30.2758 107.6559 9.5345 -6.9786 0.0000 0.0000 0.0000
50.1135 -111.7380 -0.0181 0.0000 0.0000 0.0000 -1.3850 -11.2429 0.1363 0.0000 0.0000 0.0000 0.0000 0.0000 0.0000 0.0000 0.0000 0.0000 0.0000 0.0000 0.0000 0.0000 0.0000 0.0000 -82.1195 3.2767 3.7612 -30.7578 31.2084 90.8752 0.0000 0.0000 0.0000 0.0000 0.0000 0.0000 76.1803 -8.9066 11.3487 82.2416 31.4583 -35.7603 0.0000 0.0000 0.0000
50.2641 -114.8825 -0.0209 0.0000 0.0000 0.0000 -1.1437 -15.8048 0.1588 0.0000 0.0000 0.0000 0.0000 0.0000 0.0000 0.0000 0.0000 0.0000 0.0000 0.0000 0.0000 0.0000 0.0000 0.0000 -83.2197 0.2068 0.2328 -42.6338 34.2344 76.5617 0.0000 0.0000 0.0000 0.0000 0.0000 0.0000 77.4153 -8.8603 11.0442 77.6470 31.8682 -39.0687 0.0000 0.0000 0.0000
50.4688 -116.4720 -0.0235 0.0000 0.0000 0.0000 -0.8753 -16.1044 0.1238 0.0000 0.0000 0.0000 0.0000 0.0000 0.0000 0.0000 0.0000 0.0000 0.0000 0.0000 0.0000 0.0000 0.0000 0.0000 -83.6094 -5.0114 -5.6031 -68.7766 35.1886 49.7193 0.0000 0.0000 0.0000 0.0000 0.0000 0.0000 77.8519 -9.9676 12.3250 89.9684 23.1018 -23.1141 0.0000 0.0000 0.0000
50.5401 -118.0435 -0.0270 0.0000 0.0000 0.0000 -0.7422 -18.7408 0.1225 0.0000 0.0000 0.0000 0.0000 0.0000 0.0000 0.0000 0.0000 0.0000 0.0000 0.0000 0.0000 0.0000 0.0000 0.0000 -82.8221 -8.7634 -9.9307 -78.3749 30.2533 36.6903 0.0000 0.0000 0.0000 0.0000 0.0000 0.0000 79.3060 -9.4174 11.3506 81.5429 27.6579 -31.8645 0.0000 0.0000 0.0000
50.5459 -118.7785 -0.0270 0.0000 0.0000 0.0000 -0.7128 -19.0984 0.1199 0.0000 0.0000 0.0000 0.0000 0.0000 0.0000 0.0000 0.0000 0.0000 0.0000 0.0000 0.0000 0.0000 0.0000 0.0000 -82.4972 -10.1142 -11.5246 -82.0852 27.1743 31.0307 0.0000 0.0000 0.0000 0.0000 0.0000 0.0000 80.2299 -8.1895 9.7135 79.4567 28.5474 -34.0416 0.0000 0.0000 0.0000
50.6417 -120.5782 -0.0283 0.0000 0.0000 0.0000 -0.5841 -16.1536 0.0829 0.0000 0.0000 0.0000 0.0000 0.0000 0.0000 0.0000 0.0000 0.0000 0.0000 0.0000 0.0000 0.0000 0.0000 0.0000 -81.9769 -11.5204 -13.2436 -80.1831 25.9729 30.6408 0.0000 0.0000 0.0000 0.0000 0.0000 0.0000 78.5650 -13.0446 15.9135 88.7963 20.5323 -20.9587 0.0000 0.0000 0.0000
50.6421 -121.5964 -0.0310 0.0000 0.0000 0.0000 -0.5371 -16.7175 0.0789 0.0000 0.0000 0.0000 0.0000 0.0000 0.0000 0.0000 0.0000 0.0000 0.0000 0.0000 0.0000 0.0000 0.0000 0.0000 -82.2368 -11.4560 -13.1102 -78.6216 25.8417 31.3036 0.0000 0.0000 0.0000 0.0000 0.0000 0.0000 80.5646 -9.7543 11.4983 82.4824 26.0507 -29.5632 0.0000 0.0000 0.0000
50.6640 -122.2084 -0.0310 0.0000 0.0000 0.0000 -0.4910 -17.8691 0.0772 0.0000 0.0000 0.0000 0.0000 0.0000 0.0000 0.0000 0.0000 0.0000 0.0000 0.0000 0.0000 0.0000 0.0000 0.0000 -83.8927 -6.8614 -7.6325 -85.0038 17.0180 18.5448 0.0000 0.0000 0.0000 0.0000 0.0000 0.0000 80.9333 -8.8079 10.3173 77.8567 28.0736 -34.3975 0.0000 0.0000 0.0000
50.6996 -122.5969 -0.0304 0.0000 0.0000 0.0000 -0.3662 -16.3276 0.0525 0.0000 0.0000 0.0000 0.0000 0.0000 0.0000 0.0000 0.0000 0.0000 0.0000 0.0000 0.0000 0.0000 0.0000 0.0000 -84.3562 -4.8189 -5.3179 -81.2246 18.3475 21.3320 0.0000 0.0000 0.0000 0.0000 0.0000 0.0000 79.3939 -12.5996 15.1505 84.6740 20.6202 -22.5824 0.0000 0.0000 0.0000
50.7330 -122.9153 -0.0302 0.0000 0.0000 0.0000 -0.2957 -15.4781 0.0402 0.0000 0.0000 0.0000 0.0000 0.0000 0.0000 0.0000 0.0000 0.0000 0.0000 0.0000 0.0000 0.0000 0.0000 0.0000 -83.7222 -7.4974 -8.3645 -85.0900 13.1524 14.3190 0.0000 0.0000 0.0000 0.0000 0.0000 0.0000 79.0622 -13.1525 15.9051 86.1259 15.8394 -16.9327 0.0000 0.0000 0.0000
50.7565 -123.0563 -0.0295 0.0000 0.0000 0.0000 -0.2290 -14.9050 0.0300 0.0000 0.0000 0.0000 0.0000 0.0000 0.0000 0.0000 0.0000 0.0000 0.0000 0.0000 0.0000 0.0000 0.0000 0.0000 -84.1796 -5.9374 -6.5721 -82.1985 17.2167 19.6902 0.0000 0.0000 0.0000 0.0000 0.0000 0.0000 77.6991 -15.3381 18.9820 86.1914 15.7000 -16.7651 0.0000 0.0000 0.0000
50.7610 -122.9502 -0.0285 0.0000 0.0000 0.0000 -0.1918 -15.1271 0.0255 0.0000 0.0000 0.0000 0.0000 0.0000 0.0000 0.0000 0.0000 0.0000 0.0000 0.0000 0.0000 0.0000 0.0000 0.0000 -84.1018 -6.0799 -6.7389 -81.5238 17.0204 19.6951 0.0000 0.0000 0.0000 0.0000 0.0000 0.0000 80.0288 -11.7281 13.9496 86.6894 15.4228 -16.3287 0.0000 0.0000 0.0000
50.7391 -123.3677 -0.0290 0.0000 0.0000 0.0000 -0.1742 -13.8021 0.0211 0.0000 0.0000 0.0000 0.0000 0.0000 0.0000 0.0000 0.0000 0.0000 0.0000 0.0000 0.0000 0.0000 0.0000 0.0000 -84.4173 -4.4989 -4.9596 -81.8094 15.9684 18.3920 0.0000 0.0000 0.0000 0.0000 0.0000 0.0000 79.3438 -13.2271 15.9160 84.8090 18.0632 -19.7462 0.0000 0.0000 0.0000
50.7590 -123.7643 -0.0292 0.0000 0.0000 0.0000 -0.1031 -15.7817 0.0143 0.0000 0.0000 0.0000 0.0000 0.0000 0.0000 0.0000 0.0000 0.0000 0.0000 0.0000 0.0000 0.0000 0.0000 0.0000 -84.4240 -4.6610 -5.1375 -80.0301 17.5736 20.8643 0.0000 0.0000 0.0000 0.0000 0.0000 0.0000 78.1335 -15.2961 18.7868 80.3644 23.3805 -27.5329 0.0000 0.0000 0.0000
50.7635 -123.9225 -0.0287 0.0000 0.0000 0.0000 -0.0652 -15.3124 0.0088 0.0000 0.0000 0.0000 0.0000 0.0000 0.0000 0.0000 0.0000 0.0000 0.0000 0.0000 0.0000 0.0000 0.0000 0.0000 -84.3950 -5.2070 -5.7422 -81.8668 15.7331 18.1041 0.0000 0.0000 0.0000 0.0000 0.0000 0.0000 77.7743 -15.9425 19.6989 87.4853 16.4729 -17.2014 0.0000 0.0000 0.0000
50.7527 -123.8658 -0.0281 0.0000 0.0000 0.0000 -0.0344 -14.0254 0.0042 0.0000 0.0000 0.0000 0.0000 0.0000 0.0000 0.0000 0.0000 0.0000 0.0000 0.0000 0.0000 0.0000 0.0000 0.0000 -84.6265 -4.9263 -5.4107 -81.4054 16.5661 19.2113 0.0000 0.0000 0.0000 0.0000 0.0000 0.0000 76.6412 -17.4815 22.0172 89.3970 13.1243 -13.2619 0.0000 0.0000 0.0000
50.7492 -123.9212 -0.0275 0.0000 0.0000 0.0000 -0.0166 -15.1431 0.0022 0.0000 0.0000 0.0000 0.0000 0.0000 0.0000 0.0000 0.0000 0.0000 0.0000 0.0000 0.0000 0.0000 0.0000 0.0000 -85.1174 -2.6556 -2.8921 -78.8672 19.2296 23.2790 0.0000 0.0000 0.0000 0.0000 0.0000 0.0000 78.5804 -15.2587 18.5950 87.2141 18.1027 -18.9889 0.0000 0.0000 0.0000
50.8267 -124.2217 -0.0263 0.0000 0.0000 0.0000 0.0584 -16.4730 -0.0085 0.0000 0.0000 0.0000 0.0000 0.0000 0.0000 0.0000 0.0000 0.0000 0.0000 0.0000 0.0000 0.0000 0.0000 0.0000 -85.1349 -3.3045 -3.5975 -78.7891 20.0217 24.2616 0.0000 0.0000 0.0000 0.0000 0.0000 0.0000 76.3294 -17.9476 22.7224 91.4683 11.4189 -11.1318 0.0000 0.0000 0.0000
50.4654 -124.1860 -0.0275 0.0000 0.0000 0.0000 -0.2385 -17.6556 0.0370 0.0000 0.0000 0.0000 0.0000 0.0000 0.0000 0.0000 0.0000 0.0000 0.0000 0.0000 0.0000 0.0000 0.0000 0.0000 -85.4731 1.4708 1.5919 -71.5755 25.3960 34.7141 0.0000 0.0000 0.0000 0.0000 0.0000 0.0000 76.0088 -18.4514 23.4847 86.5926 19.1994 -20.3526 0.0000 0.0000 0.0000
50.4282 -124.1882 -0.0301 0.0000 0.0000 0.0000 -0.2509 -17.9159 0.0396 0.0000 0.0000 0.0000 0.0000 0.0000 0.0000 0.0000 0.0000 0.0000 0.0000 0.0000 0.0000 0.0000 0.0000 0.0000 -84.1975 -8.5146 -9.4198 -78.0713 22.3416 27.3761 0.0000 0.0000 0.0000 0.0000 0.0000 0.0000 81.9139 -9.9106 11.4089 79.0728 25.5726 -30.7469 0.0000 0.0000 0.0000
50.4317 -124.4289 -0.0301 0.0000 0.0000 0.0000 -0.2333 -17.8961 0.0367 0.0000 0.0000 0.0000 0.0000 0.0000 0.0000 0.0000 0.0000 0.0000 0.0000 0.0000 0.0000 0.0000 0.0000 0.0000 -84.6642 -7.1620 -7.8600 -75.1679 24.2134 31.1463 0.0000 0.0000 0.0000 0.0000 0.0000 0.0000 80.9287 -11.9152 13.9497 82.8993 22.9547 -25.8948 0.0000 0.0000 0.0000
50.4177 -124.5006 -0.0292 0.0000 0.0000 0.0000 -0.2436 -18.6614 0.0400 0.0000 0.0000 0.0000 0.0000 0.0000 0.0000 0.0000 0.0000 0.0000 0.0000 0.0000 0.0000 0.0000 0.0000 0.0000 -85.5301 -2.4554 -2.6548 -78.6582 21.7129 26.3479 0.0000 0.0000 0.0000 0.0000 0.0000 0.0000 80.6842 -12.3711 14.5440 85.0377 21.1566 -23.0240 0.0000 0.0000 0.0000
50.4133 -124.5854 -0.0303 0.0000 0.0000 0.0000 -0.2361 -19.0303 0.0396 0.0000 0.0000 0.0000 0.0000 0.0000 0.0000 0.0000 0.0000 0.0000 0.0000 0.0000 0.0000 0.0000 0.0000 0.0000 -85.4536 -3.0261 -3.2761 -77.8458 22.5848 27.7774 0.0000 0.0000 0.0000 0.0000 0.0000 0.0000 81.9882 -9.7024 11.1551 83.4226 22.4526 -25.1079 0.0000 0.0000 0.0000
50.3651 -124.6745 -0.0293 0.0000 0.0000 0.0000 -0.2763 -18.6737 0.0454 0.0000 0.0000 0.0000 0.0000 0.0000 0.0000 0.0000 0.0000 0.0000 0.0000 0.0000 0.0000 0.0000 0.0000 0.0000 -85.4099 -3.1703 -3.4349 -76.7202 22.8439 28.6399 0.0000 0.0000 0.0000 0.0000 0.0000 0.0000 81.5226 -10.7616 12.4718 87.6285 17.8731 -18.6157 0.0000 0.0000 0.0000
50.3685 -124.6562 -0.0289 0.0000 0.0000 0.0000 -0.2730 -17.5906 0.0422 0.0000 0.0000 0.0000 0.0000 0.0000 0.0000 0.0000 0.0000 0.0000 0.0000 0.0000 0.0000 0.0000 0.0000 0.0000 -84.1278 -8.2932 -9.1862 -77.5737 22.1760 27.4092 0.0000 0.0000 0.0000 0.0000 0.0000 0.0000 83.1254 -6.0898 6.8663 79.0836 25.4722 -30.6224 0.0000 0.0000 0.0000
50.3601 -124.9094 -0.0287 0.0000 0.0000 0.0000 -0.2760 -17.5138 0.0425 0.0000 0.0000 0.0000 0.0000 0.0000 0.0000 0.0000 0.0000 0.0000 0.0000 0.0000 0.0000 0.0000 0.0000 0.0000 -85.2604 -3.2350 -3.5142 -72.6636 25.2096 33.8249 0.0000 0.0000 0.0000 0.0000 0.0000 0.0000 82.4293 -8.4467 9.6384 82.4949 23.3679 -26.5391 0.0000 0.0000 0.0000
50.3707 -125.2540 -0.0301 0.0000 0.0000 0.0000 -0.2657 -17.5937 0.0411 0.0000 0.0000 0.0000 0.0000 0.0000 0.0000 0.0000 0.0000 0.0000 0.0000 0.0000 0.0000 0.0000 0.0000 0.0000 -85.4542 0.4934 0.5342 -72.9163 25.0378 33.4542 0.0000 0.0000 0.0000 0.0000 0.0000 0.0000 82.2053 -9.0653 10.3840 83.4852 22.5709 -25.2125 0.0000 0.0000 0.0000
50.3650 -125.4723 -0.0298 0.0000 0.0000 0.0000 -0.2741 -18.2996 0.0442 0.0000 0.0000 0.0000 0.0000 0.0000 0.0000 0.0000 0.0000 0.0000 0.0000 0.0000 0.0000 0.0000 0.0000 0.0000 -85.4240 -0.9442 -1.0228 -75.0982 23.9972 30.9106 0.0000 0.0000 0.0000 0.0000 0.0000 0.0000 81.6619 -10.3545 11.9717 83.6406 22.6562 -25.2404 0.0000 0.0000 0.0000
50.4373 -125.4552 -0.0324 0.0000 0.0000 0.0000 -0.2117 -19.0698 0.0356 0.0000 0.0000 0.0000 0.0000 0.0000 0.0000 0.0000 0.0000 0.0000 0.0000 0.0000 0.0000 0.0000 0.0000 0.0000 -85.3451 -2.0011 -2.1706 -72.6009 25.3065 33.9881 0.0000 0.0000 0.0000 0.0000 0.0000 0.0000 82.0205 -9.4815 10.8953 81.1678 24.5434 -28.4956 0.0000 0.0000 0.0000
50.4140 -125.4373 -0.0302 0.0000 0.0000 0.0000 -0.2282 -17.4525 0.0350 0.0000 0.0000 0.0000 0.0000 0.0000 0.0000 0.0000 0.0000 0.0000 0.0000 0.0000 0.0000 0.0000 0.0000 0.0000 -85.4330 0.1267 0.1373 -72.3022 25.2505 34.0901 0.0000 0.0000 0.0000 0.0000 0.0000 0.0000 75.7341 -18.7752 24.0073 90.7214 12.6985 -12.5408 0.0000 0.0000 0.0000
50.4294 -125.4061 -0.0312 0.0000 0.0000 0.0000 -0.2161 -16.7854 0.0319 0.0000 0.0000 0.0000 0.0000 0.0000 0.0000 0.0000 0.0000 0.0000 0.0000 0.0000 0.0000 0.0000 0.0000 0.0000 -85.4341 0.7716 0.8357 -72.6996 25.4144 34.0712 0.0000 0.0000 0.0000 0.0000 0.0000 0.0000 79.4201 -14.3925 17.2890 82.2924 23.2173 -26.4603 0.0000 0.0000 0.0000
